{
  "type": "FeatureCollection",
  "metadata": {
    "retailer": "Specsavers",
    "source": "https://www.specsavers.co.nz/stores/full-store-list",
    "fetched_at": "2026-09-01T23:21:29.969Z",
    "store_count": 61,
    "collection_method": "Official full store list reconciled; structured details retained for unchanged official URLs; removed URLs verified absent"
  },
  "features": [
    {
      "type": "Feature",
      "geometry": {
        "type": "Point",
        "coordinates": [
          174.70837,
          -36.72871
        ]
      },
      "properties": {
        "id": "3801",
        "name": "Albany Westfield",
        "status": "Active",
        "country": "New Zealand",
        "state": "Auckland",
        "city": "Auckland",
        "postal_code": "0632",
        "full_address": "Shop 221, Westfield Albany, 219 Don Mckinnon Dr, Albany, Auckland, 0632",
        "phone": "09 447 1465",
        "official_url": "https://www.specsavers.co.nz/stores/albany",
        "services": "Optometry; Audiology",
        "audiology": "true"
      }
    },
    {
      "type": "Feature",
      "geometry": {
        "type": "Point",
        "coordinates": [
          174.76553,
          -36.847565
        ]
      },
      "properties": {
        "id": "3842",
        "name": "Auckland CBD",
        "status": "Active",
        "country": "New Zealand",
        "state": "Auckland",
        "city": "Auckland",
        "postal_code": "1010",
        "full_address": "155 Queen St, Auckland Central, Auckland, 1010",
        "phone": "09 303 1364",
        "official_url": "https://www.specsavers.co.nz/stores/aucklandcbd",
        "services": "Optometry",
        "audiology": "false"
      }
    },
    {
      "type": "Feature",
      "geometry": {
        "type": "Point",
        "coordinates": [
          174.91295,
          -36.931423
        ]
      },
      "properties": {
        "id": "3827",
        "name": "Botany",
        "status": "Active",
        "country": "New Zealand",
        "state": "Auckland",
        "city": "Auckland",
        "postal_code": "2016",
        "full_address": "Shop SP0522 Botany Town Centre, 22 Town Centre Drive, East Tamaki, Auckland, 2016",
        "phone": "09 279 8007",
        "official_url": "https://www.specsavers.co.nz/stores/botany",
        "services": "Optometry; Audiology",
        "audiology": "true"
      }
    },
    {
      "type": "Feature",
      "geometry": {
        "type": "Point",
        "coordinates": [
          174.72249,
          -36.782238
        ]
      },
      "properties": {
        "id": "3811",
        "name": "Glenfield Mall",
        "status": "Active",
        "country": "New Zealand",
        "state": "Auckland",
        "city": "Auckland",
        "postal_code": "0629",
        "full_address": "Glenfield Mall, Glenfield, Auckland, 0629",
        "phone": "09 441 7936",
        "official_url": "https://www.specsavers.co.nz/stores/glenfield",
        "services": "Optometry; Audiology",
        "audiology": "true"
      }
    },
    {
      "type": "Feature",
      "geometry": {
        "type": "Point",
        "coordinates": [
          174.63277,
          -36.88098
        ]
      },
      "properties": {
        "id": "3806",
        "name": "Henderson - WestCity S/C",
        "status": "Active",
        "country": "New Zealand",
        "state": "Auckland",
        "city": "Auckland",
        "postal_code": "0612",
        "full_address": "Shop 225, WestCity Waitakere Shopping Centre, 7 Catherine Street, Henderson, Auckland, 0612",
        "phone": "09 838 6853",
        "official_url": "https://www.specsavers.co.nz/stores/henderson",
        "services": "Optometry; Audiology",
        "audiology": "true"
      }
    },
    {
      "type": "Feature",
      "geometry": {
        "type": "Point",
        "coordinates": [
          174.8821,
          -36.99122
        ]
      },
      "properties": {
        "id": "3809",
        "name": "Manukau Westfield",
        "status": "Active",
        "country": "New Zealand",
        "state": "Auckland",
        "city": "Auckland",
        "postal_code": "2241",
        "full_address": "Shop 1, Level G, Westfield Manukau, Cnr Great South Road &amp; Manukau Station Road, Manukau, Auckland, 2241",
        "phone": "09 263 5115",
        "official_url": "https://www.specsavers.co.nz/stores/manukau",
        "services": "Optometry",
        "audiology": "false"
      }
    },
    {
      "type": "Feature",
      "geometry": {
        "type": "Point",
        "coordinates": [
          174.61165,
          -36.8185
        ]
      },
      "properties": {
        "id": "3807",
        "name": "Massey - NorthWest S/C",
        "status": "Active",
        "country": "New Zealand",
        "state": "Auckland",
        "city": "Auckland",
        "postal_code": "0657",
        "full_address": "Shop 56, Northwest Shopping Centre, 1/7 Fred Taylor Drive, Massey, Auckland, 0657",
        "phone": "09 833 1337",
        "official_url": "https://www.specsavers.co.nz/stores/massey",
        "services": "Optometry; Audiology",
        "audiology": "true"
      }
    },
    {
      "type": "Feature",
      "geometry": {
        "type": "Point",
        "coordinates": [
          174.73293,
          -36.90764
        ]
      },
      "properties": {
        "id": "3865",
        "name": "Mt Roskill",
        "status": "Active",
        "country": "New Zealand",
        "state": "Auckland",
        "city": "Auckland",
        "postal_code": "1041",
        "full_address": "The Warehouse, 22 Stoddard Rd, Auckland, 1041",
        "phone": "09 620 1101",
        "official_url": "https://www.specsavers.co.nz/stores/mtroskill",
        "services": "Optometry; Audiology",
        "audiology": "true"
      }
    },
    {
      "type": "Feature",
      "geometry": {
        "type": "Point",
        "coordinates": [
          174.8329,
          -36.88814
        ]
      },
      "properties": {
        "id": "3866",
        "name": "Mt Wellington",
        "status": "Active",
        "country": "New Zealand",
        "state": "Auckland",
        "city": "Auckland",
        "postal_code": "1072",
        "full_address": "The Warehouse, 87-101 Lunn Avenue, Mt Wellington, Auckland, 1072",
        "phone": "09 570 2222",
        "official_url": "https://www.specsavers.co.nz/stores/mtwellington",
        "services": "Optometry; Audiology",
        "audiology": "true"
      }
    },
    {
      "type": "Feature",
      "geometry": {
        "type": "Point",
        "coordinates": [
          174.77689,
          -36.87079
        ]
      },
      "properties": {
        "id": "3849",
        "name": "Newmarket Westfield",
        "status": "Active",
        "country": "New Zealand",
        "state": "Auckland",
        "city": "Auckland",
        "postal_code": "1023",
        "full_address": "Shop 353, Westfield, 277 Broadway, Newmarket, Auckland, 1023",
        "phone": "09 523 5322",
        "official_url": "https://www.specsavers.co.nz/stores/newmarket",
        "services": "Optometry; Audiology",
        "audiology": "true"
      }
    },
    {
      "type": "Feature",
      "geometry": {
        "type": "Point",
        "coordinates": [
          174.78522,
          -36.92307
        ]
      },
      "properties": {
        "id": "3875",
        "name": "Onehunga",
        "status": "Active",
        "country": "New Zealand",
        "state": "Auckland",
        "city": "Auckland",
        "postal_code": "1061",
        "full_address": "178-182 Onehunga Mall, Onehunga, Auckland, 1061",
        "phone": "09 634 1437",
        "official_url": "https://www.specsavers.co.nz/stores/onehunga",
        "services": "Optometry; Audiology",
        "audiology": "true"
      }
    },
    {
      "type": "Feature",
      "geometry": {
        "type": "Point",
        "coordinates": [
          174.94263,
          -37.062855
        ]
      },
      "properties": {
        "id": "3828",
        "name": "Papakura",
        "status": "Active",
        "country": "New Zealand",
        "state": "Auckland",
        "city": "Auckland",
        "postal_code": "2110",
        "full_address": "172 Great South Rd, Papakura, Auckland, 2110",
        "phone": "09 299 7764",
        "official_url": "https://www.specsavers.co.nz/stores/papakura",
        "services": "Optometry; Audiology",
        "audiology": "true"
      }
    },
    {
      "type": "Feature",
      "geometry": {
        "type": "Point",
        "coordinates": [
          174.90233,
          -37.20085
        ]
      },
      "properties": {
        "id": "3814",
        "name": "Pukekohe",
        "status": "Active",
        "country": "New Zealand",
        "state": "Auckland",
        "city": "Auckland",
        "postal_code": "2120",
        "full_address": "41 King St, Unit B, Pukekohe, Auckland, 2120",
        "phone": "09 238 9906",
        "official_url": "https://www.specsavers.co.nz/stores/pukekohe",
        "services": "Optometry; Audiology",
        "audiology": "true"
      }
    },
    {
      "type": "Feature",
      "geometry": {
        "type": "Point",
        "coordinates": [
          174.68007,
          -36.61328
        ]
      },
      "properties": {
        "id": "3841",
        "name": "Silverdale",
        "status": "Active",
        "country": "New Zealand",
        "state": "Auckland",
        "city": "Auckland",
        "postal_code": "0930",
        "full_address": "10/75 Silverdale Street, Shop PR10, Silverdale, Auckland, 0930",
        "phone": "09 428 0845",
        "official_url": "https://www.specsavers.co.nz/stores/silverdale",
        "services": "Optometry; Audiology",
        "audiology": "true"
      }
    },
    {
      "type": "Feature",
      "geometry": {
        "type": "Point",
        "coordinates": [
          174.8413,
          -36.917686
        ]
      },
      "properties": {
        "id": "3829",
        "name": "Sylvia Park Mall",
        "status": "Active",
        "country": "New Zealand",
        "state": "Auckland",
        "city": "Auckland",
        "postal_code": "1060",
        "full_address": "286 Mount Wellington Highway, Shop S006 Sylvia Park Shopping Centre, Mt Wellington, Auckland, 1060",
        "phone": "09 579 4434",
        "official_url": "https://www.specsavers.co.nz/stores/sylviapark",
        "services": "Optometry",
        "audiology": "false"
      }
    },
    {
      "type": "Feature",
      "geometry": {
        "type": "Point",
        "coordinates": [
          174.77007,
          -36.787666
        ]
      },
      "properties": {
        "id": "3802",
        "name": "Takapuna Shore City",
        "status": "Active",
        "country": "New Zealand",
        "state": "Auckland",
        "city": "Auckland",
        "postal_code": "0622",
        "full_address": "Shore City, 52 - 56 Anzac Street, Takapuna, Auckland, 0622",
        "phone": "09 486 0311",
        "official_url": "https://www.specsavers.co.nz/stores/takapuna",
        "services": "Optometry; Audiology",
        "audiology": "true"
      }
    },
    {
      "type": "Feature",
      "geometry": {
        "type": "Point",
        "coordinates": [
          174.91454,
          -36.964375
        ]
      },
      "properties": {
        "id": "3871",
        "name": "Ormiston",
        "status": "Active",
        "country": "New Zealand",
        "state": "Auckland",
        "city": "Flat Bush",
        "postal_code": "2016",
        "full_address": "Ormiston Town Centre, 240 Ormiston Road, Ormiston, Flat Bush, 2016",
        "phone": "09 265 2240",
        "official_url": "https://www.specsavers.co.nz/stores/ormiston",
        "services": "Optometry; Audiology",
        "audiology": "true"
      }
    },
    {
      "type": "Feature",
      "geometry": {
        "type": "Point",
        "coordinates": [
          174.87505,
          -37.003506
        ]
      },
      "properties": {
        "id": "3874",
        "name": "Manukau Supa Centa",
        "status": "Active",
        "country": "New Zealand",
        "state": "Auckland",
        "city": "Manukau City Centre",
        "postal_code": "2104",
        "full_address": "SPK201, Manukau Supa Centa, Cnr Lambie &amp; Cavendish Drive, Manukau, Manukau City Centre, 2104",
        "phone": "09 262 0233",
        "official_url": "https://www.specsavers.co.nz/stores/manukau-supa-centa",
        "services": "Optometry",
        "audiology": "false"
      }
    },
    {
      "type": "Feature",
      "geometry": {
        "type": "Point",
        "coordinates": [
          174.73318,
          -36.883354
        ]
      },
      "properties": {
        "id": "3825",
        "name": "St Lukes Westfield",
        "status": "Active",
        "country": "New Zealand",
        "state": "Auckland",
        "city": "Mount Albert",
        "postal_code": "1025",
        "full_address": "Shop S830, Level 1, Westfield St Lukes Shopping Centre, 80 Saint Lukes Road, St Lukes, Mount Albert, 1025",
        "phone": "09 846 2991",
        "official_url": "https://www.specsavers.co.nz/stores/stlukes",
        "services": "Optometry",
        "audiology": "false"
      }
    },
    {
      "type": "Feature",
      "geometry": {
        "type": "Point",
        "coordinates": [
          174.68604,
          -36.90767
        ]
      },
      "properties": {
        "id": "3808",
        "name": "New Lynn LynnMall",
        "status": "Active",
        "country": "New Zealand",
        "state": "Auckland",
        "city": "New Lynn",
        "postal_code": "0600",
        "full_address": "Shop 69, LynnMall Shopping Centre, Memorial Drive, New Lynn, New Lynn, 0600",
        "phone": "09 826 3989",
        "official_url": "https://www.specsavers.co.nz/stores/newlynn",
        "services": "Optometry; Audiology",
        "audiology": "true"
      }
    },
    {
      "type": "Feature",
      "geometry": {
        "type": "Point",
        "coordinates": [
          176.25015,
          -38.138702
        ]
      },
      "properties": {
        "id": "3822",
        "name": "Rotorua",
        "status": "Active",
        "country": "New Zealand",
        "state": "Bay of Plenty",
        "city": "Rotorua",
        "postal_code": "3010",
        "full_address": "1211 Eruera St, Rotorua, 3010",
        "phone": "07 349 2020",
        "official_url": "https://www.specsavers.co.nz/stores/rotorua",
        "services": "Optometry; Audiology",
        "audiology": "true"
      }
    },
    {
      "type": "Feature",
      "geometry": {
        "type": "Point",
        "coordinates": [
          176.22324,
          -37.675346
        ]
      },
      "properties": {
        "id": "3812",
        "name": "Mt. Maunganui - Bayfair S/C",
        "status": "Active",
        "country": "New Zealand",
        "state": "Bay of Plenty",
        "city": "Tauranga",
        "postal_code": "3116",
        "full_address": "Shop SP0815, Bayfair Shopping Centre, Cnr Maunganui &amp; Girven Roads, Mt Maunganui, Tauranga, 3116",
        "phone": "07 575 0259",
        "official_url": "https://www.specsavers.co.nz/stores/mtmaunganui",
        "services": "Optometry; Audiology",
        "audiology": "true"
      }
    },
    {
      "type": "Feature",
      "geometry": {
        "type": "Point",
        "coordinates": [
          176.16963,
          -37.685837
        ]
      },
      "properties": {
        "id": "3839",
        "name": "Tauranga CBD",
        "status": "Active",
        "country": "New Zealand",
        "state": "Bay of Plenty",
        "city": "Tauranga",
        "postal_code": "3110",
        "full_address": "58a Devonport Road, Tauranga CBD, Tauranga, 3110",
        "phone": "07 571 1902",
        "official_url": "https://www.specsavers.co.nz/stores/tauranga",
        "services": "Optometry; Audiology",
        "audiology": "true"
      }
    },
    {
      "type": "Feature",
      "geometry": {
        "type": "Point",
        "coordinates": [
          176.10573,
          -37.737015
        ]
      },
      "properties": {
        "id": "3863",
        "name": "Tauranga Crossing",
        "status": "Active",
        "country": "New Zealand",
        "state": "Bay of Plenty",
        "city": "Tauranga",
        "postal_code": "3110",
        "full_address": "Shop RS207, 1-5 Taurikura Drive, Tauranga Crossing, Tauranga, 3110",
        "phone": "07 543 5570",
        "official_url": "https://www.specsavers.co.nz/stores/tauranga-crossing",
        "services": "Optometry; Audiology",
        "audiology": "true"
      }
    },
    {
      "type": "Feature",
      "geometry": {
        "type": "Point",
        "coordinates": [
          176.99525,
          -37.951527
        ]
      },
      "properties": {
        "id": "3853",
        "name": "Whakatane",
        "status": "Active",
        "country": "New Zealand",
        "state": "Bay of Plenty",
        "city": "Whakatane",
        "postal_code": "3120",
        "full_address": "184 The Strand, Whakatane, 3120",
        "phone": "07 308 2154",
        "official_url": "https://www.specsavers.co.nz/stores/whakatane",
        "services": "Optometry; Audiology",
        "audiology": "true"
      }
    },
    {
      "type": "Feature",
      "geometry": {
        "type": "Point",
        "coordinates": [
          171.74904,
          -43.906452
        ]
      },
      "properties": {
        "id": "3864",
        "name": "Ashburton",
        "status": "Active",
        "country": "New Zealand",
        "state": "Canterbury",
        "city": "Ashburton",
        "postal_code": "7700",
        "full_address": "58 Cass Street, Ashburton, Ashburton, New Zealand, 7700",
        "phone": "03 307 6071",
        "official_url": "https://www.specsavers.co.nz/stores/ashburton",
        "services": "Optometry; Audiology",
        "audiology": "true"
      }
    },
    {
      "type": "Feature",
      "geometry": {
        "type": "Point",
        "coordinates": [
          172.52383,
          -43.5425
        ]
      },
      "properties": {
        "id": "3854",
        "name": "Hornby - The Hub",
        "status": "Active",
        "country": "New Zealand",
        "state": "Canterbury",
        "city": "Christchurch",
        "postal_code": "8042",
        "full_address": "Shop 25, The Hub Hornby Mall, 418 Main South Road, Hornby, Christchurch, 8042",
        "phone": "03 349 5193",
        "official_url": "https://www.specsavers.co.nz/stores/hornby",
        "services": "Optometry; Audiology",
        "audiology": "true"
      }
    },
    {
      "type": "Feature",
      "geometry": {
        "type": "Point",
        "coordinates": [
          172.6112,
          -43.491516
        ]
      },
      "properties": {
        "id": "3804",
        "name": "Papanui - Northlands Mall",
        "status": "Active",
        "country": "New Zealand",
        "state": "Canterbury",
        "city": "Christchurch",
        "postal_code": "8052",
        "full_address": "S57 Northlands Mall, Papanui, Main North Road, Papanui, Christchurch, 8052",
        "phone": "03 354 1435",
        "official_url": "https://www.specsavers.co.nz/stores/papanui",
        "services": "Optometry; Audiology",
        "audiology": "true"
      }
    },
    {
      "type": "Feature",
      "geometry": {
        "type": "Point",
        "coordinates": [
          172.59802,
          -43.530746
        ]
      },
      "properties": {
        "id": "3824",
        "name": "Riccarton Westfield",
        "status": "Active",
        "country": "New Zealand",
        "state": "Canterbury",
        "city": "Christchurch",
        "postal_code": "8041",
        "full_address": "Shop 256 &amp; 257, Level 2, Westfield Riccarton, 129 Riccarton Rd, Riccarton, Christchurch, 8041",
        "phone": "03 343 1499",
        "official_url": "https://www.specsavers.co.nz/stores/riccartonwestfield",
        "services": "Optometry; Audiology",
        "audiology": "true"
      }
    },
    {
      "type": "Feature",
      "geometry": {
        "type": "Point",
        "coordinates": [
          172.66417,
          -43.50567
        ]
      },
      "properties": {
        "id": "3815",
        "name": "Shirley - The Palms S/C",
        "status": "Active",
        "country": "New Zealand",
        "state": "Canterbury",
        "city": "Christchurch",
        "postal_code": "8061",
        "full_address": "Shop P080, The Palms Shopping Centre, Cnr Marshland &amp; New Brighton Roads, Shirley, Christchurch, 8061",
        "phone": "03 385 2780",
        "official_url": "https://www.specsavers.co.nz/stores/shirley",
        "services": "Optometry",
        "audiology": "false"
      }
    },
    {
      "type": "Feature",
      "geometry": {
        "type": "Point",
        "coordinates": [
          172.59363,
          -43.303886
        ]
      },
      "properties": {
        "id": "3862",
        "name": "Rangiora",
        "status": "Active",
        "country": "New Zealand",
        "state": "Canterbury",
        "city": "Rangiora",
        "postal_code": "7400",
        "full_address": "151 - 183 High Street, Farmers Rangiora Building, Rangiora, Rangiora, 7400",
        "phone": "03 313 1590",
        "official_url": "https://www.specsavers.co.nz/stores/rangiora",
        "services": "Optometry; Audiology",
        "audiology": "true"
      }
    },
    {
      "type": "Feature",
      "geometry": {
        "type": "Point",
        "coordinates": [
          171.24748,
          -44.39457
        ]
      },
      "properties": {
        "id": "3826",
        "name": "Timaru",
        "status": "Active",
        "country": "New Zealand",
        "state": "Canterbury",
        "city": "Timaru",
        "postal_code": "7910",
        "full_address": "15 Elizabeth Street, Timaru, 7910",
        "phone": "03 688 4179",
        "official_url": "https://www.specsavers.co.nz/stores/timaru",
        "services": "Optometry; Audiology",
        "audiology": "true"
      }
    },
    {
      "type": "Feature",
      "geometry": {
        "type": "Point",
        "coordinates": [
          178.02528,
          -38.665657
        ]
      },
      "properties": {
        "id": "3833",
        "name": "Gisborne",
        "status": "Active",
        "country": "New Zealand",
        "state": "Gisborne",
        "city": "Gisborne",
        "postal_code": "4010",
        "full_address": "127-131 Gladstone Rd, Gisborne, Gisborne, 4010",
        "phone": "06 868 6533",
        "official_url": "https://www.specsavers.co.nz/stores/gisborne",
        "services": "Optometry; Audiology",
        "audiology": "true"
      }
    },
    {
      "type": "Feature",
      "geometry": {
        "type": "Point",
        "coordinates": [
          176.8419,
          -39.640903
        ]
      },
      "properties": {
        "id": "3836",
        "name": "Hastings",
        "status": "Active",
        "country": "New Zealand",
        "state": "Hawke's Bay",
        "city": "Hastings",
        "postal_code": "4122",
        "full_address": "210 Heretaunga Street West, Hastings, Hastings, 4122",
        "phone": "06 878 8686",
        "official_url": "https://www.specsavers.co.nz/stores/hastings",
        "services": "Optometry; Audiology",
        "audiology": "true"
      }
    },
    {
      "type": "Feature",
      "geometry": {
        "type": "Point",
        "coordinates": [
          176.91531,
          -39.49108
        ]
      },
      "properties": {
        "id": "3837",
        "name": "Napier",
        "status": "Active",
        "country": "New Zealand",
        "state": "Hawke's Bay",
        "city": "Napier",
        "postal_code": "4110",
        "full_address": "205 Emerson Street, Napier, Napier, 4110",
        "phone": "06 835 3569",
        "official_url": "https://www.specsavers.co.nz/stores/napier",
        "services": "Optometry; Audiology",
        "audiology": "true"
      }
    },
    {
      "type": "Feature",
      "geometry": {
        "type": "Point",
        "coordinates": [
          175.28503,
          -40.62308
        ]
      },
      "properties": {
        "id": "3876",
        "name": "Levin",
        "status": "Active",
        "country": "New Zealand",
        "state": "Manawatu-Whanganui",
        "city": "Levin",
        "postal_code": "5510",
        "full_address": "183 Oxford Street, Levin Shopping Centre, Levin, MWT, 5510",
        "phone": "06 262 9191",
        "official_url": "https://www.specsavers.co.nz/stores/levin",
        "services": "Optometry; Audiology",
        "audiology": "true"
      }
    },
    {
      "type": "Feature",
      "geometry": {
        "type": "Point",
        "coordinates": [
          175.61357,
          -40.357224
        ]
      },
      "properties": {
        "id": "3832",
        "name": "Palmerston North - The Plaza",
        "status": "Active",
        "country": "New Zealand",
        "state": "Manawatu-Whanganui",
        "city": "Palmerston North",
        "postal_code": "4410",
        "full_address": "Shop 22, The Plaza, 84 The Square, Church Street, Palmerston North, 4410",
        "phone": "06 355 8433",
        "official_url": "https://www.specsavers.co.nz/stores/palmerstonnorth",
        "services": "Optometry; Audiology",
        "audiology": "true"
      }
    },
    {
      "type": "Feature",
      "geometry": {
        "type": "Point",
        "coordinates": [
          175.0522,
          -39.93327
        ]
      },
      "properties": {
        "id": "3847",
        "name": "Whanganui",
        "status": "Active",
        "country": "New Zealand",
        "state": "Manawatu-Whanganui",
        "city": "Whanganui",
        "postal_code": "4500",
        "full_address": "87 Victoria Ave, Whanganui, Whanganui, 4500",
        "phone": "06 345 9542",
        "official_url": "https://www.specsavers.co.nz/stores/whanganui",
        "services": "Optometry; Audiology",
        "audiology": "true"
      }
    },
    {
      "type": "Feature",
      "geometry": {
        "type": "Point",
        "coordinates": [
          173.95683,
          -41.512814
        ]
      },
      "properties": {
        "id": "3852",
        "name": "Blenheim",
        "status": "Active",
        "country": "New Zealand",
        "state": "Marlborough",
        "city": "Blenheim",
        "postal_code": "7201",
        "full_address": "67 Market Street, Blenheim Central, Blenheim, 7201",
        "phone": "03 577 9644",
        "official_url": "https://www.specsavers.co.nz/stores/blenheim",
        "services": "Optometry; Audiology",
        "audiology": "true"
      }
    },
    {
      "type": "Feature",
      "geometry": {
        "type": "Point",
        "coordinates": [
          173.28362,
          -41.272705
        ]
      },
      "properties": {
        "id": "3834",
        "name": "Nelson CBD",
        "status": "Active",
        "country": "New Zealand",
        "state": "Nelson",
        "city": "Nelson",
        "postal_code": "7010",
        "full_address": "176 Trafalgar St, Nelson, Nelson, 7010",
        "phone": "03 548 0168",
        "official_url": "https://www.specsavers.co.nz/stores/nelson",
        "services": "Optometry; Audiology",
        "audiology": "true"
      }
    },
    {
      "type": "Feature",
      "geometry": {
        "type": "Point",
        "coordinates": [
          173.94717,
          -35.229874
        ]
      },
      "properties": {
        "id": "3817",
        "name": "Kerikeri",
        "status": "Active",
        "country": "New Zealand",
        "state": "Northland",
        "city": "Kerikeri",
        "postal_code": "0230",
        "full_address": "Tenancy A, 33-35 Kerikeri Road, Kerikeri, 0230",
        "phone": "09 407 7760",
        "official_url": "https://www.specsavers.co.nz/stores/kerikeri",
        "services": "Optometry; Audiology",
        "audiology": "true"
      }
    },
    {
      "type": "Feature",
      "geometry": {
        "type": "Point",
        "coordinates": [
          174.32185,
          -35.7252
        ]
      },
      "properties": {
        "id": "3818",
        "name": "Whangarei",
        "status": "Active",
        "country": "New Zealand",
        "state": "Northland",
        "city": "Whangarei",
        "postal_code": "0110",
        "full_address": "22 James St, Whangarei, 0110",
        "phone": "09 438 3509",
        "official_url": "https://www.specsavers.co.nz/stores/whangarei",
        "services": "Optometry; Audiology",
        "audiology": "true"
      }
    },
    {
      "type": "Feature",
      "geometry": {
        "type": "Point",
        "coordinates": [
          170.50604,
          -45.870113
        ]
      },
      "properties": {
        "id": "3838",
        "name": "Dunedin",
        "status": "Active",
        "country": "New Zealand",
        "state": "Otago",
        "city": "Dunedin",
        "postal_code": "9016",
        "full_address": "290 George St, Dunedin, Dunedin, 9016",
        "phone": "03 477 0301",
        "official_url": "https://www.specsavers.co.nz/stores/dunedin",
        "services": "Optometry; Audiology",
        "audiology": "true"
      }
    },
    {
      "type": "Feature",
      "geometry": {
        "type": "Point",
        "coordinates": [
          170.49876,
          -45.894024
        ]
      },
      "properties": {
        "id": "3872",
        "name": "South Dunedin",
        "status": "Active",
        "country": "New Zealand",
        "state": "Otago",
        "city": "Dunedin",
        "postal_code": "9012",
        "full_address": "155 King Edward Street, South Dunedin, Dunedin, 9012",
        "phone": "",
        "official_url": "https://www.specsavers.co.nz/stores/south-dunedin",
        "services": "Optometry; Audiology",
        "audiology": "true"
      }
    },
    {
      "type": "Feature",
      "geometry": {
        "type": "Point",
        "coordinates": [
          168.74352,
          -45.02575
        ]
      },
      "properties": {
        "id": "3856",
        "name": "Queenstown- Remarkables",
        "status": "Active",
        "country": "New Zealand",
        "state": "Otago",
        "city": "Queenstown",
        "postal_code": "9300",
        "full_address": "Remarkables Park Town Centre, 12 Hawthorne Drive, Frankton, Queenstown, 9300",
        "phone": "03 409 2678",
        "official_url": "https://www.specsavers.co.nz/stores/queenstown",
        "services": "Optometry",
        "audiology": "false"
      }
    },
    {
      "type": "Feature",
      "geometry": {
        "type": "Point",
        "coordinates": [
          168.3505,
          -46.411602
        ]
      },
      "properties": {
        "id": "3835",
        "name": "Invercargill",
        "status": "Active",
        "country": "New Zealand",
        "state": "Southland",
        "city": "Invercargill",
        "postal_code": "9810",
        "full_address": "1, 22 Kelvin St, Invercargill, 9810",
        "phone": "03 218 1250",
        "official_url": "https://www.specsavers.co.nz/stores/invercargill",
        "services": "Optometry; Audiology",
        "audiology": "true"
      }
    },
    {
      "type": "Feature",
      "geometry": {
        "type": "Point",
        "coordinates": [
          174.07745,
          -39.056984
        ]
      },
      "properties": {
        "id": "3831",
        "name": "New Plymouth",
        "status": "Active",
        "country": "New Zealand",
        "state": "Taranaki",
        "city": "New Plymouth",
        "postal_code": "4310",
        "full_address": "104 Devon Street East, New Plymouth, 4310",
        "phone": "06 758 2565",
        "official_url": "https://www.specsavers.co.nz/stores/newplymouth",
        "services": "Optometry; Audiology",
        "audiology": "true"
      }
    },
    {
      "type": "Feature",
      "geometry": {
        "type": "Point",
        "coordinates": [
          173.18542,
          -41.33972
        ]
      },
      "properties": {
        "id": "3805",
        "name": "Richmond Mall",
        "status": "Active",
        "country": "New Zealand",
        "state": "Tasman",
        "city": "Richmond",
        "postal_code": "7020",
        "full_address": "Shop 34 Richmond Mall, Cnr Queen, Croucher &amp; Talbot Streets, Richmond, 7020",
        "phone": "03 544 2020",
        "official_url": "https://www.specsavers.co.nz/stores/richmond",
        "services": "Optometry; Audiology",
        "audiology": "true"
      }
    },
    {
      "type": "Feature",
      "geometry": {
        "type": "Point",
        "coordinates": [
          175.2788,
          -37.750374
        ]
      },
      "properties": {
        "id": "3813",
        "name": "Chartwell Shopping Centre",
        "status": "Active",
        "country": "New Zealand",
        "state": "Waikato",
        "city": "Hamilton",
        "postal_code": "3210",
        "full_address": "Chartwell Shopping Centre, Cnr Hukanui &amp; Comries Roads, Chartwell, Hamilton, 3210",
        "phone": "07 853 6909",
        "official_url": "https://www.specsavers.co.nz/stores/chartwell",
        "services": "Optometry; Audiology",
        "audiology": "true"
      }
    },
    {
      "type": "Feature",
      "geometry": {
        "type": "Point",
        "coordinates": [
          175.27953,
          -37.785618
        ]
      },
      "properties": {
        "id": "3857",
        "name": "Hamilton CBD",
        "status": "Active",
        "country": "New Zealand",
        "state": "Waikato",
        "city": "Hamilton",
        "postal_code": "3204",
        "full_address": "54 Bryce St, Hamilton, 3204",
        "phone": "07 839 5094",
        "official_url": "https://www.specsavers.co.nz/stores/hamiltoncbd",
        "services": "Optometry; Audiology",
        "audiology": "true"
      }
    },
    {
      "type": "Feature",
      "geometry": {
        "type": "Point",
        "coordinates": [
          175.23355,
          -37.74845
        ]
      },
      "properties": {
        "id": "3845",
        "name": "Te Rapa, Te Awa - The Base",
        "status": "Active",
        "country": "New Zealand",
        "state": "Waikato",
        "city": "Hamilton",
        "postal_code": "3200",
        "full_address": "Shop 39, The Base, Cnr Te Rapa Road &amp; Wairere Drive, Te Rapa, Hamilton, 3200",
        "phone": "07 850 5938",
        "official_url": "https://www.specsavers.co.nz/stores/terapa",
        "services": "Optometry",
        "audiology": "false"
      }
    },
    {
      "type": "Feature",
      "geometry": {
        "type": "Point",
        "coordinates": [
          176.07149,
          -38.68721
        ]
      },
      "properties": {
        "id": "3859",
        "name": "Taupo",
        "status": "Active",
        "country": "New Zealand",
        "state": "Waikato",
        "city": "Taupo",
        "postal_code": "3330",
        "full_address": "43 Horomatangi St, Taupo, 3330",
        "phone": "07 378 1854",
        "official_url": "https://www.specsavers.co.nz/stores/taupo",
        "services": "Optometry; Audiology",
        "audiology": "true"
      }
    },
    {
      "type": "Feature",
      "geometry": {
        "type": "Point",
        "coordinates": [
          175.53926,
          -37.138805
        ]
      },
      "properties": {
        "id": "3869",
        "name": "Thames",
        "status": "Active",
        "country": "New Zealand",
        "state": "Waikato",
        "city": "Thames",
        "postal_code": "3500",
        "full_address": "Goldfields Shopping Centre, Shops 19&amp;21, Thames, 3500",
        "phone": "07 868 6090",
        "official_url": "https://www.specsavers.co.nz/stores/thames",
        "services": "Optometry; Audiology",
        "audiology": "true"
      }
    },
    {
      "type": "Feature",
      "geometry": {
        "type": "Point",
        "coordinates": [
          175.6594,
          -40.951496
        ]
      },
      "properties": {
        "id": "3861",
        "name": "Masterton",
        "status": "Active",
        "country": "New Zealand",
        "state": "Wellington",
        "city": "Masterton",
        "postal_code": "5810",
        "full_address": "Shop 2, 227 Queen St, Masterton, 5810",
        "phone": "06 370 1412",
        "official_url": "https://www.specsavers.co.nz/stores/masterton",
        "services": "Optometry; Audiology",
        "audiology": "true"
      }
    },
    {
      "type": "Feature",
      "geometry": {
        "type": "Point",
        "coordinates": [
          175.00487,
          -40.916477
        ]
      },
      "properties": {
        "id": "3851",
        "name": "Paraparaumu - Coastlands S'town",
        "status": "Active",
        "country": "New Zealand",
        "state": "Wellington",
        "city": "Paraparaumu",
        "postal_code": "5032",
        "full_address": "Shop 50, Coastlands Shoppingtown, State Highway 1, North Island, Paraparaumu, 5032",
        "phone": "04 297 1138",
        "official_url": "https://www.specsavers.co.nz/stores/paraparaumu",
        "services": "Optometry; Audiology",
        "audiology": "true"
      }
    },
    {
      "type": "Feature",
      "geometry": {
        "type": "Point",
        "coordinates": [
          174.83983,
          -41.137283
        ]
      },
      "properties": {
        "id": "3844",
        "name": "Porirua - North City S/C",
        "status": "Active",
        "country": "New Zealand",
        "state": "Wellington",
        "city": "Porirua",
        "postal_code": "5022",
        "full_address": "Shop 151, North City Shopping Centre, 2 Titahi Bay Road, Porirua, Porirua, 5022",
        "phone": "04 238 4030",
        "official_url": "https://www.specsavers.co.nz/stores/porirua",
        "services": "Optometry; Audiology",
        "audiology": "true"
      }
    },
    {
      "type": "Feature",
      "geometry": {
        "type": "Point",
        "coordinates": [
          175.0717,
          -41.12446
        ]
      },
      "properties": {
        "id": "3867",
        "name": "Upper Hutt",
        "status": "Active",
        "country": "New Zealand",
        "state": "Wellington",
        "city": "Upper Hutt",
        "postal_code": "5018",
        "full_address": "134-136 Main Street, Upper Hutt, 5018",
        "phone": "04 528 0140",
        "official_url": "https://www.specsavers.co.nz/stores/upperhutt",
        "services": "Optometry; Audiology",
        "audiology": "true"
      }
    },
    {
      "type": "Feature",
      "geometry": {
        "type": "Point",
        "coordinates": [
          174.77666,
          -41.2919
        ]
      },
      "properties": {
        "id": "3858",
        "name": "Cuba Street - Wellington",
        "status": "Active",
        "country": "New Zealand",
        "state": "Wellington",
        "city": "Wellington",
        "postal_code": "6011",
        "full_address": "83 Cuba Street, Cnr Cuba Mall and Dixon Street, Wellington, 6011",
        "phone": "04 801 9793",
        "official_url": "https://www.specsavers.co.nz/stores/wellingtoncbdsouth",
        "services": "Optometry",
        "audiology": "false"
      }
    },
    {
      "type": "Feature",
      "geometry": {
        "type": "Point",
        "coordinates": [
          174.80688,
          -41.22331
        ]
      },
      "properties": {
        "id": "3855",
        "name": "Johnsonville",
        "status": "Active",
        "country": "New Zealand",
        "state": "Wellington",
        "city": "Wellington",
        "postal_code": "6037",
        "full_address": "34 Johnsonville Road, Shop 45 Johnsonville Shopping Centre, Johnsonville, Wellington, 6037",
        "phone": "04 478 5468",
        "official_url": "https://www.specsavers.co.nz/stores/johnsonville",
        "services": "Optometry",
        "audiology": "false"
      }
    },
    {
      "type": "Feature",
      "geometry": {
        "type": "Point",
        "coordinates": [
          174.77577,
          -41.281353
        ]
      },
      "properties": {
        "id": "3843",
        "name": "Lambton Quay - Wellington",
        "status": "Active",
        "country": "New Zealand",
        "state": "Wellington",
        "city": "Wellington",
        "postal_code": "6011",
        "full_address": "Shop 2A, 160 Lambton Quay, Wellington, Wellington, 6011",
        "phone": "04 471 1069",
        "official_url": "https://www.specsavers.co.nz/stores/wellingtonlambton",
        "services": "Optometry",
        "audiology": "false"
      }
    },
    {
      "type": "Feature",
      "geometry": {
        "type": "Point",
        "coordinates": [
          174.90646,
          -41.20998
        ]
      },
      "properties": {
        "id": "3803",
        "name": "Lower Hutt - Queensgate S/C",
        "status": "Active",
        "country": "New Zealand",
        "state": "Wellington",
        "city": "Wellington",
        "postal_code": "5010",
        "full_address": "Shop 133, Queensgate Shopping Centre, Cnr Queens Drive and Bunny Street, Lower Hutt, Wellington, 5010",
        "phone": "04 589 2717",
        "official_url": "https://www.specsavers.co.nz/stores/lowerhutt",
        "services": "Optometry; Audiology",
        "audiology": "true"
      }
    }
  ]
}
