{
  "type": "FeatureCollection",
  "metadata": {
    "retailer": "Bailey Nelson",
    "countries": [
      "New Zealand"
    ],
    "source_url": "https://baileynelson.co.nz/pages/optometrist-near-me",
    "fetched_at": "2026-09-01T07:43:01+00:00",
    "store_count": 14
  },
  "features": [
    {
      "type": "Feature",
      "geometry": {
        "type": "Point",
        "coordinates": [
          174.708294,
          -36.7286232
        ]
      },
      "properties": {
        "name": "Bailey Nelson Albany",
        "id": "optometrist-albany-auckland",
        "country": "New Zealand",
        "state": "Auckland",
        "city": "Auckland",
        "postal_code": "0632",
        "full_address": "Shop S253 Westfield Albany, 219 Don McKinnon Drive, Auckland, NI, 0632",
        "phone": "+6499419837",
        "official_url": "https://baileynelson.co.nz/pages/optometrist-albany-auckland",
        "services": "Comprehensive eye tests, Prescription glasses, Sunglasses",
        "audiology": "false",
        "status": "Active"
      }
    },
    {
      "type": "Feature",
      "geometry": {
        "type": "Point",
        "coordinates": [
          174.7460373,
          -36.855511
        ]
      },
      "properties": {
        "name": "Bailey Nelson Ponsonby",
        "id": "optometrist-ponsonby",
        "country": "New Zealand",
        "state": "Auckland",
        "city": "Auckland",
        "postal_code": "1011",
        "full_address": "Shop 4, 160 Ponsonby Road, Auckland, NI, 1011",
        "phone": "+6499419836",
        "official_url": "https://baileynelson.co.nz/pages/optometrist-ponsonby",
        "services": "Comprehensive eye tests, Prescription glasses, Sunglasses",
        "audiology": "false",
        "status": "Active"
      }
    },
    {
      "type": "Feature",
      "geometry": {
        "type": "Point",
        "coordinates": [
          174.7331998,
          -36.8828849
        ]
      },
      "properties": {
        "name": "Bailey Nelson St Lukes - Now Open",
        "id": "optometrist-st-lukes",
        "country": "New Zealand",
        "state": "Auckland",
        "city": "Auckland",
        "postal_code": "1025",
        "full_address": "Shop S209, Westfield St Lukes, 80 Saint Lukes Road, Mount Albert, Auckland, NI, 1025",
        "phone": "006498737941",
        "official_url": "https://baileynelson.co.nz/pages/optometrist-st-lukes",
        "services": "Comprehensive eye tests, Prescription glasses, Sunglasses",
        "audiology": "false",
        "status": "Active"
      }
    },
    {
      "type": "Feature",
      "geometry": {
        "type": "Point",
        "coordinates": [
          174.842355,
          -36.9174341
        ]
      },
      "properties": {
        "name": "Bailey Nelson Sylvia Park",
        "id": "optometrist-sylvia-park",
        "country": "New Zealand",
        "state": "Auckland",
        "city": "Auckland",
        "postal_code": "1060",
        "full_address": "Shop 252, 286 Mount Wellington Highway, Mount Wellington, Auckland, NI, 1060",
        "phone": "+6499419990",
        "official_url": "https://baileynelson.co.nz/pages/optometrist-sylvia-park",
        "services": "Comprehensive eye tests, Prescription glasses, Sunglasses",
        "audiology": "false",
        "status": "Active"
      }
    },
    {
      "type": "Feature",
      "geometry": {
        "type": "Point",
        "coordinates": [
          174.772539,
          -36.788932
        ]
      },
      "properties": {
        "name": "Bailey Nelson Takapuna",
        "id": "optometrist-takapuna",
        "country": "New Zealand",
        "state": "Auckland",
        "city": "Auckland",
        "postal_code": "0622",
        "full_address": "7 Hurstmere Road, Auckland, NI, 0622",
        "phone": "+6499655165",
        "official_url": "https://baileynelson.co.nz/pages/optometrist-takapuna",
        "services": "Comprehensive eye tests, Prescription glasses, Sunglasses",
        "audiology": "false",
        "status": "Active"
      }
    },
    {
      "type": "Feature",
      "geometry": {
        "type": "Point",
        "coordinates": [
          174.7660562,
          -36.8439417
        ]
      },
      "properties": {
        "name": "Bailey Nelson Auckland CBD",
        "id": "optometrist-auckland-cbd",
        "country": "New Zealand",
        "state": "Auckland",
        "city": "Auckland Central",
        "postal_code": "1010",
        "full_address": "Shop 8 Level 2, 7 Queen Street, Auckland Central, NI, 1010",
        "phone": "+6499419833",
        "official_url": "https://baileynelson.co.nz/pages/optometrist-auckland-cbd",
        "services": "Comprehensive eye tests, Prescription glasses, Sunglasses",
        "audiology": "false",
        "status": "Active"
      }
    },
    {
      "type": "Feature",
      "geometry": {
        "type": "Point",
        "coordinates": [
          174.913497,
          -36.9333431
        ]
      },
      "properties": {
        "name": "Bailey Nelson Botany",
        "id": "optometrist-botany",
        "country": "New Zealand",
        "state": "Auckland",
        "city": "East Tamaki",
        "postal_code": "2016",
        "full_address": "Botany Town Centre Shop 109, 588 Chapel Road, East Tamaki, NI, 2016",
        "phone": "+6499419989",
        "official_url": "https://baileynelson.co.nz/pages/optometrist-botany",
        "services": "Comprehensive eye tests, Prescription glasses, Sunglasses",
        "audiology": "false",
        "status": "Active"
      }
    },
    {
      "type": "Feature",
      "geometry": {
        "type": "Point",
        "coordinates": [
          176.2230361,
          -37.6749453
        ]
      },
      "properties": {
        "name": "Bailey Nelson Tauranga",
        "id": "optometrist-tauranga",
        "country": "New Zealand",
        "state": "Bay of Plenty",
        "city": "Tauranga",
        "postal_code": "3116",
        "full_address": "Bayfair Shopping Center, Shop 0803A, 19 Girven Road, Mount Maunganui, Tauranga, NI, 3116",
        "phone": "+6472829602",
        "official_url": "https://baileynelson.co.nz/pages/optometrist-tauranga",
        "services": "Comprehensive eye tests, Prescription glasses, Sunglasses",
        "audiology": "false",
        "status": "Active"
      }
    },
    {
      "type": "Feature",
      "geometry": {
        "type": "Point",
        "coordinates": [
          172.6342079,
          -43.5329912
        ]
      },
      "properties": {
        "name": "Bailey Nelson Cashel Street",
        "id": "optometrist-cashel-street",
        "country": "New Zealand",
        "state": "Canterbury",
        "city": "Christchurch",
        "postal_code": "8011",
        "full_address": "2/79 Cashel Street, Christchurch, SI, 8011",
        "phone": "+6439306645",
        "official_url": "https://baileynelson.co.nz/pages/optometrist-cashel-street",
        "services": "Comprehensive eye tests, Prescription glasses, Sunglasses",
        "audiology": "false",
        "status": "Active"
      }
    },
    {
      "type": "Feature",
      "geometry": {
        "type": "Point",
        "coordinates": [
          172.598759,
          -43.5308029
        ]
      },
      "properties": {
        "name": "Bailey Nelson Riccarton",
        "id": "optometrist-riccarton",
        "country": "New Zealand",
        "state": "Canterbury",
        "city": "Christchurch",
        "postal_code": "8041",
        "full_address": "Shop 234, 129 Riccarton Road, Christchurch, SI, 8041",
        "phone": "+6439306644",
        "official_url": "https://baileynelson.co.nz/pages/optometrist-riccarton",
        "services": "Comprehensive eye tests, Prescription glasses, Sunglasses",
        "audiology": "false",
        "status": "Active"
      }
    },
    {
      "type": "Feature",
      "geometry": {
        "type": "Point",
        "coordinates": [
          170.5052608,
          -45.8700855
        ]
      },
      "properties": {
        "name": "Bailey Nelson Dunedin",
        "id": "optometrist-dunedin",
        "country": "New Zealand",
        "state": "Otago",
        "city": "Central Dunedin",
        "postal_code": "9058",
        "full_address": "Shop G05, Meridian Mall, 285 George Street, Central Dunedin, Dunedin, 9058",
        "phone": "+64 3 244 8027",
        "official_url": "https://baileynelson.co.nz/pages/optometrist-dunedin",
        "services": "Comprehensive eye tests, Prescription glasses, Sunglasses",
        "audiology": "false",
        "status": "Active"
      }
    },
    {
      "type": "Feature",
      "geometry": {
        "type": "Point",
        "coordinates": [
          175.2790885,
          -37.7505279
        ]
      },
      "properties": {
        "name": "Bailey Nelson Hamilton",
        "id": "optometrist-hamilton",
        "country": "New Zealand",
        "state": "Waikato",
        "city": "Chartwell",
        "postal_code": "3210",
        "full_address": "Shop 230 Chartwell Shopping Center, 201 Hukanui Road, Chartwell, Hamilton, 3210",
        "phone": "+6479700391",
        "official_url": "https://baileynelson.co.nz/pages/optometrist-hamilton",
        "services": "Comprehensive eye tests, Prescription glasses, Sunglasses",
        "audiology": "false",
        "status": "Active"
      }
    },
    {
      "type": "Feature",
      "geometry": {
        "type": "Point",
        "coordinates": [
          174.9065904,
          -41.2093313
        ]
      },
      "properties": {
        "name": "Bailey Nelson Queensgate",
        "id": "optometrist-queensgate",
        "country": "New Zealand",
        "state": "Wellington",
        "city": "Hutt Central",
        "postal_code": "5011",
        "full_address": "Shop 139, Queensgate Shopping Centre, Cnr Queens Drive and Bunny Street, Hutt Central, Hutt Central, Wellington, 5011",
        "phone": "+64 4 219 0276",
        "official_url": "https://baileynelson.co.nz/pages/optometrist-queensgate",
        "services": "Comprehensive eye tests, Prescription glasses, Sunglasses",
        "audiology": "false",
        "status": "Active"
      }
    },
    {
      "type": "Feature",
      "geometry": {
        "type": "Point",
        "coordinates": [
          174.775422,
          -41.2881537
        ]
      },
      "properties": {
        "name": "Bailey Nelson Willis Street",
        "id": "optometrist-willis-street",
        "country": "New Zealand",
        "state": "Wellington",
        "city": "Wellington",
        "postal_code": "6011",
        "full_address": "69 Willis Street, Wellington, NI, 6011",
        "phone": "+6449075387",
        "official_url": "https://baileynelson.co.nz/pages/optometrist-willis-street",
        "services": "Comprehensive eye tests, Prescription glasses, Sunglasses",
        "audiology": "false",
        "status": "Active"
      }
    }
  ]
}
