{
  "type": "FeatureCollection",
  "metadata": {
    "retailer": "Bailey Nelson",
    "source": "https://baileynelson.com.au/pages/optometrist-near-me",
    "fetched_at": "2026-09-01T07:42:35+00:00",
    "store_count": 68
  },
  "features": [
    {
      "type": "Feature",
      "geometry": {
        "type": "Point",
        "coordinates": [
          149.065097,
          -35.2381903
        ]
      },
      "properties": {
        "id": "belconnen",
        "name": "Bailey Nelson Belconnen",
        "status": "Active",
        "state": "ACT",
        "city": "Belconnen",
        "postal_code": "2617",
        "full_address": "Level 2, Shop 81 Benjamin Way, Belconnen, ACT, 2617",
        "phone": "+61251275194",
        "official_url": "https://baileynelson.com.au/pages/optometrist-belconnen",
        "services": "Optometry Services; Bulk-Billed Eye Tests; Private Eye Tests from $65; Contact Lens Eye Tests; Visual Fields Testing; Ultra-wide retinal imaging; Optical & Sunglass styling; Free frame adjustments",
        "audiology": "false",
        "map_url": "https://www.google.com/maps/place/Bailey+Nelson+Optometrist+-+Belconnen/@-35.2381903,149.065097,15z/data=!4m6!3m5!1s0x6b17adbbd2b98c2b:0x84bc653caf9cfb34!8m2!3d-35.2381903!4d149.065097!16s%2Fg%2F11s63_rvxk?sa=X&ved=1t:2428&ictx=111&coh=219816&entry=tts&g_ep=EgoyMDI0MDgwNy4wKgBIAVAD",
        "coordinate_source": "Official Google Maps link"
      }
    },
    {
      "type": "Feature",
      "geometry": {
        "type": "Point",
        "coordinates": [
          149.1336806,
          -35.278545
        ]
      },
      "properties": {
        "id": "canberra",
        "name": "Bailey Nelson Canberra City",
        "status": "Active",
        "state": "ACT",
        "city": "Canberra",
        "postal_code": "2601",
        "full_address": "2 Bunda St, Canberra, ACT, 2601",
        "phone": "+61251275196",
        "official_url": "https://baileynelson.com.au/pages/optometrist-canberra",
        "services": "Optometry Services; Bulk-Billed Eye Tests; Private Eye Tests from $65; Contact Lens Eye Tests; Visual Fields Testing; Ultra-wide retinal imaging; Optical & Sunglass styling; Free frame adjustments",
        "audiology": "false",
        "map_url": "https://www.google.com/maps/place/Bailey+Nelson+Optometrist+-+Canberra/@-35.278545,149.1336806,15z/data=!4m6!3m5!1s0x6b164d6f4e38fff1:0xc36ba496510da3fc!8m2!3d-35.278545!4d149.1336806!16s%2Fg%2F11bxgbd82f?sa=X&ved=1t:2428&ictx=111&coh=219816&entry=tts&g_ep=EgoyMDI0MDgwNy4wKgBIAVAD",
        "coordinate_source": "Official Google Maps link"
      }
    },
    {
      "type": "Feature",
      "geometry": {
        "type": "Point",
        "coordinates": [
          151.1806581,
          -33.857109
        ]
      },
      "properties": {
        "id": "balmain",
        "name": "Bailey Nelson Balmain",
        "status": "Active",
        "state": "NSW",
        "city": "Balmain",
        "postal_code": "2041",
        "full_address": "295 Darling Street, Balmain, NSW, 2041",
        "phone": "+61283571359",
        "official_url": "https://baileynelson.com.au/pages/optometrist-balmain",
        "services": "Optometry Services; Bulk-Billed Eye Tests; Private Eye Tests from $65; Contact Lens Eye Tests; Visual Fields Testing; Ultra-wide retinal imaging; Optical & Sunglass styling; Free frame adjustments",
        "audiology": "false",
        "map_url": "https://www.google.com/maps/place/Bailey+Nelson+Optometrist+-+Balmain/@-33.857109,151.1780832,17z/data=!3m1!4b1!4m6!3m5!1s0x6b12afd19aa2cb83:0x77274b37cc18fb9!8m2!3d-33.857109!4d151.1806581!16s%2Fg%2F11vs7knq5f?sca_esv=e89764eee12a19ad&sca_upv=1&output=search&q=bailey+nelson+balmain&source=lnms&fbs=AEQNm0C5IIOpSDYVh51ut_zQFgH5DNv_pTVgUFFjqHIROnWawIGVx0E6ObWKkhgJ1A_fnERo-OpcvVN6jtjqIYuEtPV04pLWLAxVA-rEHSzayuvqO4nl1GIW0ITngnZtYohMxMbKYA7tT2fckMMK5_ln43b3fh1JramwkaHUjmkStl7V1xKJer8IPzxIpM7SgVHbMoi7C3On&ved=1t:200715&ictx=111&entry=tts&g_ep=EgoyMDI0MDgyNi4wKgBIAVAD",
        "coordinate_source": "Official Google Maps link"
      }
    },
    {
      "type": "Feature",
      "geometry": {
        "type": "Point",
        "coordinates": [
          151.2745168,
          -33.8895405
        ]
      },
      "properties": {
        "id": "bondi-beach",
        "name": "Bailey Nelson Bondi Beach",
        "status": "Active",
        "state": "NSW",
        "city": "Bondi Beach",
        "postal_code": "2026",
        "full_address": "157 Curlewis Street, Bondi Beach, NSW, 2026",
        "phone": "+61283571352",
        "official_url": "https://baileynelson.com.au/pages/optometrist-bondi-beach",
        "services": "Optometry Services; Bulk-Billed Eye Tests; Private Eye Tests from $65; Contact Lens Eye Tests; Visual Fields Testing; Ultra-wide retinal imaging; Optical & Sunglass styling; Free frame adjustments",
        "audiology": "false",
        "map_url": "https://www.google.com/maps/place/Bailey+Nelson+Optometrist+-+Bondi+Beach/@-33.8895405,151.2745168,15z/data=!4m6!3m5!1s0x6b12ad9eb448ccff:0x644f63a0ff0b92b7!8m2!3d-33.8895405!4d151.2745168!16s%2Fg%2F11b6zsgr57?sa=X&ved=1t:2428&ictx=111&entry=tts&g_ep=EgoyMDI0MDgyNi4wKgBIAVAD",
        "coordinate_source": "Official Google Maps link"
      }
    },
    {
      "type": "Feature",
      "geometry": {
        "type": "Point",
        "coordinates": [
          151.2507681,
          -33.8925777
        ]
      },
      "properties": {
        "id": "bondi-junction",
        "name": "Bailey Nelson Bondi Junction",
        "status": "Active",
        "state": "NSW",
        "city": "Bondi Junction",
        "postal_code": "2022",
        "full_address": "Westfield Bondi Junction, Bondi Junction, NSW, 2022",
        "phone": "+61283571357",
        "official_url": "https://baileynelson.com.au/pages/optometrist-bondi-junction",
        "services": "Optometry Services; Bulk-Billed Eye Tests; Private Eye Tests from $65; Contact Lens Eye Tests; Visual Fields Testing; Ultra-wide retinal imaging; Optical & Sunglass styling; Free frame adjustments",
        "audiology": "false",
        "map_url": "https://www.google.com/maps/place/Bailey+Nelson+Optometrist+-+Bondi+Junction/@-33.8925777,151.2507681,15z/data=!4m6!3m5!1s0x6b12adf188929437:0x99e0db4ab48615f3!8m2!3d-33.8925777!4d151.2507681!16s%2Fg%2F11c5s_lws7?sa=X&ved=1t:2428&ictx=111&coh=219816&entry=tts&g_ep=EgoyMDI0MDgwNC4wKgBIAVAD",
        "coordinate_source": "Official Google Maps link"
      }
    },
    {
      "type": "Feature",
      "geometry": {
        "type": "Point",
        "coordinates": [
          151.2651111,
          -33.7665187
        ]
      },
      "properties": {
        "id": "warringah-mall",
        "name": "Bailey Nelson Warringah Mall",
        "status": "Active",
        "state": "NSW",
        "city": "Brookvale",
        "postal_code": "2100",
        "full_address": "Shop 1530 Westfield Warringah Mall, 145 Condamine St, Brookvale, NSW, 2100",
        "phone": "+61283571356",
        "official_url": "https://baileynelson.com.au/pages/optometrist-warringah-mall",
        "services": "Optometry Services; Bulk-Billed Eye Tests; Private Eye Tests from $65; Contact Lens Eye Tests; Visual Fields Testing; Ultra-wide retinal imaging; Optical & Sunglass styling; Free frame adjustments",
        "audiology": "false",
        "map_url": "https://www.google.com/maps/place/Bailey+Nelson+Optometrist+-+Warringah+Mall/@-33.7665187,151.2651111,15z/data=!4m6!3m5!1s0x6b12abda69f4d617:0xbce2fa60ee66dec5!8m2!3d-33.7665187!4d151.2651111!16s%2Fg%2F11t5l43_nd?sa=X&ved=1t:2428&ictx=111&coh=219816&entry=tts&g_ep=EgoyMDI0MDgwNC4wKgBIAVAD",
        "coordinate_source": "Official Google Maps link"
      }
    },
    {
      "type": "Feature",
      "geometry": {
        "type": "Point",
        "coordinates": [
          153.6133449,
          -28.6421951
        ]
      },
      "properties": {
        "id": "byron-bay",
        "name": "Bailey Nelson Byron Bay",
        "status": "Active",
        "state": "NSW",
        "city": "Byron Bay",
        "postal_code": "2481",
        "full_address": "15 Lawson Street, Byron Bay, NSW, 2481",
        "phone": "+61256439793",
        "official_url": "https://baileynelson.com.au/pages/optometrist-byron-bay",
        "services": "Optometry Services; Bulk-Billed Eye Tests; Private Eye Tests from $65; Contact Lens Eye Tests; Visual Fields Testing; Ultra-wide retinal imaging; Optical & Sunglass styling; Free frame adjustments",
        "audiology": "false",
        "map_url": "https://www.google.com/maps/place/Bailey+Nelson+Optometrist+-+Byron+Bay/@-28.6421951,153.6133449,15z/data=!4m6!3m5!1s0x6b90623a33b54b95:0x52018bf13051a216!8m2!3d-28.6421951!4d153.6133449!16s%2Fg%2F11f1238lgv?coh=219816&entry=tts&g_ep=EgoyMDI0MDgwNC4wKgBIAVAD",
        "coordinate_source": "Official Google Maps link"
      }
    },
    {
      "type": "Feature",
      "geometry": {
        "type": "Point",
        "coordinates": [
          151.0065959,
          -33.7300053
        ]
      },
      "properties": {
        "id": "castle-towers",
        "name": "Bailey Nelson Castle Towers",
        "status": "Active",
        "state": "NSW",
        "city": "Castle Hill",
        "postal_code": "2154",
        "full_address": "6-14 Castle St, Castle Hill, NSW, 2154",
        "phone": "+61283571354",
        "official_url": "https://baileynelson.com.au/pages/optometrist-castle-towers",
        "services": "Optometry Services; Bulk-Billed Eye Tests; Private Eye Tests from $65; Contact Lens Eye Tests; Visual Fields Testing; Ultra-wide retinal imaging; Optical & Sunglass styling; Free frame adjustments",
        "audiology": "false",
        "map_url": "https://www.google.com/maps/place/Bailey+Nelson+Optometrist+-+Castle+Towers/@-33.7300053,151.0065959,15z/data=!4m6!3m5!1s0x6b12a1d6214ff40d:0xb802c8a53b75aee1!8m2!3d-33.7300053!4d151.0065959!16s%2Fg%2F11s1781014?sa=X&ved=1t:2428&ictx=111&coh=219816&entry=tts&g_ep=EgoyMDI0MDgwNC4wKgBIAVAD",
        "coordinate_source": "Official Google Maps link"
      }
    },
    {
      "type": "Feature",
      "geometry": {
        "type": "Point",
        "coordinates": [
          151.1837921,
          -33.796909
        ]
      },
      "properties": {
        "id": "chatswood",
        "name": "Bailey Nelson Chatswood",
        "status": "Active",
        "state": "NSW",
        "city": "Chatswood",
        "postal_code": "2067",
        "full_address": "1 Anderson Street, Chatswood, NSW, 2067",
        "phone": "+61283571355",
        "official_url": "https://baileynelson.com.au/pages/optometrist-chatswood",
        "services": "Optometry Services; Bulk-Billed Eye Tests; Private Eye Tests from $65; Contact Lens Eye Tests; Visual Fields Testing; Ultra-wide retinal imaging; Optical & Sunglass styling; Free frame adjustments",
        "audiology": "false",
        "map_url": "https://www.google.com/maps/place/Bailey+Nelson+Optometrist+-+Chatswood/@-33.796909,151.1837921,15z/data=!4m6!3m5!1s0x6b12a97badedbe5f:0xbf153b291883a80e!8m2!3d-33.796909!4d151.1837921!16s%2Fg%2F11nn1tqj4g?sa=X&ved=1t:2428&ictx=111&coh=219816&entry=tts&g_ep=EgoyMDI0MDgwNC4wKgBIAVAD",
        "coordinate_source": "Official Google Maps link"
      }
    },
    {
      "type": "Feature",
      "geometry": {
        "type": "Point",
        "coordinates": [
          151.5913572,
          -32.7627913
        ]
      },
      "properties": {
        "id": "green-hills",
        "name": "Bailey Nelson Green Hills",
        "status": "Active",
        "state": "NSW",
        "city": "East Maitland",
        "postal_code": "2323",
        "full_address": "1 Molly Morgan Dr, East Maitland, NSW, 2323",
        "phone": "+61240818935",
        "official_url": "https://baileynelson.com.au/pages/optometrist-green-hills",
        "services": "Optometry Services; Bulk-Billed Eye Tests; Private Eye Tests from $65; Contact Lens Eye Tests; Visual Fields Testing; Ultra-wide retinal imaging; Optical & Sunglass styling; Free frame adjustments",
        "audiology": "false",
        "map_url": "https://www.google.com/maps/place/Stockland+Green+Hills/@-32.7620378,151.5885694,17z/data=!3m1!5s0x6b7346bba52ea4c7:0x6e3ce34b8cca20db!4m7!3m6!1s0x6b7346bb2693162b:0xb78078bc9cd93816!8m2!3d-32.7627913!4d151.5913572!15sCktTaG9wIDEwOTMsIFN0b2NrbGFuZCBHcmVlbiBIaWxscywgMSBNb2xseSBNb3JnYW4gRHIsIEVhc3QgTWFpdGxhbmQgTlNXIDIzMjNaSiJIc2hvcCAxMDkzIHN0b2NrbGFuZCBncmVlbiBoaWxscyAxIG1vbGx5IG1vcmdhbiBkciBlYXN0IG1haXRsYW5kIG5zdyAyMzIzkgEPc2hvcHBpbmdfY2VudGVyqgGMAQoKL20vMDQyMXRuNRABKg0iCXNob3AgMTA5MygAMh8QASIbKPIY6yR0f3F-09zPQ9oi6jBU400vHrexhukYMkwQAiJIc2hvcCAxMDkzIHN0b2NrbGFuZCBncmVlbiBoaWxscyAxIG1vbGx5IG1vcmdhbiBkciBlYXN0IG1haXRsYW5kIG5zdyAyMzIz4AEA!16s%2Fm%2F0421tn5?entry=tts&g_ep=EgoyMDI1MDcwOS4wIPu8ASoASAFQAw%3D%3D&skid=eeeb7335-dd40-4d74-a0dc-3c850f1956d9",
        "coordinate_source": "Official Google Maps link"
      }
    },
    {
      "type": "Feature",
      "geometry": {
        "type": "Point",
        "coordinates": [
          151.2240871,
          -33.9447872
        ]
      },
      "properties": {
        "id": "eastgardens",
        "name": "Bailey Nelson Eastgardens - Now Open",
        "status": "Active",
        "state": "NSW",
        "city": "Eastgardens",
        "postal_code": "2036",
        "full_address": "152 Bunnerong Rd, Eastgardens, NSW, 2036",
        "phone": "+61283942761",
        "official_url": "https://baileynelson.com.au/pages/optometrist-eastgardens",
        "services": "Optometry Services; Bulk-Billed Eye Tests; Private Eye Tests from $65; Contact Lens Eye Tests; Visual Fields Testing; Ultra-wide retinal imaging; Optical & Sunglass styling; Free frame adjustments",
        "audiology": "false",
        "map_url": "https://www.google.com/maps/place/Bailey+Nelson+Optometrist+Eastgardens/@-33.9447827,151.2215122,17z/data=!3m2!4b1!5s0x6b12b1652977cdd3:0x571df460ea703925!4m6!3m5!1s0x6b12b1596b44210b:0x1337497aebd1595d!8m2!3d-33.9447872!4d151.2240871!16s%2Fg%2F11njwzmpn8?entry=tts&g_ep=EgoyMDI2MDYyOS4wIPu8ASoASAFQAw%3D%3D&skid=7ebfaff5-277d-4f67-8534-a920e53cef07",
        "coordinate_source": "Official Google Maps link"
      }
    },
    {
      "type": "Feature",
      "geometry": {
        "type": "Point",
        "coordinates": [
          151.3927555,
          -33.4376053
        ]
      },
      "properties": {
        "id": "erina-fair",
        "name": "Bailey Nelson Erina Fair",
        "status": "Active",
        "state": "NSW",
        "city": "Erina",
        "postal_code": "2250",
        "full_address": "620-658 Terrigal Drive, Erina, NSW, 2250",
        "phone": "+61243163121",
        "official_url": "https://baileynelson.com.au/pages/optometrist-erina-fair",
        "services": "Optometry Services; Bulk-Billed Eye Tests; Private Eye Tests from $65; Contact Lens Eye Tests; Visual Fields Testing; Ultra-wide retinal imaging; Optical & Sunglass styling; Free frame adjustments",
        "audiology": "false",
        "map_url": "https://www.google.com/maps/place/Bailey+Nelson+-+Erina+Fair/@-33.4376971,151.3938847,18z/data=!4m6!3m5!1s0x6ab0cf148353c3a3:0x1f0640285fb29034!8m2!3d-33.4376053!4d151.3927555!16s%2Fg%2F11yk3rgyq0?entry=tts&g_ep=EgoyMDI1MTAyNi4wIPu8ASoASAFQAw%3D%3D&skid=9dbc2460-2887-449f-93ae-1e185e364a29",
        "coordinate_source": "Official Google Maps link"
      }
    },
    {
      "type": "Feature",
      "geometry": {
        "type": "Point",
        "coordinates": [
          151.7112084,
          -32.9422944
        ]
      },
      "properties": {
        "id": "kotara",
        "name": "Bailey Nelson Kotara",
        "status": "Active",
        "state": "NSW",
        "city": "Kotara",
        "postal_code": "2289",
        "full_address": "Northcott Drive, Kotara, NSW, 2289",
        "phone": "+61240818930",
        "official_url": "https://baileynelson.com.au/pages/optometrist-kotara",
        "services": "Optometry Services; Bulk-Billed Eye Tests; Private Eye Tests from $65; Contact Lens Eye Tests; Visual Fields Testing; Ultra-wide retinal imaging; Optical & Sunglass styling; Free frame adjustments",
        "audiology": "false",
        "map_url": "https://www.google.com/maps/place/Bailey+Nelson+Optometrist+-+Kotara/@-32.9422944,151.7112084,15z/data=!4m6!3m5!1s0x6b73151e5b64fa71:0xb8af3cd988636e92!8m2!3d-32.9422944!4d151.7112084!16s%2Fg%2F11ry9s5_xp?sa=X&ved=1t:2428&ictx=111&coh=219816&entry=tts&g_ep=EgoyMDI0MDgwNC4wKgBIAVAD",
        "coordinate_source": "Official Google Maps link"
      }
    },
    {
      "type": "Feature",
      "geometry": {
        "type": "Point",
        "coordinates": [
          151.2872737,
          -33.7970173
        ]
      },
      "properties": {
        "id": "manly",
        "name": "Bailey Nelson Manly",
        "status": "Active",
        "state": "NSW",
        "city": "Manly",
        "postal_code": "2095",
        "full_address": "4-10 Sydney Rd, Manly, NSW, 2095",
        "phone": "+61283571358",
        "official_url": "https://baileynelson.com.au/pages/optometrist-manly",
        "services": "Optometry Services; Bulk-Billed Eye Tests; Private Eye Tests from $65; Contact Lens Eye Tests; Visual Fields Testing; Ultra-wide retinal imaging; Optical & Sunglass styling; Free frame adjustments",
        "audiology": "false",
        "map_url": "https://www.google.com/maps/place/Bailey+Nelson+Optometrist+-+Manly/@-33.7970173,151.2872737,15z/data=!4m6!3m5!1s0x6b12ab0f5cb8ae95:0x5ec1d6c3729602fb!8m2!3d-33.7970173!4d151.2872737!16s%2Fg%2F11f54x2z40?sa=X&ved=1t:2428&ictx=111&coh=219816&entry=tts&g_ep=EgoyMDI0MDgwNC4wKgBIAVAD",
        "coordinate_source": "Official Google Maps link"
      }
    },
    {
      "type": "Feature",
      "geometry": {
        "type": "Point",
        "coordinates": [
          151.1006368,
          -34.0355512
        ]
      },
      "properties": {
        "id": "miranda",
        "name": "Bailey Nelson Miranda",
        "status": "Active",
        "state": "NSW",
        "city": "Miranda",
        "postal_code": "2228",
        "full_address": "600 Kingsway, Miranda, NSW, 2228",
        "phone": "+61283571351",
        "official_url": "https://baileynelson.com.au/pages/optometrist-miranda",
        "services": "Optometry Services; Bulk-Billed Eye Tests; Private Eye Tests from $65; Contact Lens Eye Tests; Visual Fields Testing; Ultra-wide retinal imaging; Optical & Sunglass styling; Free frame adjustments",
        "audiology": "false",
        "map_url": "https://www.google.com/maps/place/Bailey+Nelson+Optometrist+-+Miranda/@-34.0355512,151.1006368,15z/data=!4m6!3m5!1s0x6b12c784afec518d:0xadd1522ca8c4f4a0!8m2!3d-34.0355512!4d151.1006368!16s%2Fg%2F11b6zq42_5?sa=X&ved=1t:2428&ictx=111&coh=219816&entry=tts&g_ep=EgoyMDI0MDgwNC4wKgBIAVAD",
        "coordinate_source": "Official Google Maps link"
      }
    },
    {
      "type": "Feature",
      "geometry": {
        "type": "Point",
        "coordinates": [
          151.2420018,
          -33.8253654
        ]
      },
      "properties": {
        "id": "mosman",
        "name": "Bailey Nelson Mosman",
        "status": "Active",
        "state": "NSW",
        "city": "Mosman",
        "postal_code": "2088",
        "full_address": "Shop 3 - 597 Military Road, Mosman, NSW, 2088",
        "phone": "+61290008068",
        "official_url": "https://baileynelson.com.au/pages/optometrist-mosman",
        "services": "Optometry Services; Bulk-Billed Eye Tests; Private Eye Tests from $65; Contact Lens Eye Tests; Visual Fields Testing; Ultra-wide retinal imaging; Optical & Sunglass styling; Free frame adjustments",
        "audiology": "false",
        "map_url": "https://www.google.com/maps/place/Bailey+Nelson+Optometrist+-+Mosman/@-33.8253654,151.2420018,15z/data=!4m6!3m5!1s0x6b12ad21a834b57d:0xf9ccd9c38371d0fa!8m2!3d-33.8253654!4d151.2420018!16s%2Fg%2F11wc9mqqq4?sa=X&ved=1t:2428&ictx=111&entry=tts&g_ep=EgoyMDI0MDkwNC4wKgBIAVAD",
        "coordinate_source": "Official Google Maps link"
      }
    },
    {
      "type": "Feature",
      "geometry": {
        "type": "Point",
        "coordinates": [
          151.1811783,
          -33.8954608
        ]
      },
      "properties": {
        "id": "newtown",
        "name": "Bailey Nelson Newtown",
        "status": "Active",
        "state": "NSW",
        "city": "Newtown",
        "postal_code": "2042",
        "full_address": "239 King Street, Newtown, NSW, 2042",
        "phone": "+61283571350",
        "official_url": "https://baileynelson.com.au/pages/optometrist-newtown",
        "services": "Optometry Services; Bulk-Billed Eye Tests; Private Eye Tests from $65; Contact Lens Eye Tests; Visual Fields Testing; Ultra-wide retinal imaging; Optical & Sunglass styling; Free frame adjustments",
        "audiology": "false",
        "map_url": "https://www.google.com/maps/place/Bailey+Nelson+Optometrist+-+Newtown/@-33.8954608,151.1811783,15z/data=!4m6!3m5!1s0x6b12b033d81df7c7:0xe308f76eae60550a!8m2!3d-33.8954608!4d151.1811783!16s%2Fg%2F11g7kyfl_r?sa=X&ved=1t:2428&ictx=111&coh=219816&entry=tts&g_ep=EgoyMDI0MDgwNC4wKgBIAVAD",
        "coordinate_source": "Official Google Maps link"
      }
    },
    {
      "type": "Feature",
      "geometry": {
        "type": "Point",
        "coordinates": [
          151.1205172,
          -33.7767187
        ]
      },
      "properties": {
        "id": "macquarie",
        "name": "Bailey Nelson Macquarie Centre",
        "status": "Active",
        "state": "NSW",
        "city": "North Ryde",
        "postal_code": "2113",
        "full_address": "Corner of Herring Road & Waterloo Road, North Ryde, NSW, 2113",
        "phone": "+61290008062",
        "official_url": "https://baileynelson.com.au/pages/optometrist-macquarie",
        "services": "Optometry Services; Bulk-Billed Eye Tests; Private Eye Tests from $65; Contact Lens Eye Tests; Visual Fields Testing; Ultra-wide retinal imaging; Optical & Sunglass styling; Free frame adjustments",
        "audiology": "false",
        "map_url": "https://www.google.com/maps/place/Bailey+Nelson+Optometrist+-+Macquarie+Centre/@-33.7767187,151.1205172,15z/data=!4m6!3m5!1s0x6b12a60cc14b5cfb:0xe37c233e76d72292!8m2!3d-33.7767187!4d151.1205172!16s%2Fg%2F11b6zsysx4?sa=X&ved=1t:2428&ictx=111&coh=219816&entry=tts&g_ep=EgoyMDI0MDgxMS4wKgBIAVAD",
        "coordinate_source": "Official Google Maps link"
      }
    },
    {
      "type": "Feature",
      "geometry": {
        "type": "Point",
        "coordinates": [
          151.2289799,
          -33.8860014
        ]
      },
      "properties": {
        "id": "paddington",
        "name": "Bailey Nelson Paddington - New Location",
        "status": "Active",
        "state": "NSW",
        "city": "Paddington",
        "postal_code": "2021",
        "full_address": "372 Oxford Street, Paddington, NSW, 2021",
        "phone": "+61290008061",
        "official_url": "https://baileynelson.com.au/pages/optometrist-paddington",
        "services": "Optometry Services; Bulk-Billed Eye Tests; Private Eye Tests from $65; Contact Lens Eye Tests; Visual Fields Testing; Ultra-wide retinal imaging; Optical & Sunglass styling; Free frame adjustments",
        "audiology": "false",
        "map_url": "https://www.google.com/maps/place/Bailey+Nelson+Optometrist+-+Paddington/@-33.8860014,151.2289799,15z/data=!4m6!3m5!1s0x6b12ae062e06db97:0xe7e1bd217973afa4!8m2!3d-33.8860014!4d151.2289799!16s%2Fg%2F12615x7b8?sa=X&ved=1t:2428&ictx=111&coh=219816&entry=tts&g_ep=EgoyMDI0MDgwNC4wKgBIAVAD",
        "coordinate_source": "Official Google Maps link"
      }
    },
    {
      "type": "Feature",
      "geometry": {
        "type": "Point",
        "coordinates": [
          151.2090642,
          -33.8705971
        ]
      },
      "properties": {
        "id": "pitt-st-sydney",
        "name": "Bailey Nelson Pitt Street - Westfield Sydney",
        "status": "Active",
        "state": "NSW",
        "city": "Sydney",
        "postal_code": "2000",
        "full_address": "188 Pitt St, Sydney, NSW, 2000",
        "phone": "+61290008067",
        "official_url": "https://baileynelson.com.au/pages/optometrist-pitt-st-sydney",
        "services": "Optometry Services; Bulk-Billed Eye Tests; Private Eye Tests from $65; Contact Lens Eye Tests; Visual Fields Testing; Ultra-wide retinal imaging; Optical & Sunglass styling; Free frame adjustments",
        "audiology": "false",
        "map_url": "https://www.google.com/maps/place/Bailey+Nelson+Optometrist+-+Pitt+Street/@-33.8705971,151.2090642,15z/data=!4m6!3m5!1s0x6b12ae3fb1873ead:0xea9145f256ed6f93!8m2!3d-33.8705971!4d151.2090642!16s%2Fg%2F11b6zl95p0?sa=X&ved=1t:2428&ictx=111&coh=219816&entry=tts&g_ep=EgoyMDI0MDgwNC4wKgBIAVAD",
        "coordinate_source": "Official Google Maps link"
      }
    },
    {
      "type": "Feature",
      "geometry": {
        "type": "Point",
        "coordinates": [
          151.1943646,
          -33.8834174
        ]
      },
      "properties": {
        "id": "broadway",
        "name": "Bailey Nelson Broadway",
        "status": "Active",
        "state": "NSW",
        "city": "Ultimo",
        "postal_code": "2007",
        "full_address": "1 Bay Street, Ultimo, NSW, 2007",
        "phone": "+61290008069",
        "official_url": "https://baileynelson.com.au/pages/optometrist-broadway",
        "services": "Optometry Services; Bulk-Billed Eye Tests; Private Eye Tests from $65; Contact Lens Eye Tests; Visual Fields Testing; Ultra-wide retinal imaging; Optical & Sunglass styling; Free frame adjustments",
        "audiology": "false",
        "map_url": "https://www.google.com/maps/place/Bailey+Nelson+Optometrist+-+Broadway/@-33.8829097,151.1850305,16z/data=!4m6!3m5!1s0x6b12ae29a5283363:0x3fc7d0e74d40299a!8m2!3d-33.8834174!4d151.1943646!16s%2Fg%2F11b6ztx2hm?sa=X&ved=1t:2428&ictx=111&coh=219816&entry=tts&g_ep=EgoyMDI0MDgwNC4wKgBIAVAD",
        "coordinate_source": "Official Google Maps link"
      }
    },
    {
      "type": "Feature",
      "geometry": {
        "type": "Point",
        "coordinates": [
          153.0276745,
          -27.4681543
        ]
      },
      "properties": {
        "id": "brisbane-macarthur",
        "name": "Bailey Nelson Brisbane MacArthur",
        "status": "Active",
        "state": "QLD",
        "city": "Brisbane",
        "postal_code": "4000",
        "full_address": "255 Queen St, Brisbane, QLD, 4000",
        "phone": "+61737093763",
        "official_url": "https://baileynelson.com.au/pages/optometrist-brisbane-macarthur",
        "services": "Optometry Services; Bulk-Billed Eye Tests; Private Eye Tests from $65; Contact Lens Eye Tests; Visual Fields Testing; Ultra-wide retinal imaging; Optical & Sunglass styling; Free frame adjustments",
        "audiology": "false",
        "map_url": "https://www.google.com/maps/place/Bailey+Nelson+Optometrist+-+Brisbane+MacArthur/@-27.4683304,153.025172,17z/data=!4m7!3m6!1s0x6b915b480a853711:0x237136e4e583f105!8m2!3d-27.4681543!4d153.0276745!15sCiBiYWlsZXkgbmVsc29uIGJyaXNiYW5lIG1hY2FydGh1ciIDiAEBWiIiIGJhaWxleSBuZWxzb24gYnJpc2JhbmUgbWFjYXJ0aHVykgELb3B0b21ldHJpc3TgAQA!16s%2Fg%2F11tf3p0nw0?coh=219816&entry=tts&g_ep=EgoyMDI0MDgwNS4wKgBIAVAD",
        "coordinate_source": "Official Google Maps link"
      }
    },
    {
      "type": "Feature",
      "geometry": {
        "type": "Point",
        "coordinates": [
          153.4266806,
          -28.0370278
        ]
      },
      "properties": {
        "id": "gold-coast",
        "name": "Bailey Nelson Gold Coast Pacific Fair",
        "status": "Active",
        "state": "QLD",
        "city": "Broadbeach",
        "postal_code": "4218",
        "full_address": "32 Hooker Boulevard, Broadbeach, QLD, 4218",
        "phone": "+61756168866",
        "official_url": "https://baileynelson.com.au/pages/optometrist-gold-coast",
        "services": "Optometry Services; Bulk-Billed Eye Tests; Private Eye Tests from $65; Contact Lens Eye Tests; Visual Fields Testing; Ultra-wide retinal imaging; Optical & Sunglass styling; Free frame adjustments",
        "audiology": "false",
        "map_url": "https://www.google.com/maps/place/Bailey+Nelson+Optometrist+-+Pacific+Fair/@-28.0370278,153.4266806,15z/data=!4m6!3m5!1s0x6b9104f01a388917:0x58708d7650c1a3c!8m2!3d-28.0370278!4d153.4266806!16s%2Fg%2F11c3l9kg73?sa=X&ved=1t:2428&ictx=111&coh=219816&entry=tts&g_ep=EgoyMDI0MDgwNS4wKgBIAVAD",
        "coordinate_source": "Official Google Maps link"
      }
    },
    {
      "type": "Feature",
      "geometry": {
        "type": "Point",
        "coordinates": [
          153.4511243,
          -28.089137
        ]
      },
      "properties": {
        "id": "burleigh-heads",
        "name": "Bailey Nelson Burleigh Heads",
        "status": "Active",
        "state": "QLD",
        "city": "Burleigh Heads",
        "postal_code": "4220",
        "full_address": "15-17 James Street, Burleigh Heads, QLD, 4220",
        "phone": "+61 7 5690 5060",
        "official_url": "https://baileynelson.com.au/pages/optometrist-burleigh-heads",
        "services": "Optometry Services; Bulk-Billed Eye Tests; Private Eye Tests from $65; Contact Lens Eye Tests; Visual Fields Testing; Ultra-wide retinal imaging; Optical & Sunglass styling; Free frame adjustments",
        "audiology": "false",
        "map_url": "https://www.google.com/maps/place/Shop+2%2F15+James+St,+Burleigh+Heads+QLD+4220,+Australia/@-28.0891322,153.4485494,17z/data=!3m1!4b1!4m6!3m5!1s0x6b910390ab6f22bd:0x4bc093c9da706fe1!8m2!3d-28.089137!4d153.4511243!16s%2Fg%2F11rg681r0q?entry=tts&g_ep=EgoyMDI1MDcwOS4wIPu8ASoASAFQAw%3D%3D&skid=140c3e32-103f-4a32-8f1d-d10fee8d34b1",
        "coordinate_source": "Official Google Maps link"
      }
    },
    {
      "type": "Feature",
      "geometry": {
        "type": "Point",
        "coordinates": [
          153.1019762,
          -27.5029969
        ]
      },
      "properties": {
        "id": "carindale",
        "name": "Bailey Nelson Carindale",
        "status": "Active",
        "state": "QLD",
        "city": "Carindale",
        "postal_code": "4152",
        "full_address": "1151 Creek Rd, Carindale, QLD, 4152",
        "phone": "+61737093760",
        "official_url": "https://baileynelson.com.au/pages/optometrist-carindale",
        "services": "Optometry Services; Bulk-Billed Eye Tests; Private Eye Tests from $65; Contact Lens Eye Tests; Visual Fields Testing; Ultra-wide retinal imaging; Optical & Sunglass styling; Free frame adjustments",
        "audiology": "false",
        "map_url": "https://www.google.com/maps/place/Bailey+Nelson+Optometrist+-+Carindale/@-27.5029969,153.1019762,15z/data=!4m6!3m5!1s0x6b915bdaabc46757:0xd660516b35e51570!8m2!3d-27.5029969!4d153.1019762!16s%2Fg%2F11f793zkss?sa=X&ved=1t:2428&ictx=111&coh=219816&entry=tts&g_ep=EgoyMDI0MDgwNS4wKgBIAVAD",
        "coordinate_source": "Official Google Maps link"
      }
    },
    {
      "type": "Feature",
      "geometry": {
        "type": "Point",
        "coordinates": [
          153.0329081,
          -27.3813595
        ]
      },
      "properties": {
        "id": "chermside",
        "name": "Bailey Nelson Chermside",
        "status": "Active",
        "state": "QLD",
        "city": "Chermside",
        "postal_code": "4032",
        "full_address": "Shop 1380, Westfield Chermside, Chermside, QLD, 4032",
        "phone": "+61737093766",
        "official_url": "https://baileynelson.com.au/pages/optometrist-chermside",
        "services": "Optometry Services; Bulk-Billed Eye Tests; Private Eye Tests from $65; Contact Lens Eye Tests; Visual Fields Testing; Ultra-wide retinal imaging; Optical & Sunglass styling; Free frame adjustments",
        "audiology": "false",
        "map_url": "https://www.google.com/maps/place/Bailey+Nelson+Optometrist+-+Chermside/@-27.3813595,153.0329081,15z/data=!4m6!3m5!1s0x6b91580ef4ecde65:0x32f3e677a09a2ac7!8m2!3d-27.3813595!4d153.0329081!16s%2Fg%2F11fy4fyj8z?sa=X&ved=1t:2428&ictx=111&coh=219816&entry=tts&g_ep=EgoyMDI0MDgwNS4wKgBIAVAD",
        "coordinate_source": "Official Google Maps link"
      }
    },
    {
      "type": "Feature",
      "geometry": {
        "type": "Point",
        "coordinates": [
          153.3144519,
          -27.8527529
        ]
      },
      "properties": {
        "id": "coomera",
        "name": "Bailey Nelson Coomera",
        "status": "Active",
        "state": "QLD",
        "city": "Coomera",
        "postal_code": "4209",
        "full_address": "103 Foxwell Rd, Coomera, QLD, 4209",
        "phone": "+61756060742",
        "official_url": "https://baileynelson.com.au/pages/optometrist-coomera",
        "services": "Optometry Services; Bulk-Billed Eye Tests; Private Eye Tests from $65; Contact Lens Eye Tests; Visual Fields Testing; Ultra-wide retinal imaging; Optical & Sunglass styling; Free frame adjustments",
        "audiology": "false",
        "map_url": "https://www.google.com/maps/place/Bailey+Nelson+Optometrist+-+Coomera/@-27.8527529,153.3144519,17z/data=!3m1!4b1!4m6!3m5!1s0x6b91137ae6c29a9b:0x9ebbb426c341170e!8m2!3d-27.8527529!4d153.3144519!16s%2Fg%2F11ww7gl2jn?entry=tts&g_ep=EgoyMDI1MDMyNC4wIPu8ASoASAFQAw%3D%3D&skid=a83b6d73-1b91-4a53-86d1-8c69acd811d3",
        "coordinate_source": "Official Google Maps link"
      }
    },
    {
      "type": "Feature",
      "geometry": {
        "type": "Point",
        "coordinates": [
          153.0405923,
          -27.4575991
        ]
      },
      "properties": {
        "id": "fortitude-valley",
        "name": "Bailey Nelson Fortitude Valley",
        "status": "Active",
        "state": "QLD",
        "city": "Fortitude Valley",
        "postal_code": "4006",
        "full_address": "65 James Street, Fortitude Valley, QLD, 4006",
        "phone": "+61737093761",
        "official_url": "https://baileynelson.com.au/pages/optometrist-fortitude-valley",
        "services": "Optometry Services; Bulk-Billed Eye Tests; Private Eye Tests from $65; Contact Lens Eye Tests; Visual Fields Testing; Ultra-wide retinal imaging; Optical & Sunglass styling; Free frame adjustments",
        "audiology": "false",
        "map_url": "https://www.google.com/maps/place/Bailey+Nelson+Optometrist+-+Fortitude+Valley/@-27.4575991,153.0405923,15z/data=!4m6!3m5!1s0x6b91598d0d742dd9:0x4180b9cb33fc709d!8m2!3d-27.4575991!4d153.0405923!16s%2Fg%2F11b69zzx6k?sa=X&ved=1t:2428&ictx=111&coh=219816&entry=tts&g_ep=EgoyMDI0MDgwNS4wKgBIAVAD",
        "coordinate_source": "Official Google Maps link"
      }
    },
    {
      "type": "Feature",
      "geometry": {
        "type": "Point",
        "coordinates": [
          152.9730189,
          -27.499702
        ]
      },
      "properties": {
        "id": "indooroopilly",
        "name": "Bailey Nelson Indooroopilly",
        "status": "Active",
        "state": "QLD",
        "city": "Indooroopilly",
        "postal_code": "4608",
        "full_address": "322 Moggill Road, Indooroopilly, QLD, 4608",
        "phone": "+61737093764",
        "official_url": "https://baileynelson.com.au/pages/optometrist-indooroopilly",
        "services": "Optometry Services; Bulk-Billed Eye Tests; Private Eye Tests from $65; Contact Lens Eye Tests; Visual Fields Testing; Ultra-wide retinal imaging; Optical & Sunglass styling; Free frame adjustments",
        "audiology": "false",
        "map_url": "https://www.google.com/maps/place/Bailey+Nelson+Optometrist+-+Indooroopilly/@-27.499702,152.9730189,15z/data=!4m6!3m5!1s0x6b9150542fe739bb:0x805f129df12e2f77!8m2!3d-27.499702!4d152.9730189!16s%2Fg%2F11b6zskdz7?sa=X&ved=1t:2428&ictx=111&coh=219816&entry=tts&g_ep=EgoyMDI0MDgwNS4wKgBIAVAD",
        "coordinate_source": "Official Google Maps link"
      }
    },
    {
      "type": "Feature",
      "geometry": {
        "type": "Point",
        "coordinates": [
          153.0156064,
          -27.2411429
        ]
      },
      "properties": {
        "id": "north-lakes",
        "name": "Bailey Nelson North Lakes",
        "status": "Active",
        "state": "QLD",
        "city": "North Lakes",
        "postal_code": "4509",
        "full_address": "1158a North Lakes Drive, North Lakes, QLD, 4509",
        "phone": "+61737093765",
        "official_url": "https://baileynelson.com.au/pages/optometrist-north-lakes",
        "services": "Optometry Services; Bulk-Billed Eye Tests; Private Eye Tests from $65; Contact Lens Eye Tests; Visual Fields Testing; Ultra-wide retinal imaging; Optical & Sunglass styling; Free frame adjustments",
        "audiology": "false",
        "map_url": "https://www.google.com/maps/place/Bailey+Nelson/@-27.2411429,153.0156064,15z/data=!4m6!3m5!1s0x6b93e5589cec4d61:0xcb7fa56b629f43ae!8m2!3d-27.2411429!4d153.0156064!16s%2Fg%2F11p5g8xgjm?sa=X&ved=1t:2428&ictx=111&coh=219816&entry=tts&g_ep=EgoyMDI0MDgwNS4wKgBIAVAD",
        "coordinate_source": "Official Google Maps link"
      }
    },
    {
      "type": "Feature",
      "geometry": {
        "type": "Point",
        "coordinates": [
          153.3860834,
          -28.0764984
        ]
      },
      "properties": {
        "id": "robina",
        "name": "Bailey Nelson Gold Coast Robina",
        "status": "Active",
        "state": "QLD",
        "city": "Robina",
        "postal_code": "4230",
        "full_address": "Robina Town Shopping Centre, Robina, QLD, 4230",
        "phone": "+61756517346",
        "official_url": "https://baileynelson.com.au/pages/optometrist-robina",
        "services": "Optometry Services; Bulk-Billed Eye Tests; Private Eye Tests from $65; Contact Lens Eye Tests; Visual Fields Testing; Ultra-wide retinal imaging; Optical & Sunglass styling; Free frame adjustments",
        "audiology": "false",
        "map_url": "https://www.google.com/maps/place/Bailey+Nelson+Optometrist+-+Robina/@-28.0764984,153.3860834,15z/data=!4m6!3m5!1s0x6b911dc9a0a4ebdf:0xe30b41fb001e9ab8!8m2!3d-28.0764984!4d153.3860834!16s%2Fg%2F11h04bc12w?sa=X&ved=1t:2428&ictx=111&coh=219816&entry=tts&g_ep=EgoyMDI0MDgwNS4wKgBIAVAD",
        "coordinate_source": "Official Google Maps link"
      }
    },
    {
      "type": "Feature",
      "geometry": {
        "type": "Point",
        "coordinates": [
          151.9494249,
          -27.5614002
        ]
      },
      "properties": {
        "id": "toowoomba",
        "name": "Bailey Nelson Toowoomba",
        "status": "Active",
        "state": "QLD",
        "city": "Toowoomba",
        "postal_code": "4350",
        "full_address": "Cnr Margaret and Dent Street, Toowoomba, QLD, 4350",
        "phone": "+61775208218",
        "official_url": "https://baileynelson.com.au/pages/optometrist-toowoomba",
        "services": "Optometry Services; Bulk-Billed Eye Tests; Private Eye Tests from $65; Contact Lens Eye Tests; Visual Fields Testing; Ultra-wide retinal imaging; Optical & Sunglass styling; Free frame adjustments",
        "audiology": "false",
        "map_url": "https://www.google.com/maps/place/Bailey+Nelson+Optometrist+-+Toowoomba/@-27.5614002,151.9494249,15z/data=!4m6!3m5!1s0x6b965c68fe8f8435:0x491292664826260e!8m2!3d-27.5614002!4d151.9494249!16s%2Fg%2F11cmxlc1fk?sa=X&ved=1t:2428&ictx=111&coh=219816&entry=tts&g_ep=EgoyMDI0MDgwNS4wKgBIAVAD",
        "coordinate_source": "Official Google Maps link"
      }
    },
    {
      "type": "Feature",
      "geometry": {
        "type": "Point",
        "coordinates": [
          153.0848465,
          -27.5637584
        ]
      },
      "properties": {
        "id": "mt-gravatt",
        "name": "Bailey Nelson Mt Gravatt - NEW LOCATION",
        "status": "Active",
        "state": "QLD",
        "city": "Upper Mount Gravatt",
        "postal_code": "4122",
        "full_address": "Kessels Rd, Upper Mount Gravatt, QLD, 4122",
        "phone": "+61737093762",
        "official_url": "https://baileynelson.com.au/pages/optometrist-mt-gravatt",
        "services": "Optometry Services; Bulk-Billed Eye Tests; Private Eye Tests from $65; Contact Lens Eye Tests; Visual Fields Testing; Ultra-wide retinal imaging; Optical & Sunglass styling; Free frame adjustments",
        "audiology": "false",
        "map_url": "https://www.google.com/maps/place/Bailey+Nelson+Optometrist+-+Mt+Gravatt/@-27.5637584,153.0848465,15z/data=!4m6!3m5!1s0x6b91458eaaa5f1cf:0x838c72add79cc2bd!8m2!3d-27.5637584!4d153.0848465!16s%2Fg%2F11hxxzrzrt?sa=X&ved=1t:2428&ictx=111&coh=219816&entry=tts&g_ep=EgoyMDI0MDgwNS4wKgBIAVAD",
        "coordinate_source": "Official Google Maps link"
      }
    },
    {
      "type": "Feature",
      "geometry": {
        "type": "Point",
        "coordinates": [
          138.601695,
          -34.9230131
        ]
      },
      "properties": {
        "id": "adelaide-arcade",
        "name": "Bailey Nelson Adelaide Arcade",
        "status": "Active",
        "state": "SA",
        "city": "Adelaide",
        "postal_code": "5000",
        "full_address": "111-117 Rundle Mall, Adelaide Arcade, Adelaide, SA, 5000",
        "phone": "+61870951011",
        "official_url": "https://baileynelson.com.au/pages/optometrist-adelaide-arcade",
        "services": "Optometry Services; Bulk-Billed Eye Tests; Private Eye Tests from $65; Contact Lens Eye Tests; Visual Fields Testing; Ultra-wide retinal imaging; Optical & Sunglass styling; Free frame adjustments",
        "audiology": "false",
        "map_url": "https://www.google.com/maps/place/Bailey+Nelson+Optometrist+-+Rundle+Mall/@-34.9230131,138.601695,15z/data=!4m6!3m5!1s0x6ab0ced390fdf409:0x85cf954bcaed7dce!8m2!3d-34.9230131!4d138.601695!16s%2Fg%2F11crzx6z0g?sa=X&ved=1t:2428&ictx=111&coh=219816&entry=tts&g_ep=EgoyMDI0MDgwNy4wKgBIAVAD",
        "coordinate_source": "Official Google Maps link"
      }
    },
    {
      "type": "Feature",
      "geometry": {
        "type": "Point",
        "coordinates": [
          138.6347078,
          -34.9214469
        ]
      },
      "properties": {
        "id": "norwood",
        "name": "Bailey Nelson Norwood",
        "status": "Active",
        "state": "SA",
        "city": "Norwood",
        "postal_code": "5067",
        "full_address": "152 The Parade, Norwood, SA, 5067",
        "phone": "+61870951012",
        "official_url": "https://baileynelson.com.au/pages/optometrist-norwood",
        "services": "Optometry Services; Bulk-Billed Eye Tests; Private Eye Tests from $65; Contact Lens Eye Tests; Visual Fields Testing; Ultra-wide retinal imaging; Optical & Sunglass styling; Free frame adjustments",
        "audiology": "false",
        "map_url": "https://www.google.com/maps/place/Bailey+Nelson+Optometrist+-+Norwood/@-34.9214469,138.6347078,15z/data=!4m6!3m5!1s0x6ab0c9ea65c2b143:0x4ffdf0b4f62b58!8m2!3d-34.9214469!4d138.6347078!16s%2Fg%2F11sx1sw58t?sa=X&ved=1t:2428&ictx=111&coh=219816&entry=tts&g_ep=EgoyMDI0MDgwNy4wKgBIAVAD",
        "coordinate_source": "Official Google Maps link"
      }
    },
    {
      "type": "Feature",
      "geometry": {
        "type": "Point",
        "coordinates": [
          138.5461336,
          -35.0164765
        ]
      },
      "properties": {
        "id": "marion",
        "name": "Bailey Nelson Marion",
        "status": "Active",
        "state": "SA",
        "city": "Oaklands Park",
        "postal_code": "5046",
        "full_address": "297 Diagonal Road, Oaklands Park, SA, 5046",
        "phone": "+61870951019",
        "official_url": "https://baileynelson.com.au/pages/optometrist-marion",
        "services": "Optometry Services; Bulk-Billed Eye Tests; Private Eye Tests from $65; Contact Lens Eye Tests; Visual Fields Testing; Ultra-wide retinal imaging; Optical & Sunglass styling; Free frame adjustments",
        "audiology": "false",
        "map_url": "https://www.google.com/maps/place/Bailey+Nelson+Optometrist+-+Marion/@-35.0164765,138.5461336,15z/data=!4m6!3m5!1s0x6ab0da6ec9445d07:0xbfa564375f30f3b3!8m2!3d-35.0164765!4d138.5461336!16s%2Fg%2F11g9w33qyr?sa=X&ved=1t:2428&ictx=111&coh=219816&entry=tts&g_ep=EgoyMDI0MDgwNy4wKgBIAVAD",
        "coordinate_source": "Official Google Maps link"
      }
    },
    {
      "type": "Feature",
      "geometry": {
        "type": "Point",
        "coordinates": [
          138.5055049,
          -34.8484914
        ]
      },
      "properties": {
        "id": "port-adelaide",
        "name": "Bailey Nelson Port Adelaide",
        "status": "Active",
        "state": "SA",
        "city": "Port Adelaide",
        "postal_code": "5015",
        "full_address": "200-220 Commercial Road, Port Adelaide, SA, 5015",
        "phone": "+61870951010",
        "official_url": "https://baileynelson.com.au/pages/optometrist-port-adelaide",
        "services": "Optometry Services; Bulk-Billed Eye Tests; Private Eye Tests from $65; Contact Lens Eye Tests; Visual Fields Testing; Ultra-wide retinal imaging; Optical & Sunglass styling; Free frame adjustments",
        "audiology": "false",
        "map_url": "https://www.google.com/maps/place/Bailey+Nelson+Optometrist+-+Port+Adelaide/@-34.8484914,138.5055049,15z/data=!4m6!3m5!1s0x6ab0c75a19385df5:0xfe766d527a82c81b!8m2!3d-34.8484914!4d138.5055049!16s%2Fg%2F11t03dfn0v?sa=X&ved=1t:2428&ictx=111&coh=219816&entry=tts&g_ep=EgoyMDI0MDgwNy4wKgBIAVAD",
        "coordinate_source": "Official Google Maps link"
      }
    },
    {
      "type": "Feature",
      "geometry": {
        "type": "Point",
        "coordinates": [
          147.3275438,
          -42.8833754
        ]
      },
      "properties": {
        "id": "hobart",
        "name": "Bailey Nelson Hobart",
        "status": "Active",
        "state": "TAS",
        "city": "Hobart",
        "postal_code": "7000",
        "full_address": "35 Murray Street, Hobart, TAS, 7000",
        "phone": "+61361640371",
        "official_url": "https://baileynelson.com.au/pages/optometrist-hobart",
        "services": "Optometry Services; Bulk-Billed Eye Tests; Private Eye Tests from $65; Contact Lens Eye Tests; Visual Fields Testing; Ultra-wide retinal imaging; Optical & Sunglass styling; Free frame adjustments",
        "audiology": "false",
        "map_url": "https://www.google.com/maps/place/Bailey+Nelson+Optometrist+-+Hobart/@-42.8833754,147.3275438,15z/data=!4m6!3m5!1s0xaa6e75850e5cb2f7:0xc35f5a87759677c!8m2!3d-42.8833754!4d147.3275438!16s%2Fg%2F11f1300tqb?sa=X&ved=1t:2428&ictx=111&coh=219816&entry=tts&g_ep=EgoyMDI0MDgwNy4wKgBIAVAD",
        "coordinate_source": "Official Google Maps link"
      }
    },
    {
      "type": "Feature",
      "geometry": {
        "type": "Point",
        "coordinates": [
          147.3684373,
          -42.8658356
        ]
      },
      "properties": {
        "id": "hobart-eastlands",
        "name": "Bailey Nelson Hobart Eastlands",
        "status": "Active",
        "state": "TAS",
        "city": "Rosny Park,",
        "postal_code": "7018",
        "full_address": "26 Bligh Street, Rosny Park,, TAS, 7018",
        "phone": "+61361640370",
        "official_url": "https://baileynelson.com.au/pages/optometrist-hobart-eastlands",
        "services": "Optometry Services; Bulk-Billed Eye Tests; Private Eye Tests from $65; Contact Lens Eye Tests; Visual Fields Testing; Ultra-wide retinal imaging; Optical & Sunglass styling; Free frame adjustments",
        "audiology": "false",
        "map_url": "https://www.google.com/maps/place/Bailey+Nelson+Optometrist+-+Hobart+Eastlands/@-42.8658356,147.3684373,15z/data=!4m6!3m5!1s0xaa6ddf36ace8ef71:0x2d40b52a93366d63!8m2!3d-42.8658356!4d147.3684373!16s%2Fg%2F11s8y__23z?sa=X&ved=1t:2428&ictx=111&coh=219816&entry=tts&g_ep=EgoyMDI0MDgwNy4wKgBIAVAD",
        "coordinate_source": "Official Google Maps link"
      }
    },
    {
      "type": "Feature",
      "geometry": {
        "type": "Point",
        "coordinates": [
          145.3465211,
          -38.0309824
        ]
      },
      "properties": {
        "id": "berwick",
        "name": "Bailey Nelson Berwick, Melbourne",
        "status": "Active",
        "state": "VIC",
        "city": "Berwick",
        "postal_code": "3806",
        "full_address": "49 High Street, Berwick, VIC, 3806",
        "phone": "+61399679894",
        "official_url": "https://baileynelson.com.au/pages/optometrist-berwick",
        "services": "Optometry Services; Bulk-Billed Eye Tests; Private Eye Tests from $65; Contact Lens Eye Tests; Visual Fields Testing; Ultra-wide retinal imaging; Optical & Sunglass styling; Free frame adjustments",
        "audiology": "false",
        "map_url": "https://www.google.com/maps/place/Bailey+Nelson+Berwick/@-38.0309824,145.3439462,17z/data=!3m1!4b1!4m6!3m5!1s0x6ad61926500afaa7:0xaaf5472a15795792!8m2!3d-38.0309824!4d145.3465211!16s%2Fg%2F11y_3p15kn?entry=tts&g_ep=EgoyMDI2MDMwOS4wIPu8ASoASAFQAw%3D%3D&skid=8a57c82f-1f05-41eb-af4e-9ae8ea438e3f",
        "coordinate_source": "Official Google Maps link"
      }
    },
    {
      "type": "Feature",
      "geometry": {
        "type": "Point",
        "coordinates": [
          144.9932944,
          -37.9132674
        ]
      },
      "properties": {
        "id": "brighton",
        "name": "Bailey Nelson Brighton",
        "status": "Active",
        "state": "VIC",
        "city": "Brighton",
        "postal_code": "3186",
        "full_address": "36 Church Street, Brighton, VIC, 3186",
        "phone": "+61370327719",
        "official_url": "https://baileynelson.com.au/pages/optometrist-brighton",
        "services": "Optometry Services; Bulk-Billed Eye Tests; Private Eye Tests from $65; Contact Lens Eye Tests; Visual Fields Testing; Ultra-wide retinal imaging; Optical & Sunglass styling; Free frame adjustments",
        "audiology": "false",
        "map_url": "https://www.google.com/maps/place/Bailey+Nelson+Optometrist+-+Brighton/@-37.9132674,144.9932944,17z/data=!3m1!4b1!4m6!3m5!1s0x6ad66991bae6252d:0x2756f9bd6b8e7024!8m2!3d-37.9132674!4d144.9932944!16s%2Fg%2F11wq4svr2n?entry=tts&g_ep=EgoyMDI1MDEwMi4wIPu8ASoASAFQAw%3D%3D",
        "coordinate_source": "Official Google Maps link"
      }
    },
    {
      "type": "Feature",
      "geometry": {
        "type": "Point",
        "coordinates": [
          144.960892,
          -37.7752852
        ]
      },
      "properties": {
        "id": "brunswick",
        "name": "Bailey Nelson Brunswick",
        "status": "Active",
        "state": "VIC",
        "city": "Brunswick",
        "postal_code": "3056",
        "full_address": "112 Sydney Road, Brunswick, VIC, 3056",
        "phone": "+61 3 9967 9893",
        "official_url": "https://baileynelson.com.au/pages/optometrist-brunswick",
        "services": "Optometry Services; Bulk-Billed Eye Tests; Private Eye Tests from $65; Contact Lens Eye Tests; Visual Fields Testing; Ultra-wide retinal imaging; Optical & Sunglass styling; Free frame adjustments",
        "audiology": "false",
        "map_url": "https://www.google.com/maps/place/112+Sydney+Rd,+Brunswick+VIC+3056,+Australia/@-37.775302,144.9607629,16z/data=!4m6!3m5!1s0x6ad65ccab3ef035b:0x671dbd96427e3f6b!8m2!3d-37.7752852!4d144.960892!16s%2Fg%2F11rp37pxnj?entry=tts&g_ep=EgoyMDI1MDcwOS4wIPu8ASoASAFQAw%3D%3D&skid=d9113707-3027-4b0f-b0ac-4b3f7818d7d3",
        "coordinate_source": "Official Google Maps link"
      }
    },
    {
      "type": "Feature",
      "geometry": {
        "type": "Point",
        "coordinates": [
          145.0568745,
          -37.8311297
        ]
      },
      "properties": {
        "id": "camberwell",
        "name": "Bailey Nelson Camberwell",
        "status": "Active",
        "state": "VIC",
        "city": "Camberwell",
        "postal_code": "3124",
        "full_address": "562 Burke Road, Camberwell, VIC, 3124",
        "phone": "+61370327718",
        "official_url": "https://baileynelson.com.au/pages/optometrist-camberwell",
        "services": "Optometry Services; Bulk-Billed Eye Tests; Private Eye Tests from $65; Contact Lens Eye Tests; Visual Fields Testing; Ultra-wide retinal imaging; Optical & Sunglass styling; Free frame adjustments",
        "audiology": "false",
        "map_url": "https://www.google.com/maps/place/Bailey+Nelson+Optometrist+-+Camberwell/@-37.8311297,145.0568745,15z/data=!4m6!3m5!1s0x6ad641846f864db1:0xa8d2316d2a016bc9!8m2!3d-37.8311297!4d145.0568745!16s%2Fg%2F11clysw0xj?sa=X&ved=1t:2428&ictx=111&coh=219816&entry=tts&g_ep=EgoyMDI0MDgwNC4wKgBIAVAD",
        "coordinate_source": "Official Google Maps link"
      }
    },
    {
      "type": "Feature",
      "geometry": {
        "type": "Point",
        "coordinates": [
          145.0821596,
          -37.8869675
        ]
      },
      "properties": {
        "id": "chadstone",
        "name": "Bailey Nelson Chadstone",
        "status": "Active",
        "state": "VIC",
        "city": "Chadstone",
        "postal_code": "3148",
        "full_address": "1341 Dandenong Road, Chadstone, VIC, 3148",
        "phone": "+61370327710",
        "official_url": "https://baileynelson.com.au/pages/optometrist-chadstone",
        "services": "Optometry Services; Bulk-Billed Eye Tests; Private Eye Tests from $65; Contact Lens Eye Tests; Visual Fields Testing; Ultra-wide retinal imaging; Optical & Sunglass styling; Free frame adjustments",
        "audiology": "false",
        "map_url": "https://www.google.com/maps/place/Bailey+Nelson+Optometrist+-+Chadstone/@-37.8869675,145.0821596,15z/data=!4m6!3m5!1s0x6ad66a65bca0182b:0x1ba159d6f8e5f329!8m2!3d-37.8869675!4d145.0821596!16s%2Fg%2F11b6zv0bb8?sa=X&ved=1t:2428&ictx=111&coh=219816&entry=tts&g_ep=EgoyMDI0MDgwNC4wKgBIAVAD",
        "coordinate_source": "Official Google Maps link"
      }
    },
    {
      "type": "Feature",
      "geometry": {
        "type": "Point",
        "coordinates": [
          145.0538192,
          -37.9579655
        ]
      },
      "properties": {
        "id": "southland",
        "name": "Bailey Nelson Southland",
        "status": "Active",
        "state": "VIC",
        "city": "Cheltenham",
        "postal_code": "3192",
        "full_address": "1239 Nepean Highway, Cheltenham, VIC, 3192",
        "phone": "+61399679896",
        "official_url": "https://baileynelson.com.au/pages/optometrist-southland",
        "services": "Optometry Services; Bulk-Billed Eye Tests; Private Eye Tests from $65; Contact Lens Eye Tests; Visual Fields Testing; Ultra-wide retinal imaging; Optical & Sunglass styling; Free frame adjustments",
        "audiology": "false",
        "map_url": "https://www.google.com/maps/place/Bailey+Nelson+Southland/@-37.9579655,145.0538192,15z/data=!4m6!3m5!1s0x6ad66c213d00d91f:0x347f10ef34bf5a99!8m2!3d-37.9579655!4d145.0538192!16s%2Fg%2F11gf5jl2_3?coh=219816&entry=tts&g_ep=EgoyMDI0MDgwNC4wKgBIAVAD",
        "coordinate_source": "Official Google Maps link"
      }
    },
    {
      "type": "Feature",
      "geometry": {
        "type": "Point",
        "coordinates": [
          145.1254825,
          -37.78573
        ]
      },
      "properties": {
        "id": "doncaster",
        "name": "Bailey Nelson Doncaster",
        "status": "Active",
        "state": "VIC",
        "city": "Doncaster",
        "postal_code": "3108",
        "full_address": "Doncaster Rd & Williamsons Rd, Doncaster, VIC, 3108",
        "phone": "+61399679899",
        "official_url": "https://baileynelson.com.au/pages/optometrist-doncaster",
        "services": "Optometry Services; Bulk-Billed Eye Tests; Private Eye Tests from $65; Contact Lens Eye Tests; Visual Fields Testing; Ultra-wide retinal imaging; Optical & Sunglass styling; Free frame adjustments",
        "audiology": "false",
        "map_url": "https://www.google.com/maps/place/Bailey+Nelson+Optometrist+-+Doncaster/@-37.78573,145.1254825,15z/data=!4m6!3m5!1s0x6ad6476f3700f64d:0x94a9f44175d5a96!8m2!3d-37.78573!4d145.1254825!16s%2Fg%2F11f0qfqp2r?sa=X&ved=1t:2428&ictx=111&coh=219816&entry=tts&g_ep=EgoyMDI0MDgwNC4wKgBIAVAD",
        "coordinate_source": "Official Google Maps link"
      }
    },
    {
      "type": "Feature",
      "geometry": {
        "type": "Point",
        "coordinates": [
          144.979956,
          -37.8058309
        ]
      },
      "properties": {
        "id": "fitzroy",
        "name": "Bailey Nelson Fitzroy",
        "status": "Active",
        "state": "VIC",
        "city": "Fitzroy",
        "postal_code": "3065",
        "full_address": "161 Gertrude Street, Fitzroy, VIC, 3065",
        "phone": "+61399679890",
        "official_url": "https://baileynelson.com.au/pages/optometrist-fitzroy",
        "services": "Optometry Services; Bulk-Billed Eye Tests; Private Eye Tests from $65; Contact Lens Eye Tests; Visual Fields Testing; Ultra-wide retinal imaging; Optical & Sunglass styling; Free frame adjustments",
        "audiology": "false",
        "map_url": "https://www.google.com/maps/place/Bailey+Nelson+Optometrist+-+Fitzroy/@-37.8058309,144.979956,15z/data=!4m6!3m5!1s0x6ad642dc4ee08d31:0x6089aebaefdc7bc0!8m2!3d-37.8058309!4d144.979956!16s%2Fg%2F11fy4f8_5t?sa=X&ved=1t:2428&ictx=111&coh=219816&entry=tts&g_ep=EgoyMDI0MDgwNC4wKgBIAVAD",
        "coordinate_source": "Official Google Maps link"
      }
    },
    {
      "type": "Feature",
      "geometry": {
        "type": "Point",
        "coordinates": [
          145.1249159,
          -38.1403059
        ]
      },
      "properties": {
        "id": "bayside-frankston",
        "name": "Bailey Nelson Frankston",
        "status": "Active",
        "state": "VIC",
        "city": "Frankston",
        "postal_code": "3199",
        "full_address": "28 Beach Street, Frankston, VIC, 3199",
        "phone": "+61399679897",
        "official_url": "https://baileynelson.com.au/pages/optometrist-bayside-frankston",
        "services": "Optometry Services; Bulk-Billed Eye Tests; Private Eye Tests from $65; Contact Lens Eye Tests; Visual Fields Testing; Ultra-wide retinal imaging; Optical & Sunglass styling; Free frame adjustments",
        "audiology": "false",
        "map_url": "https://www.google.com/maps/place/Bailey+Nelson+Optometrist+-+Frankston/@-38.1403059,145.1249159,15z/data=!4m6!3m5!1s0x6ad675826d04ad71:0xf09e753f91411e54!8m2!3d-38.1403059!4d145.1249159!16s%2Fg%2F11q4dkk7qw?sa=X&ved=1t:2428&ictx=111&coh=219816&entry=tts&g_ep=EgoyMDI0MDgwNC4wKgBIAVAD",
        "coordinate_source": "Official Google Maps link"
      }
    },
    {
      "type": "Feature",
      "geometry": {
        "type": "Point",
        "coordinates": [
          145.1652131,
          -37.8763093
        ]
      },
      "properties": {
        "id": "glen-waverley",
        "name": "Bailey Nelson Glen Waverley",
        "status": "Active",
        "state": "VIC",
        "city": "Glen Waverley",
        "postal_code": "3150",
        "full_address": "235 Springvale Rd, Glen Waverley, VIC, 3150",
        "phone": "+61370327715",
        "official_url": "https://baileynelson.com.au/pages/optometrist-glen-waverley",
        "services": "Optometry Services; Bulk-Billed Eye Tests; Private Eye Tests from $65; Contact Lens Eye Tests; Visual Fields Testing; Ultra-wide retinal imaging; Optical & Sunglass styling; Free frame adjustments",
        "audiology": "false",
        "map_url": "https://www.google.com/maps/place/Bailey+Nelson+Optometrist+-+The+Glen/@-37.8763093,145.1652131,15z/data=!4m6!3m5!1s0x6ad63fb24bf93ffb:0x26aef12573fdaf50!8m2!3d-37.8763093!4d145.1652131!16s%2Fg%2F11fm4zmn4d?sa=X&ved=1t:2428&ictx=111&coh=219816&entry=tts&g_ep=EgoyMDI0MDgwNC4wKgBIAVAD",
        "coordinate_source": "Official Google Maps link"
      }
    },
    {
      "type": "Feature",
      "geometry": {
        "type": "Point",
        "coordinates": [
          145.028151,
          -37.862122
        ]
      },
      "properties": {
        "id": "malvern",
        "name": "Bailey Nelson Malvern",
        "status": "Active",
        "state": "VIC",
        "city": "Malvern",
        "postal_code": "3144",
        "full_address": "109 Glenferrie Road, Malvern, VIC, 3144",
        "phone": "+61370327713",
        "official_url": "https://baileynelson.com.au/pages/optometrist-malvern",
        "services": "Optometry Services; Bulk-Billed Eye Tests; Private Eye Tests from $65; Contact Lens Eye Tests; Visual Fields Testing; Ultra-wide retinal imaging; Optical & Sunglass styling; Free frame adjustments",
        "audiology": "false",
        "map_url": "https://www.google.com/maps/place/Bailey+Nelson+Optometrist+-+Malvern/@-37.862122,145.028151,15z/data=!4m6!3m5!1s0x6ad66963d8877257:0x8a6661362b540f11!8m2!3d-37.862122!4d145.028151!16s%2Fg%2F11rdc87jp_?sa=X&ved=1t:2428&ictx=111&coh=219816&entry=tts&g_ep=EgoyMDI0MDgwNC4wKgBIAVAD",
        "coordinate_source": "Official Google Maps link"
      }
    },
    {
      "type": "Feature",
      "geometry": {
        "type": "Point",
        "coordinates": [
          144.8887561,
          -37.7731817
        ]
      },
      "properties": {
        "id": "highpoint",
        "name": "Bailey Nelson Highpoint",
        "status": "Active",
        "state": "VIC",
        "city": "Maribyrnong",
        "postal_code": "3032",
        "full_address": "120-200 Rosamond Rd, Maribyrnong, VIC, 3032",
        "phone": "+61399679898",
        "official_url": "https://baileynelson.com.au/pages/optometrist-highpoint",
        "services": "Optometry Services; Bulk-Billed Eye Tests; Private Eye Tests from $65; Contact Lens Eye Tests; Visual Fields Testing; Ultra-wide retinal imaging; Optical & Sunglass styling; Free frame adjustments",
        "audiology": "false",
        "map_url": "https://www.google.com/maps/place/Bailey+Nelson+Optometrist+-+Highpoint/@-37.7731817,144.8887561,15z/data=!4m6!3m5!1s0x6ad65d6a48804fa9:0x8100a7a82e65ed22!8m2!3d-37.7731817!4d144.8887561!16s%2Fg%2F11g1n_rwhh?sa=X&ved=1t:2428&ictx=111&coh=219816&entry=tts&g_ep=EgoyMDI0MDgwNC4wKgBIAVAD",
        "coordinate_source": "Official Google Maps link"
      }
    },
    {
      "type": "Feature",
      "geometry": {
        "type": "Point",
        "coordinates": [
          144.966426,
          -37.816811
        ]
      },
      "properties": {
        "id": "flinders-lane-melbourne",
        "name": "Bailey Nelson Flinders Lane",
        "status": "Active",
        "state": "VIC",
        "city": "Melbourne",
        "postal_code": "3000",
        "full_address": "239 Flinders Lane, Melbourne, VIC, 3000",
        "phone": "+61399679892",
        "official_url": "https://baileynelson.com.au/pages/optometrist-flinders-lane-melbourne",
        "services": "Optometry Services; Bulk-Billed Eye Tests; Private Eye Tests from $65; Contact Lens Eye Tests; Visual Fields Testing; Ultra-wide retinal imaging; Optical & Sunglass styling; Free frame adjustments",
        "audiology": "false",
        "map_url": "https://www.google.com/maps/place/Bailey+Nelson+Optometrist+-+Flinders+Lane/@-37.816811,144.966426,15z/data=!4m6!3m5!1s0x6ad642b42688876f:0x436f0eb312fcafa4!8m2!3d-37.816811!4d144.966426!16s%2Fg%2F11c5bhc6mj?sa=X&ved=1t:2428&ictx=111&coh=219816&entry=tts&g_ep=EgoyMDI0MDgwNC4wKgBIAVAD",
        "coordinate_source": "Official Google Maps link"
      }
    },
    {
      "type": "Feature",
      "geometry": {
        "type": "Point",
        "coordinates": [
          144.9634657,
          -37.8113788
        ]
      },
      "properties": {
        "id": "melbourne-cbd",
        "name": "Bailey Nelson Melbourne Central",
        "status": "Active",
        "state": "VIC",
        "city": "Melbourne",
        "postal_code": "3000",
        "full_address": "211 La Trobe St, Melbourne, VIC, 3000",
        "phone": "+61370327714",
        "official_url": "https://baileynelson.com.au/pages/optometrist-melbourne-cbd",
        "services": "Optometry Services; Bulk-Billed Eye Tests; Private Eye Tests from $65; Contact Lens Eye Tests; Visual Fields Testing; Ultra-wide retinal imaging; Optical & Sunglass styling; Free frame adjustments",
        "audiology": "false",
        "map_url": "https://www.google.com/maps/place/Bailey+Nelson+Optometrist+-+Melbourne+Central/@-37.8113788,144.9634657,15z/data=!4m6!3m5!1s0x6ad642caf177ee0d:0xd668fceedd68f425!8m2!3d-37.8113788!4d144.9634657!16s%2Fg%2F1q62l7bph?sa=X&ved=1t:2428&ictx=111&coh=219816&entry=tts&g_ep=EgoyMDI0MDgwNC4wKgBIAVAD",
        "coordinate_source": "Official Google Maps link"
      }
    },
    {
      "type": "Feature",
      "geometry": {
        "type": "Point",
        "coordinates": [
          144.9234451,
          -37.7668114
        ]
      },
      "properties": {
        "id": "moonee-ponds",
        "name": "Bailey Nelson Moonee Ponds",
        "status": "Active",
        "state": "VIC",
        "city": "Moonee Ponds",
        "postal_code": "3039",
        "full_address": "38 Puckle Street, Moonee Ponds, VIC, 3039",
        "phone": "",
        "official_url": "https://baileynelson.com.au/pages/optometrist-moonee-ponds",
        "services": "Optometry Services; Bulk-Billed Eye Tests; Private Eye Tests from $65; Contact Lens Eye Tests; Visual Fields Testing; Ultra-wide retinal imaging; Optical & Sunglass styling; Free frame adjustments",
        "audiology": "false",
        "map_url": "https://nominatim.openstreetmap.org/search?format=jsonv2&countrycodes=au&limit=1&q=38+Puckle+Street%2C+Moonee+Ponds%2C+VIC%2C+3039",
        "coordinate_source": "OpenStreetMap Nominatim address fallback"
      }
    },
    {
      "type": "Feature",
      "geometry": {
        "type": "Point",
        "coordinates": [
          145.0400858,
          -38.2212485
        ]
      },
      "properties": {
        "id": "mornington",
        "name": "Bailey Nelson Mornington",
        "status": "Active",
        "state": "VIC",
        "city": "Mornington",
        "postal_code": "3931",
        "full_address": "170 Main St, Mornington, VIC, 3931",
        "phone": "+61399625523",
        "official_url": "https://baileynelson.com.au/pages/optometrist-mornington",
        "services": "Optometry Services; Bulk-Billed Eye Tests; Private Eye Tests from $65; Contact Lens Eye Tests; Visual Fields Testing; Ultra-wide retinal imaging; Optical & Sunglass styling; Free frame adjustments",
        "audiology": "false",
        "map_url": "https://nominatim.openstreetmap.org/search?format=jsonv2&countrycodes=au&limit=1&q=170+Main+St%2C+Mornington%2C+VIC%2C+3931",
        "coordinate_source": "OpenStreetMap Nominatim address fallback"
      }
    },
    {
      "type": "Feature",
      "geometry": {
        "type": "Point",
        "coordinates": [
          144.3450903,
          -38.1565918
        ]
      },
      "properties": {
        "id": "geelong",
        "name": "Bailey Nelson Geelong",
        "status": "Active",
        "state": "VIC",
        "city": "Newtown",
        "postal_code": "3220",
        "full_address": "331 Pakington St, Newtown, VIC, 3220",
        "phone": "+61 3 5212 9059",
        "official_url": "https://baileynelson.com.au/pages/optometrist-geelong",
        "services": "Optometry Services; Bulk-Billed Eye Tests; Private Eye Tests from $65; Contact Lens Eye Tests; Visual Fields Testing; Ultra-wide retinal imaging; Optical & Sunglass styling; Free frame adjustments",
        "audiology": "false",
        "map_url": "https://www.google.com/maps/place/Bailey+Nelson+Optometrist+-+Geelong/@-38.1565918,144.3450903,17z/data=!3m1!4b1!4m6!3m5!1s0x6ad4131492fdd287:0xc4e816c6ef6c7739!8m2!3d-38.1565918!4d144.3450903!16s%2Fg%2F11lzd7kvp7?entry=tts&g_ep=EgoyMDI2MDIwNC4wIPu8ASoASAFQAw%3D%3D&skid=0e8a8df4-3a28-4960-af62-b093db8e3968",
        "coordinate_source": "Official Google Maps link"
      }
    },
    {
      "type": "Feature",
      "geometry": {
        "type": "Point",
        "coordinates": [
          145.0307983,
          -37.7378097
        ]
      },
      "properties": {
        "id": "northland",
        "name": "Bailey Nelson Northland",
        "status": "Active",
        "state": "VIC",
        "city": "Preston",
        "postal_code": "3072",
        "full_address": "2-50 Murray Road, Preston, VIC, 3072",
        "phone": "+61399679895",
        "official_url": "https://baileynelson.com.au/pages/optometrist-northland",
        "services": "Optometry Services; Bulk-Billed Eye Tests; Private Eye Tests from $65; Contact Lens Eye Tests; Visual Fields Testing; Ultra-wide retinal imaging; Optical & Sunglass styling; Free frame adjustments",
        "audiology": "false",
        "map_url": "https://www.google.com/maps/place/Bailey+Nelson+Optometrist+-+Northland/@-37.7378097,145.0307983,15z/data=!4m6!3m5!1s0x6ad645003f13256b:0x53ffa8c29fb7610a!8m2!3d-37.7378097!4d145.0307983!16s%2Fg%2F11pzyp8lkc?sa=X&ved=1t:2428&ictx=111&coh=219816&entry=tts&g_ep=EgoyMDI0MDgwNC4wKgBIAVAD",
        "coordinate_source": "Official Google Maps link"
      }
    },
    {
      "type": "Feature",
      "geometry": {
        "type": "Point",
        "coordinates": [
          144.9970926,
          -37.8258213
        ]
      },
      "properties": {
        "id": "richmond",
        "name": "Bailey Nelson Richmond",
        "status": "Active",
        "state": "VIC",
        "city": "Richmond",
        "postal_code": "3121",
        "full_address": "224 Swan Street, Richmond, VIC, 3121",
        "phone": "+61370327716",
        "official_url": "https://baileynelson.com.au/pages/optometrist-richmond",
        "services": "Optometry Services; Bulk-Billed Eye Tests; Private Eye Tests from $65; Contact Lens Eye Tests; Visual Fields Testing; Ultra-wide retinal imaging; Optical & Sunglass styling; Free frame adjustments",
        "audiology": "false",
        "map_url": "https://www.google.com/maps/place/224+Swan+St,+Cremorne+VIC+3121,+Australia/@-37.8258213,144.9945177,17z/data=!4m6!3m5!1s0x6ad6428ce2c3c563:0xb91c64f85ec1637e!8m2!3d-37.8258213!4d144.9970926!16s%2Fg%2F11bw3y4p1f?entry=tts&g_ep=EgoyMDI2MDEwNy4wIPu8ASoASAFQAw%3D%3D&skid=d512f973-8888-4c35-b306-957fe295b840",
        "coordinate_source": "Official Google Maps link"
      }
    },
    {
      "type": "Feature",
      "geometry": {
        "type": "Point",
        "coordinates": [
          145.2295468,
          -37.8139631
        ]
      },
      "properties": {
        "id": "eastland-shopping-centre",
        "name": "Bailey Nelson Eastland - New Location",
        "status": "Active",
        "state": "VIC",
        "city": "Ringwood",
        "postal_code": "3134",
        "full_address": "171 - 175 Maroondah Highway, Ringwood, VIC, 3134",
        "phone": "+61370327717",
        "official_url": "https://baileynelson.com.au/pages/optometrist-eastland-shopping-centre",
        "services": "Optometry Services; Bulk-Billed Eye Tests; Private Eye Tests from $65; Contact Lens Eye Tests; Visual Fields Testing; Ultra-wide retinal imaging; Optical & Sunglass styling; Free frame adjustments",
        "audiology": "false",
        "map_url": "https://www.google.com/maps/place/Bailey+Nelson+Optometrist+-+Eastland/@-37.8139631,145.2295468,15z/data=!4m6!3m5!1s0x6ad63bd4286bc85d:0xc96cb5810dd1be14!8m2!3d-37.8139631!4d145.2295468!16s%2Fg%2F11bxgbln4d?sa=X&ved=1t:2428&ictx=111&coh=219816&entry=tts&g_ep=EgoyMDI0MDgwNC4wKgBIAVAD",
        "coordinate_source": "Official Google Maps link"
      }
    },
    {
      "type": "Feature",
      "geometry": {
        "type": "Point",
        "coordinates": [
          144.994222,
          -37.845319
        ]
      },
      "properties": {
        "id": "chapel-st-melbourne",
        "name": "Bailey Nelson South Yarra",
        "status": "Active",
        "state": "VIC",
        "city": "South Yarra",
        "postal_code": "3141",
        "full_address": "401 Chapel Street, South Yarra, VIC, 3141",
        "phone": "+61370327712",
        "official_url": "https://baileynelson.com.au/pages/optometrist-chapel-st-melbourne",
        "services": "Optometry Services; Bulk-Billed Eye Tests; Private Eye Tests from $65; Contact Lens Eye Tests; Visual Fields Testing; Ultra-wide retinal imaging; Optical & Sunglass styling; Free frame adjustments",
        "audiology": "false",
        "map_url": "https://www.google.com/maps/place/Bailey+Nelson+Optometrist+-+South+Yarra/@-37.845319,144.994222,15z/data=!4m6!3m5!1s0x6ad668262021a18b:0xb9b09f4e26fc2e33!8m2!3d-37.845319!4d144.994222!16s%2Fg%2F1q5bmln7k?sa=X&ved=1t:2428&ictx=111&coh=219816&entry=tts&g_ep=EgoyMDI0MDgwNC4wKgBIAVAD",
        "coordinate_source": "Official Google Maps link"
      }
    },
    {
      "type": "Feature",
      "geometry": {
        "type": "Point",
        "coordinates": [
          144.9793538,
          -37.8684047
        ]
      },
      "properties": {
        "id": "st-kilda",
        "name": "Bailey Nelson St Kilda",
        "status": "Active",
        "state": "VIC",
        "city": "St Kilda",
        "postal_code": "3182",
        "full_address": "115 Acland Street, St Kilda, VIC, 3182",
        "phone": "+61399625522",
        "official_url": "https://baileynelson.com.au/pages/optometrist-st-kilda",
        "services": "Optometry Services; Bulk-Billed Eye Tests; Private Eye Tests from $65; Contact Lens Eye Tests; Visual Fields Testing; Ultra-wide retinal imaging; Optical & Sunglass styling; Free frame adjustments",
        "audiology": "false",
        "map_url": "https://nominatim.openstreetmap.org/search?format=jsonv2&countrycodes=au&limit=1&q=115+Acland+Street%2C+St+Kilda%2C+VIC%2C+3182",
        "coordinate_source": "OpenStreetMap Nominatim address fallback"
      }
    },
    {
      "type": "Feature",
      "geometry": {
        "type": "Point",
        "coordinates": [
          144.9012027,
          -37.8591061
        ]
      },
      "properties": {
        "id": "williamstown",
        "name": "Bailey Nelson Williamstown",
        "status": "Active",
        "state": "VIC",
        "city": "Williamstown",
        "postal_code": "3016",
        "full_address": "7/8-18 Ferguson Street, Williamstown, VIC, 3016",
        "phone": "+61399679891",
        "official_url": "https://baileynelson.com.au/pages/optometrist-williamstown",
        "services": "Optometry Services; Bulk-Billed Eye Tests; Private Eye Tests from $65; Contact Lens Eye Tests; Visual Fields Testing; Ultra-wide retinal imaging; Optical & Sunglass styling; Free frame adjustments",
        "audiology": "false",
        "map_url": "https://www.google.com/maps/place/Bailey+Nelson+Optometrist+-+Williamstown/@-37.8591061,144.9012027,15z/data=!4m6!3m5!1s0x6ad667832a8e9c2f:0xcb97f8f0102cf57e!8m2!3d-37.8591061!4d144.9012027!16s%2Fg%2F11t2qdzd15?sa=X&ved=1t:2428&ictx=111&coh=219816&entry=tts&g_ep=EgoyMDI0MDgwNC4wKgBIAVAD",
        "coordinate_source": "Official Google Maps link"
      }
    },
    {
      "type": "Feature",
      "geometry": {
        "type": "Point",
        "coordinates": [
          115.8356508,
          -32.0338008
        ]
      },
      "properties": {
        "id": "booragoon",
        "name": "Bailey Nelson Booragoon",
        "status": "Active",
        "state": "WA",
        "city": "Booragoon",
        "postal_code": "6154",
        "full_address": "125 Riseley Street, Booragoon, WA, 6154",
        "phone": "+61861499475",
        "official_url": "https://baileynelson.com.au/pages/optometrist-booragoon",
        "services": "Optometry Services; Bulk-Billed Eye Tests; Private Eye Tests from $65; Contact Lens Eye Tests; Visual Fields Testing; Ultra-wide retinal imaging; Optical & Sunglass styling; Free frame adjustments",
        "audiology": "false",
        "map_url": "https://www.google.com/maps/place/Bailey+Nelson+Optometrist/@-32.0338008,115.8356508,15z/data=!4m6!3m5!1s0x2a32a3b382969703:0x57c67c904a166e37!8m2!3d-32.0338008!4d115.8356508!16s%2Fg%2F11rsh0_c1j?sa=X&ved=1t:2428&ictx=111&coh=219816&entry=tts&g_ep=EgoyMDI0MDgwNS4wKgBIAVAD",
        "coordinate_source": "Official Google Maps link"
      }
    },
    {
      "type": "Feature",
      "geometry": {
        "type": "Point",
        "coordinates": [
          115.9371842,
          -32.0195395
        ]
      },
      "properties": {
        "id": "carousel",
        "name": "Bailey Nelson Carousel - NEW LOCATION",
        "status": "Active",
        "state": "WA",
        "city": "Cannington",
        "postal_code": "6107",
        "full_address": "1382 Albany Hwy, Cannington, WA, 6107",
        "phone": "+61861499476",
        "official_url": "https://baileynelson.com.au/pages/optometrist-carousel",
        "services": "Optometry Services; Bulk-Billed Eye Tests; Private Eye Tests from $65; Contact Lens Eye Tests; Visual Fields Testing; Ultra-wide retinal imaging; Optical & Sunglass styling; Free frame adjustments",
        "audiology": "false",
        "map_url": "https://www.google.com/maps/place/Bailey+Nelson+Optometrist+-+Carousel/@-32.0195395,115.9371842,15z/data=!4m6!3m5!1s0x2a32bd207d07a1fb:0xd3068636e03b19ce!8m2!3d-32.0195395!4d115.9371842!16s%2Fg%2F11q2tc33tm?sa=X&ved=1t:2428&ictx=111&coh=219816&entry=tts&g_ep=EgoyMDI0MDgwNS4wKgBIAVAD",
        "coordinate_source": "Official Google Maps link"
      }
    },
    {
      "type": "Feature",
      "geometry": {
        "type": "Point",
        "coordinates": [
          115.7795913,
          -31.9822368
        ]
      },
      "properties": {
        "id": "claremont",
        "name": "Bailey Nelson Claremont",
        "status": "Active",
        "state": "WA",
        "city": "Claremont",
        "postal_code": "6010",
        "full_address": "9 Bayview Terrace, Claremont, WA, 6010",
        "phone": "+61861499477",
        "official_url": "https://baileynelson.com.au/pages/optometrist-claremont",
        "services": "Optometry Services; Bulk-Billed Eye Tests; Private Eye Tests from $65; Contact Lens Eye Tests; Visual Fields Testing; Ultra-wide retinal imaging; Optical & Sunglass styling; Free frame adjustments",
        "audiology": "false",
        "map_url": "https://www.google.com/maps/place/Bailey+Nelson+Optometrist+-+Claremont/@-31.9822368,115.7795913,15z/data=!4m6!3m5!1s0x2a32a4379565d683:0xf49145da5c397a0d!8m2!3d-31.9822368!4d115.7795913!16s%2Fg%2F11f1vmg_ds?sa=X&ved=1t:2428&ictx=111&coh=219816&entry=tts&g_ep=EgoyMDI0MDgwNS4wKgBIAVAD",
        "coordinate_source": "Official Google Maps link"
      }
    },
    {
      "type": "Feature",
      "geometry": {
        "type": "Point",
        "coordinates": [
          115.7464942,
          -32.0549593
        ]
      },
      "properties": {
        "id": "fremantle",
        "name": "Bailey Nelson Fremantle",
        "status": "Active",
        "state": "WA",
        "city": "Fremantle",
        "postal_code": "6160",
        "full_address": "71 Market Street, Fremantle, WA, 6160",
        "phone": "+61861499474",
        "official_url": "https://baileynelson.com.au/pages/optometrist-fremantle",
        "services": "Optometry Services; Bulk-Billed Eye Tests; Private Eye Tests from $65; Contact Lens Eye Tests; Visual Fields Testing; Ultra-wide retinal imaging; Optical & Sunglass styling; Free frame adjustments",
        "audiology": "false",
        "map_url": "https://www.google.com/maps/place/Bailey+Nelson+Optometrist/@-32.0549593,115.7464942,15z/data=!4m6!3m5!1s0x2a32a17ab00c0001:0x9476ac21913baf27!8m2!3d-32.0549593!4d115.7464942!16s%2Fg%2F11f2wfdcq_?sa=X&ved=1t:2428&ictx=111&coh=219816&entry=tts&g_ep=EgoyMDI0MDgwNS4wKgBIAVAD",
        "coordinate_source": "Official Google Maps link"
      }
    },
    {
      "type": "Feature",
      "geometry": {
        "type": "Point",
        "coordinates": [
          115.767223,
          -31.7442957
        ]
      },
      "properties": {
        "id": "joondalup",
        "name": "Bailey Nelson Joondalup",
        "status": "Active",
        "state": "WA",
        "city": "Joondalup",
        "postal_code": "6027",
        "full_address": "420 Joondalup Drive, Joondalup, WA, 6027",
        "phone": "+61861499470",
        "official_url": "https://baileynelson.com.au/pages/optometrist-joondalup",
        "services": "Optometry Services; Bulk-Billed Eye Tests; Private Eye Tests from $65; Contact Lens Eye Tests; Visual Fields Testing; Ultra-wide retinal imaging; Optical & Sunglass styling; Free frame adjustments",
        "audiology": "false",
        "map_url": "https://www.google.com/maps/place/Bailey+Nelson+Optometrist+-+Joondalup/@-31.7442957,115.767223,15z/data=!4m6!3m5!1s0x2bcd531df5ad4159:0xc3d903597c431c53!8m2!3d-31.7442957!4d115.767223!16s%2Fg%2F11h1rg4ybc?sa=X&ved=1t:2428&ictx=111&coh=219816&entry=tts&g_ep=EgoyMDI0MDgwNS4wKgBIAVAD",
        "coordinate_source": "Official Google Maps link"
      }
    },
    {
      "type": "Feature",
      "geometry": {
        "type": "Point",
        "coordinates": [
          115.8600234,
          -31.9555478
        ]
      },
      "properties": {
        "id": "state-buildings-perth",
        "name": "Bailey Nelson State Buildings Perth CBD",
        "status": "Active",
        "state": "WA",
        "city": "Perth",
        "postal_code": "6000",
        "full_address": "Corner Barrack Street and St George's Terrace, Perth, WA, 6000",
        "phone": "+61861499471",
        "official_url": "https://baileynelson.com.au/pages/optometrist-state-buildings-perth",
        "services": "Optometry Services; Bulk-Billed Eye Tests; Private Eye Tests from $65; Contact Lens Eye Tests; Visual Fields Testing; Ultra-wide retinal imaging; Optical & Sunglass styling; Free frame adjustments",
        "audiology": "false",
        "map_url": "https://www.google.com/maps/place/Bailey+Nelson+Optometrist+-+St+George's+Terrace/@-31.9555478,115.8600234,15z/data=!4m6!3m5!1s0x2a32bb29de59a847:0x9d8dab4cd674b73a!8m2!3d-31.9555478!4d115.8600234!16s%2Fg%2F11cp5r4kps?sa=X&ved=1t:2428&ictx=111&coh=219816&entry=tts&g_ep=EgoyMDI0MDgwNS4wKgBIAVAD",
        "coordinate_source": "Official Google Maps link"
      }
    }
  ]
}
