{
  "type": "FeatureCollection",
  "metadata": {
    "retailer": "City Beach",
    "brand_context": "Rhythm",
    "source": "https://www.citybeach.com/on/demandware.store/Sites-CityBeachAustralia-Site/en_AU/Stores-FindStores?showMap=false&postalCode=4000&radius=5000",
    "source_page": "https://www.citybeach.com/au/stores",
    "fetched_at": "2026-06-22T11:56:41+00:00",
    "geography_filter": "Australia",
    "store_count": 64
  },
  "features": [
    {
      "type": "Feature",
      "geometry": {
        "type": "Point",
        "coordinates": [
          149.065042,
          -35.238076
        ]
      },
      "properties": {
        "name": "Belconnen",
        "id": "069",
        "state": "ACT",
        "city": "Belconnen",
        "postal_code": "2617",
        "full_address": "City Beach, Westfield Belconnen Shopping Centre, Shop-123/124A, Benjamin Way., Belconnen, ACT, 2617",
        "phone": "02 6103 1085",
        "services": "Official City Beach store, Click & Collect",
        "hours": "Mon: 0900-1730; Tues: 0900-1730; Wed: 0900-1730; Thurs: 0900-1730; Fri: 0900-2100; Sat: 0900-1700; Sun: 1000-1600"
      }
    },
    {
      "type": "Feature",
      "geometry": {
        "type": "Point",
        "coordinates": [
          153.559561,
          -28.85861
        ]
      },
      "properties": {
        "name": "Ballina",
        "id": "030",
        "state": "NSW",
        "city": "Ballina",
        "postal_code": "2478",
        "full_address": "City Beach, Ballina Fair, Shop-4/5, 84 Kerr St., Ballina, NSW, 2478",
        "phone": "02 5631 8190",
        "services": "Official City Beach store, Click & Collect",
        "hours": "Mon: 0900-1730; Tues: 0900-1730; Wed: 0900-1730; Thurs: 0900-2000; Fri: 0900-1730; Sat: 0830-1700; Sun: 1000-1500"
      }
    },
    {
      "type": "Feature",
      "geometry": {
        "type": "Point",
        "coordinates": [
          151.26913,
          -33.763223
        ]
      },
      "properties": {
        "name": "Brookvale",
        "id": "011",
        "state": "NSW",
        "city": "Brookvale",
        "postal_code": "2100",
        "full_address": "City Beach, Westfield Warringah Mall, Shop-2110, 11 Old Pittwater Rd., Brookvale, NSW, 2100",
        "phone": "",
        "services": "Official City Beach store, Click & Collect",
        "hours": "Mon: 0900-1730; Tues: 0900-1730; Wed: 0900-1730; Thurs: 0900-2100; Fri: 0900-1730; Sat: 0900-1700; Sun: 1000-1700"
      }
    },
    {
      "type": "Feature",
      "geometry": {
        "type": "Point",
        "coordinates": [
          151.1059,
          -33.8746
        ]
      },
      "properties": {
        "name": "Burwood",
        "id": "025",
        "state": "NSW",
        "city": "Burwood",
        "postal_code": "2134",
        "full_address": "City Beach, Westfield Burwood Shopping Centre, Shop 1-238/39 100 Burwood Road, Burwood, NSW, 2134",
        "phone": "02 9582 4160",
        "services": "Official City Beach store, Click & Collect",
        "hours": "Mon: 0930-1800; Tues: 0930-1800; Wed: 0930-1800; Thurs: 0930-2100; Fri: 0930-1800; Sat: 0900-1800; Sun: 1000-1800"
      }
    },
    {
      "type": "Feature",
      "geometry": {
        "type": "Point",
        "coordinates": [
          150.7979,
          -34.0766
        ]
      },
      "properties": {
        "name": "Macarthur",
        "id": "046",
        "state": "NSW",
        "city": "Campbelltown",
        "postal_code": "2560",
        "full_address": "City Beach, Macarthur Square Shopping Centre, Shop-82/83, 200 Gilchrist Dr., Campbelltown, NSW, 2560",
        "phone": "02 4631 8900",
        "services": "Official City Beach store, Click & Collect",
        "hours": "Mon: 0900-1730; Tues: 0900-1730; Wed: 0900-1730; Thurs: 0900-2100; Fri: 0900-1730; Sat: 0900-1730; Sun: 1000-1700"
      }
    },
    {
      "type": "Feature",
      "geometry": {
        "type": "Point",
        "coordinates": [
          151.6939,
          -32.9652
        ]
      },
      "properties": {
        "name": "Charlestown",
        "id": "065",
        "state": "NSW",
        "city": "Charlestown",
        "postal_code": "2290",
        "full_address": "City Beach, Charletown Square, Shop-2037, 30 Pearson St., Charlestown, NSW, 2290",
        "phone": "02 4942 1057",
        "services": "Official City Beach store, Click & Collect",
        "hours": "Mon: 0900-1730; Tues: 0900-1730; Wed: 0900-1730; Thurs: 0900-2100; Fri: 0900-1730; Sat: 0900-1700; Sun: 1000-1700"
      }
    },
    {
      "type": "Feature",
      "geometry": {
        "type": "Point",
        "coordinates": [
          151.5897,
          -32.7624
        ]
      },
      "properties": {
        "name": "Greenhills",
        "id": "039",
        "state": "NSW",
        "city": "East Maitland",
        "postal_code": "2323",
        "full_address": "City Beach, Stocklands Green Hills Shopping Centre, Level-1, 1 Molly Morgan Dr., East Maitland, NSW, 2323",
        "phone": "02 4013 6115",
        "services": "Official City Beach store, Click & Collect",
        "hours": "Mon: 0900-1730; Tues: 0900-1730; Wed: 0900-1730; Thurs: 0900-2100; Fri: 0900-1730; Sat: 0900-1700; Sun: 1000-1600"
      }
    },
    {
      "type": "Feature",
      "geometry": {
        "type": "Point",
        "coordinates": [
          151.3946,
          -33.4382
        ]
      },
      "properties": {
        "name": "Erina",
        "id": "048",
        "state": "NSW",
        "city": "Erina",
        "postal_code": "2250",
        "full_address": "City Beach, Erina Fair Shopping Center, Shop-T387, 620-658 Terrigal Dr., Erina, NSW, 2250",
        "phone": "02 4302 0476",
        "services": "Official City Beach store, Click & Collect",
        "hours": "Mon: 0900-1730; Tues: 0900-1730; Wed: 0900-1730; Thurs: 0900-2100; Fri: 0900-1730; Sat: 0900-1700; Sun: 1000-1700"
      }
    },
    {
      "type": "Feature",
      "geometry": {
        "type": "Point",
        "coordinates": [
          153.2854,
          -28.8101
        ]
      },
      "properties": {
        "name": "Lismore",
        "id": "035",
        "state": "NSW",
        "city": "Lismore",
        "postal_code": "2480",
        "full_address": "City Beach, Lismore Shopping Square, Shop-55, 40 Brewster St., Lismore, NSW, 2480",
        "phone": "02 6626 4180",
        "services": "Official City Beach store, Click & Collect",
        "hours": "Mon: 09:00-17:30; Tues: 09:00-17:30; Wed: 09:00-17:30; Thurs: 09:00-21:00; Fri: 09:00-17:30; Sat: 09:00-17:00; Sun: 10:00-16:00"
      }
    },
    {
      "type": "Feature",
      "geometry": {
        "type": "Point",
        "coordinates": [
          151.0864,
          -34.033
        ]
      },
      "properties": {
        "name": "Miranda",
        "id": "088",
        "state": "NSW",
        "city": "Miranda",
        "postal_code": "2228",
        "full_address": "City Beach, Westfield Miranda Shopping Centre, Shop-3005/3007, 600 Kingsway., Miranda, NSW, 2228",
        "phone": "02 9531 3380",
        "services": "Official City Beach store, Click & Collect",
        "hours": "Mon: 0930-1800; Tues: 0930-1800; Wed: 0930-1800; Thurs: 0930-2100; Fri: 0930-1800; Sat: 0900-1800; Sun: 1000-1800"
      }
    },
    {
      "type": "Feature",
      "geometry": {
        "type": "Point",
        "coordinates": [
          150.8189,
          -33.7665
        ]
      },
      "properties": {
        "name": "Mt Druitt",
        "id": "036",
        "state": "NSW",
        "city": "Mount Druitt",
        "postal_code": "2770",
        "full_address": "City Beach, Westfield Mt Druitt Shopping Centre, Shop-210, Cnr Luxford Rd and Carlisle Ave., Mount Druitt, NSW, 2770",
        "phone": "02 9208 6040",
        "services": "Official City Beach store, Click & Collect",
        "hours": "Mon: 0900-1730; Tues: 0900-1730; Wed: 0900-1730; Thurs: 0900-2100; Fri: 0900-1730; Sat: 0900-1700; Sun: 1000-1700"
      }
    },
    {
      "type": "Feature",
      "geometry": {
        "type": "Point",
        "coordinates": [
          150.7284,
          -34.0408
        ]
      },
      "properties": {
        "name": "Narellan",
        "id": "047",
        "state": "NSW",
        "city": "Narellan",
        "postal_code": "2567",
        "full_address": "City Beach, Narellan Town Centre, Shop-162/165, 326 Camden Valley Way., Narellan, NSW, 2567",
        "phone": "02 4605 0296",
        "services": "Official City Beach store, Click & Collect",
        "hours": "Mon: 0900-1730; Tues: 0900-1730; Wed: 0900-1730; Thurs: 0900-2100; Fri: 0900-1730; Sat: 0830-1730; Sun: 1000-1600"
      }
    },
    {
      "type": "Feature",
      "geometry": {
        "type": "Point",
        "coordinates": [
          151.1197,
          -33.7764
        ]
      },
      "properties": {
        "name": "Macquarie",
        "id": "058",
        "state": "NSW",
        "city": "North Ryde",
        "postal_code": "2113",
        "full_address": "City Beach, Macquarie Centre, Shop-446, Cnr Herring Rd and Waterloo Rd., North Ryde, NSW, 2113",
        "phone": "02 9448 1500",
        "services": "Official City Beach store, Click & Collect",
        "hours": "Mon: 0930-1800; Tues: 0930-1800; Wed: 0930-1800; Thurs: 0930-2100; Fri: 0930-1800; Sat: 0830-1800; Sun: 1000-1800"
      }
    },
    {
      "type": "Feature",
      "geometry": {
        "type": "Point",
        "coordinates": [
          150.606066,
          -34.877091
        ]
      },
      "properties": {
        "name": "Nowra",
        "id": "086",
        "state": "NSW",
        "city": "Nowra",
        "postal_code": "2541",
        "full_address": "City Beach, Stockland Nowra Shopping Centre, Shop-051, 32-60 East St., Nowra, NSW, 2541",
        "phone": "02 4409 2913",
        "services": "Official City Beach store, Click & Collect",
        "hours": "Mon: 0900-1730; Tues: 0900-1730; Wed: 0900-1730; Thurs: 0900-2100; Fri: 0900-1730; Sat: 0900-1700; Sun: 1000-1700"
      }
    },
    {
      "type": "Feature",
      "geometry": {
        "type": "Point",
        "coordinates": [
          151.0021,
          -33.8177
        ]
      },
      "properties": {
        "name": "Parramatta",
        "id": "017",
        "state": "NSW",
        "city": "Parramatta",
        "postal_code": "2150",
        "full_address": "City Beach, Westfield Parramatta Shopping Centre, Shop-2112/2113, Level-2, 159-175 Church St., Parramatta, NSW, 2150",
        "phone": "02 8855 3740",
        "services": "Official City Beach store, Click & Collect",
        "hours": "Mon: 0930-1800; Tues: 0930-1800; Wed: 0930 -1800; Thurs: 0930-2130; Fri: 0930-1800; Sat: 0930-1800; Sun: 1000-1800"
      }
    },
    {
      "type": "Feature",
      "geometry": {
        "type": "Point",
        "coordinates": [
          150.6924,
          -33.7511
        ]
      },
      "properties": {
        "name": "Penrith",
        "id": "045",
        "state": "NSW",
        "city": "Penrith",
        "postal_code": "2750",
        "full_address": "City Beach, Westfield Penrith Shopping Centre, Shop-95, 585 High St., Penrith, NSW, 2750",
        "phone": "02 4729 8000",
        "services": "Official City Beach store, Click & Collect",
        "hours": "Mon: 0900-1730; Tues: 0900-1730; Wed: 0900-1730; Thurs: 0900-2100; Fri: 0900-1730; Sat: 0900-1700; Sun: 1000-1700"
      }
    },
    {
      "type": "Feature",
      "geometry": {
        "type": "Point",
        "coordinates": [
          152.892273,
          -31.429188
        ]
      },
      "properties": {
        "name": "Port Macquarie",
        "id": "085",
        "state": "NSW",
        "city": "Port Macquarie",
        "postal_code": "2444",
        "full_address": "City Beach, Settlement City, Shop-T47/T48 , Bay St & Cnr Park., Port Macquarie, NSW, 2444",
        "phone": "02 6590 1891",
        "services": "Official City Beach store, Click & Collect",
        "hours": "Mon: 1000-1800; Tues: 1000-1800; Wed: 1000-1800; Thurs: 1000-1800; Fri: 1000-1800; Sat: 1000-1800; Sun: 1000-1800"
      }
    },
    {
      "type": "Feature",
      "geometry": {
        "type": "Point",
        "coordinates": [
          150.9233,
          -33.691
        ]
      },
      "properties": {
        "name": "Rouse Hill",
        "id": "059",
        "state": "NSW",
        "city": "Rouse Hill",
        "postal_code": "2155",
        "full_address": "City Beach, Rouse Hill Town Centre, Shop-GR099, 10 Market Lane., Rouse Hill, NSW, 2155",
        "phone": "02 9629 2255",
        "services": "Official City Beach store, Click & Collect",
        "hours": "Mon: 0900-1730; Tues: 0900-1730; Wed: 0900-1730; Thurs: 0900-2100; Fri: 0900-1730; Sat: 0830-1730; Sun: 1000-1700"
      }
    },
    {
      "type": "Feature",
      "geometry": {
        "type": "Point",
        "coordinates": [
          150.8366,
          -34.5649
        ]
      },
      "properties": {
        "name": "Shell Harbour",
        "id": "067",
        "state": "NSW",
        "city": "Shellharbour",
        "postal_code": "2528",
        "full_address": "City Beach, Stockland Shellharbour, Shop-2005, 211 Lake Entrance Rd., Shellharbour, NSW, 2528",
        "phone": "02 4251 8910",
        "services": "Official City Beach store, Click & Collect",
        "hours": "Mon: 0900-1730; Tues: 0900-1730; Wed: 0900-1730; Thurs: 0900-2100; Fri: 0900-1730; Sat: 0900-1600; Sun: 1000-1600"
      }
    },
    {
      "type": "Feature",
      "geometry": {
        "type": "Point",
        "coordinates": [
          151.4123,
          -33.3084
        ]
      },
      "properties": {
        "name": "Tuggerah",
        "id": "027",
        "state": "NSW",
        "city": "Tuggerah",
        "postal_code": "2259",
        "full_address": "City Beach, Westfield Tuggerah Shopping Centre, Shop-1097/1098, 50 Wyong Rd., Tuggerah, NSW, 2259",
        "phone": "02 4356 7390",
        "services": "Official City Beach store, Click & Collect",
        "hours": "Mon: 0900-1730; Tues: 0900-1730; Wed: 0900-1730; Thurs: 0900-2100; Fri: 0900-1730; Sat: 0900-1700; Sun: 1000-1700"
      }
    },
    {
      "type": "Feature",
      "geometry": {
        "type": "Point",
        "coordinates": [
          153.5371,
          -28.2009
        ]
      },
      "properties": {
        "name": "Tweed City",
        "id": "057",
        "state": "NSW",
        "city": "Tweed Heads South",
        "postal_code": "2486",
        "full_address": "City Beach, Tweed City Shopping Centre, Shop-122A, 54 Minjungbal Dr., Tweed Heads South, NSW, 2486",
        "phone": "07 5569 9320",
        "services": "Official City Beach store, Click & Collect",
        "hours": "Due to Cyclone Alfred this City Beach location will be temporarily closed Thurs 6th Mar & Fri 7th Mar. Mon: 0900-1730; Tues: 0900-1730; Wed: 0900-1730; Thurs: 0900-2100; Fri: 0900-1730; Sat: 0900-1700; Sun: 1000-1600"
      }
    },
    {
      "type": "Feature",
      "geometry": {
        "type": "Point",
        "coordinates": [
          150.893147,
          -34.424504
        ]
      },
      "properties": {
        "name": "Wollongong",
        "id": "033",
        "state": "NSW",
        "city": "Wollongong",
        "postal_code": "2500",
        "full_address": "City Beach, Wollongong Central, Shop-W105/106, Ground Level, 200 Crown St., Wollongong, NSW, 2500",
        "phone": "02 4201 0199",
        "services": "Official City Beach store, Click & Collect",
        "hours": "Mon: 0900-1730; Tues: 0900-1730; Wed: 0900-1730; Thurs: 0900-2100; Fri: 0900-1730; Sat: 0900-1630; Sun: 1000-1600"
      }
    },
    {
      "type": "Feature",
      "geometry": {
        "type": "Point",
        "coordinates": [
          130.8786,
          -12.3754
        ]
      },
      "properties": {
        "name": "Darwin",
        "id": "083",
        "state": "NT",
        "city": "Casuarina",
        "postal_code": "0810",
        "full_address": "City Beach, Casuarina Square Shopping Center, Shop-231, 247 Trower Rd., Casuarina, NT, 0810",
        "phone": "08 8920 8300",
        "services": "Official City Beach store, Click & Collect",
        "hours": "Mon: 0900-1730; Tues: 0900-1730; Wed: 0900-1730; Thurs: 0900-1730; Fri: 0900-2100; Sat: 0900-1700; Sun: 1000-1600"
      }
    },
    {
      "type": "Feature",
      "geometry": {
        "type": "Point",
        "coordinates": [
          148.716532,
          -20.269194
        ]
      },
      "properties": {
        "name": "Airlie Beach",
        "id": "072",
        "state": "QLD",
        "city": "Airlie Beach",
        "postal_code": "4802",
        "full_address": "City Beach, 380 Shute Harbour Rd., Airlie Beach, QLD, 4802",
        "phone": "07 4967 7170",
        "services": "Official City Beach store, Click & Collect",
        "hours": "Mon: 09:00-20:00; Tues: 09:00-20:00; Wed: 09:00-20:00; Thurs: 09:00-20:00; Fri: 09:00-21:00; Sat: 09:00-21:00; Sun: 09:00-20:00"
      }
    },
    {
      "type": "Feature",
      "geometry": {
        "type": "Point",
        "coordinates": [
          153.0246,
          -27.47
        ]
      },
      "properties": {
        "name": "Queen Street",
        "id": "020",
        "state": "QLD",
        "city": "Brisbane",
        "postal_code": "4000",
        "full_address": "City Beach, Queen Street Mall, 120 Queen St., Brisbane, QLD, 4000",
        "phone": "07 3405 8820",
        "services": "Official City Beach store, Click & Collect",
        "hours": "Mon: 0900-1900; Tues: 0900-1900; Wed: 0900-1900; Thurs: 0900-1900; Fri: 0900-2100; Sat: 0830-1900; Sun: 1000-1700"
      }
    },
    {
      "type": "Feature",
      "geometry": {
        "type": "Point",
        "coordinates": [
          153.427,
          -28.036
        ]
      },
      "properties": {
        "name": "Pacific Fair",
        "id": "010",
        "state": "QLD",
        "city": "Broadbeach",
        "postal_code": "4218",
        "full_address": "City Beach, Pacific Fair Shopping Centre, Shop-1551/2-30 Hooker Blvd, Broadbeach, QLD, 4218",
        "phone": "07 5583 9720",
        "services": "Official City Beach store, Click & Collect",
        "hours": "Mon: 0900-1730; Tues: 0900-1730; Wed: 0800-1730; Thurs: 0900-2100; Fri: 0900-1730; Sat: 0830-1730; Sun: 0900-1700"
      }
    },
    {
      "type": "Feature",
      "geometry": {
        "type": "Point",
        "coordinates": [
          153.041,
          -27.6603
        ]
      },
      "properties": {
        "name": "Browns Plains",
        "id": "007",
        "state": "QLD",
        "city": "Browns Plains",
        "postal_code": "4118",
        "full_address": "City Beach, Grand Plaza Shopping Centre, Shop-70, 27-49 Browns Plains Rd., Browns Plains, QLD, 4118",
        "phone": "07 3884 7690",
        "services": "Official City Beach store, Click & Collect",
        "hours": "Mon: 0900-1730; Tues: 0900-1730; Wed: 0900-1730; Thurs: 0900-2100; Fri: 0900-1730; Sat: 0830-1630; Sun: 1000-1600"
      }
    },
    {
      "type": "Feature",
      "geometry": {
        "type": "Point",
        "coordinates": [
          153.1307,
          -26.7023
        ]
      },
      "properties": {
        "name": "Kawana",
        "id": "018",
        "state": "QLD",
        "city": "Buddina",
        "postal_code": "4575",
        "full_address": "City Beach, Kawana Shoppingworld, Shop-343, 119 Point Cartwright Dr., Buddina, QLD, 4575",
        "phone": "07 5470 9100",
        "services": "Official City Beach store, Click & Collect",
        "hours": "Mon: 0900-1730; Tues: 0900-1730; Wed: 0900-1730; Thurs: 0900-2100; Fri: 0900-1730; Sat: 0830-1700; Sun: 1000-1600"
      }
    },
    {
      "type": "Feature",
      "geometry": {
        "type": "Point",
        "coordinates": [
          145.7716,
          -16.9246
        ]
      },
      "properties": {
        "name": "Cairns",
        "id": "028",
        "state": "QLD",
        "city": "Cairns City",
        "postal_code": "4870",
        "full_address": "City Beach, Cairns Central Shopping Centre, Shop-1, 21 McLeod St., Cairns City, QLD, 4870",
        "phone": "07 4048 8120",
        "services": "Official City Beach store, Click & Collect",
        "hours": "Mon: 0900-1730; Tues: 0900-1730; Wed: 0900-1730; Thurs: 0900-2100; Fri: 0900-1730; Sat: 0830-1730; Sun: 1030-1600"
      }
    },
    {
      "type": "Feature",
      "geometry": {
        "type": "Point",
        "coordinates": [
          153.1023,
          -27.5027
        ]
      },
      "properties": {
        "name": "Carindale",
        "id": "006",
        "state": "QLD",
        "city": "Carindale",
        "postal_code": "4152",
        "full_address": "City Beach, Westfield Carindale Shopping Centre, Shop-2010, Level-1, 1151 Creek Road, Carindale, QLD, 4152",
        "phone": "07 3405 8830",
        "services": "Official City Beach store, Click & Collect",
        "hours": "Mon: 0900-1730; Tues: 0900-1730; Wed: 0900-1730; Thurs: 0900-2100; Fri: 0900-1730; Sat: 0830-1700; Sun: 1000-170"
      }
    },
    {
      "type": "Feature",
      "geometry": {
        "type": "Point",
        "coordinates": [
          153.0329,
          -27.3804
        ]
      },
      "properties": {
        "name": "Chermside",
        "id": "005",
        "state": "QLD",
        "city": "Chermside",
        "postal_code": "4032",
        "full_address": "City Beach, Westfield Chermside Shopping Centre, Shop-106/107, Cnr Gympie Rd and Hamilton Rd., Chermside, QLD, 4032",
        "phone": "07 3632 3200",
        "services": "Official City Beach store, Click & Collect",
        "hours": "Mon: 0900-1730; Tues: 0900-1730; Wed: 0900-1730; Thurs: 0900-2100; Fri: 0900-1730; Sat: 0830-1700; Sun: 1000-1700"
      }
    },
    {
      "type": "Feature",
      "geometry": {
        "type": "Point",
        "coordinates": [
          153.3156,
          -27.8541
        ]
      },
      "properties": {
        "name": "Coomera",
        "id": "043",
        "state": "QLD",
        "city": "Coomera",
        "postal_code": "4209",
        "full_address": "City Beach, Westfield Coomera Shopping Center, Shop-MM4, 103 Foxwell Rd., Coomera, QLD, 4209",
        "phone": "07 5600 0970",
        "services": "Official City Beach store, Click & Collect",
        "hours": "Mon: 0900-1730; Tues: 0900-1730; Wed: 0900-1730; Thurs: 0900-2100; Fri: 0900-1730; Sat: 0900-1700; Sun: 1000-1600"
      }
    },
    {
      "type": "Feature",
      "geometry": {
        "type": "Point",
        "coordinates": [
          145.7394,
          -16.9438
        ]
      },
      "properties": {
        "name": "Earlville",
        "id": "040",
        "state": "QLD",
        "city": "Earlville",
        "postal_code": "4870",
        "full_address": "City Beach, Stocklands Cairns Shopping Centre, Shop-77/78, 537 Mulgrave Rd., Earlville, QLD, 4870",
        "phone": "07 4033 4300",
        "services": "Official City Beach store, Click & Collect",
        "hours": "Mon: 0900-1730; Tues: 0900-1730; Wed: 0900-1730; Thurs: 0900-2100; Fri: 0900-1730; Sat: 0830-1700; Sun: 1030-1600"
      }
    },
    {
      "type": "Feature",
      "geometry": {
        "type": "Point",
        "coordinates": [
          153.3364,
          -27.9261
        ]
      },
      "properties": {
        "name": "Helensvale",
        "id": "038",
        "state": "QLD",
        "city": "Helensvale",
        "postal_code": "4212",
        "full_address": "City Beach, Westfield Helensvale Shopping Centre, Shop-1024, 1 Millaroo Dr., Helensvale, QLD, 4212",
        "phone": "07 5519 4837",
        "services": "Official City Beach store, Click & Collect",
        "hours": "Mon: 0900-1730; Tues: 0900-1730; Wed: 0900-1730; Thurs: 0900-2100; Fri: 0900-1730; Sat: 0830-1700; Sun: 1000-1600"
      }
    },
    {
      "type": "Feature",
      "geometry": {
        "type": "Point",
        "coordinates": [
          152.9728,
          -27.4994
        ]
      },
      "properties": {
        "name": "Indooroopilly",
        "id": "004",
        "state": "QLD",
        "city": "Indooroopilly",
        "postal_code": "4068",
        "full_address": "City Beach, Indooroopilly Shopping Centre, Shop-3108/3109, 322 Moggill Rd., Indooroopilly, QLD, 4068",
        "phone": "03 3896 9090",
        "services": "Official City Beach store, Click & Collect",
        "hours": "Mon: 0900-1730; Tues: 0900-1730; Wed: 0900-1730; Thurs: 0900-2100; Fri: 0900-1730; Sat: 0830-1700; Sun: 1000-1600"
      }
    },
    {
      "type": "Feature",
      "geometry": {
        "type": "Point",
        "coordinates": [
          152.7598,
          -27.6077
        ]
      },
      "properties": {
        "name": "Ipswich",
        "id": "053",
        "state": "QLD",
        "city": "Ipswich",
        "postal_code": "4305",
        "full_address": "City Beach, Riverlink Shopping Centre, Shop-34A, 1 Lowry St., Ipswich, QLD, 4305",
        "phone": "07 3884 6930",
        "services": "Official City Beach store, Click & Collect",
        "hours": "Mon: 0900-1730; Tues: 0900-1730; Wed: 0900-1730; Thurs: 0900-2100; Fri: 0900-1730; Sat: 0830-1700; Sun: 1000-1600"
      }
    },
    {
      "type": "Feature",
      "geometry": {
        "type": "Point",
        "coordinates": [
          153.1719,
          -27.6598
        ]
      },
      "properties": {
        "name": "Loganholme",
        "id": "003",
        "state": "QLD",
        "city": "Loganholme",
        "postal_code": "4129",
        "full_address": "City Beach, Logan Hyperdome Shopping Centre, Shop-36, Cnr Pacific Hwy and Bryants Rd., Loganholme, QLD, 4129",
        "phone": "07 3451 6310",
        "services": "Official City Beach store, Click & Collect",
        "hours": "Mon: 0900-1730; Tues: 0900-1730; Wed: 0900-1730; Thurs: 0900-2100; Fri: 0900-1730; Sat: 0830-1700; Sun: 1000-1600"
      }
    },
    {
      "type": "Feature",
      "geometry": {
        "type": "Point",
        "coordinates": [
          149.1757,
          -21.1381
        ]
      },
      "properties": {
        "name": "Canelands",
        "id": "071",
        "state": "QLD",
        "city": "Mackay",
        "postal_code": "4740",
        "full_address": "City Beach, Caneland Central, Shop-61, Cnr Victoria St and Mangrove Rd., Mackay, QLD, 4740",
        "phone": "07 4967 2290",
        "services": "Official City Beach store, Click & Collect",
        "hours": "Mon: 0900-1730; Tues: 0900-1730; Wed: 0900-1730; Thurs: 0900-2100; Fri: 0900-1730; Sat: 0830-1600; Sun: 1000-1600"
      }
    },
    {
      "type": "Feature",
      "geometry": {
        "type": "Point",
        "coordinates": [
          153.0884,
          -26.6538
        ]
      },
      "properties": {
        "name": "Maroochydore",
        "id": "051",
        "state": "QLD",
        "city": "Maroochydore",
        "postal_code": "4558",
        "full_address": "City Beach, Sunshine Plaza Shopping Center, Shop-377, 154-164 Horton Pde., Maroochydore, QLD, 4558",
        "phone": "07 5453 1940",
        "services": "Official City Beach store, Click & Collect",
        "hours": "Mon: 0900-1730; Tues: 0900-1730; Wed: 0900-1730; Thurs: 0900-2100; Fri: 0900-1730; Sat: 0830-1730; Sun: 1000-1600"
      }
    },
    {
      "type": "Feature",
      "geometry": {
        "type": "Point",
        "coordinates": [
          152.9795,
          -27.4097
        ]
      },
      "properties": {
        "name": "Brookside",
        "id": "008",
        "state": "QLD",
        "city": "Mitchelton",
        "postal_code": "4053",
        "full_address": "City Beach, Brookside Shopping Centre, Shop-6, 159 Osborne Rd., Mitchelton, QLD, 4053",
        "phone": "07 3855 7830",
        "services": "Official City Beach store, Click & Collect",
        "hours": "Mon: 0900-1730; Tues: 0900-1730; Wed: 0900-1730; Thurs: 0900-2100; Fri: 0900-1730; Sat: 0830-1630; Sun: 1000-1600"
      }
    },
    {
      "type": "Feature",
      "geometry": {
        "type": "Point",
        "coordinates": [
          152.9508,
          -27.1021
        ]
      },
      "properties": {
        "name": "Morayfield",
        "id": "024",
        "state": "QLD",
        "city": "Morayfield",
        "postal_code": "4506",
        "full_address": "City Beach, Morayfield Shopping Centre, Shop-63, 171 Morayfield Rd., Morayfield, QLD, 4506",
        "phone": "07 5420 1050",
        "services": "Official City Beach store, Click & Collect",
        "hours": "Mon: 0900-1730; Tues: 0900-1730; Wed: 0900-1730; Thurs: 0900-2100; Fri: 0900-1730; Sat: 0830-1700; Sun: 1000-1600"
      }
    },
    {
      "type": "Feature",
      "geometry": {
        "type": "Point",
        "coordinates": [
          153.0814,
          -27.5612
        ]
      },
      "properties": {
        "name": "Mt Gravatt",
        "id": "001",
        "state": "QLD",
        "city": "Mt Gravatt",
        "postal_code": "4122",
        "full_address": "City Beach, Westfield Mt Gravatt Shopping Centre, Shop-1009/1010, Cnr Logan Rd and Kessels Rd., Mt Gravatt, QLD, 4122",
        "phone": "07 3405 8840",
        "services": "Official City Beach store, Click & Collect",
        "hours": "Mon: 0900-1730; Tues: 0900-1730; Wed: 0900-1730; Thurs: 0900-2100; Fri: 0900-1730; Sat: 0900-1700; Sun: 1000-1700"
      }
    },
    {
      "type": "Feature",
      "geometry": {
        "type": "Point",
        "coordinates": [
          153.0488,
          -26.4168
        ]
      },
      "properties": {
        "name": "Noosa",
        "id": "044",
        "state": "QLD",
        "city": "Noosaville",
        "postal_code": "4556",
        "full_address": "City Beach, Noosa Civic Shopping Centre, Shop-1005, 28 Eenie Creek Rd., Noosaville, QLD, 4556",
        "phone": "07 5470 3030",
        "services": "Official City Beach store, Click & Collect",
        "hours": "Mon: 0900-1730; Tues: 0900-1730; Wed: 0900-1730; Thurs: 0900-2000; Fri: 0900-1730; Sat: 0830-1700; Sun: 1000-1600"
      }
    },
    {
      "type": "Feature",
      "geometry": {
        "type": "Point",
        "coordinates": [
          153.0159,
          -27.242
        ]
      },
      "properties": {
        "name": "North Lakes",
        "id": "082",
        "state": "QLD",
        "city": "North Lakes",
        "postal_code": "4509",
        "full_address": "City Beach, Westfield North Lakes Shopping Centre, Shop-1077, Cnr Anzac Ave and North Lakes Dr., North Lakes, QLD, 4509",
        "phone": "07 3491 8329",
        "services": "Official City Beach store, Click & Collect",
        "hours": "Mon: 0900-1730; Tues: 0900-1730; Wed: 0900-1730; Thurs: 0900-2100; Fri: 0900-1730; Sat: 0830-1700; Sun: 1000-1600"
      }
    },
    {
      "type": "Feature",
      "geometry": {
        "type": "Point",
        "coordinates": [
          150.5202,
          -23.3538
        ]
      },
      "properties": {
        "name": "Rockhampton",
        "id": "081",
        "state": "QLD",
        "city": "Park Avenue",
        "postal_code": "4701",
        "full_address": "City Beach, Stockland Rockhampton Shopping Centre, Shop-E09, 331 Yaamba Rd., Park Avenue, QLD, 4701",
        "phone": "07 4924 3000",
        "services": "Official City Beach store, Click & Collect",
        "hours": "Mon: 0900-1730; Tues: 0900-1730; Wed: 0900-1730; Thurs: 0900-2130; Fri: 0900-1730; Sat: 0830-1600; Sun: 1000-1600"
      }
    },
    {
      "type": "Feature",
      "geometry": {
        "type": "Point",
        "coordinates": [
          153.3854,
          -28.0782
        ]
      },
      "properties": {
        "name": "Robina",
        "id": "016",
        "state": "QLD",
        "city": "Robina",
        "postal_code": "4230",
        "full_address": "City Beach, Robina Town Centre, Shop-4124/4125, 19 Robina Town Centre Dr., Robina, QLD, 4230",
        "phone": "07 5583 4350",
        "services": "Official City Beach store, Click & Collect",
        "hours": "Mon: 0900-1730; Tues: 0900-1730; Wed: 0900-1730; Thurs: 0900-2100; Fri: 0900-1730; Sat: 0830-1730; Sun: 1000-1600"
      }
    },
    {
      "type": "Feature",
      "geometry": {
        "type": "Point",
        "coordinates": [
          152.9022,
          -27.6774
        ]
      },
      "properties": {
        "name": "Springfield",
        "id": "054",
        "state": "QLD",
        "city": "Springfield Central",
        "postal_code": "4300",
        "full_address": "City Beach, Orion Springfield Town Centre, Shop-43, 1 Main St., Springfield Central, QLD, 4300",
        "phone": "07 3381 6000",
        "services": "Official City Beach store, Click & Collect",
        "hours": "Mon: 0900-1730; Tues: 0900-1730; Wed: 0900-1730; Thurs: 0900-2100; Fri: 0900-2100; Sat: 0830-2100; Sun: 0900-1700"
      }
    },
    {
      "type": "Feature",
      "geometry": {
        "type": "Point",
        "coordinates": [
          153.4299,
          -28.0018
        ]
      },
      "properties": {
        "name": "Surfers Paradise",
        "id": "014",
        "state": "QLD",
        "city": "Surfers Paradise",
        "postal_code": "4217",
        "full_address": "City Beach, Soul Boardwalk, 13 Cavill Ave., Surfers Paradise, QLD, 4217",
        "phone": "07 5583 9710",
        "services": "Official City Beach store, Click & Collect",
        "hours": "Mon: 0900-2100; Tues: 0900-2100; Wed: 0900-2100; Thurs: 0900-2100; Fri: 0900-2200; Sat: 0900-2200; Sun: 0900-2200"
      }
    },
    {
      "type": "Feature",
      "geometry": {
        "type": "Point",
        "coordinates": [
          146.725865,
          -19.315614
        ]
      },
      "properties": {
        "name": "Willows",
        "id": "100",
        "state": "QLD",
        "city": "Thuringowa",
        "postal_code": "4817",
        "full_address": "City Beach, Willows Shopping Center, Shop-186, 13 Hervey Range Rd., Thuringowa, QLD, 4817",
        "phone": "(07) 4760 7290",
        "services": "Official City Beach store, Click & Collect",
        "hours": "Mon: 0900-1730; Tues: 0900-1730; Wed: 0900-1730; Thurs: 0900-2100; Fri: 0900-1730; Sat: 0800-1630; Sun: 0800-1600"
      }
    },
    {
      "type": "Feature",
      "geometry": {
        "type": "Point",
        "coordinates": [
          151.9486,
          -27.5612
        ]
      },
      "properties": {
        "name": "Toowoomba",
        "id": "026",
        "state": "QLD",
        "city": "Toowoomba",
        "postal_code": "4350",
        "full_address": "City Beach, Grand Central Shopping Centre, Shop-56, Cnr Dent St and Margaret St., Toowoomba, QLD, 4350",
        "phone": "07 4699 4516",
        "services": "Official City Beach store, Click & Collect",
        "hours": "Mon: 0900-1730; Tues: 0900-1730; Wed: 0900-1730; Thurs: 0900-2100; Fri: 0900-1730; Sat: 0830-1700; Sun: 1000-1600"
      }
    },
    {
      "type": "Feature",
      "geometry": {
        "type": "Point",
        "coordinates": [
          146.7632,
          -19.2992
        ]
      },
      "properties": {
        "name": "Townsville",
        "id": "012",
        "state": "QLD",
        "city": "Townsville",
        "postal_code": "4814",
        "full_address": "City Beach, Stockland Townsville Shopping Centre, Shop-144, 310 Ross River Rd., Townsville, QLD, 4814",
        "phone": "07 4762 7520",
        "services": "Official City Beach store, Click & Collect",
        "hours": "Mon: 0900-1730; Tues: 0900-1730; Wed: 0900-1730; Thurs: 0900-2100; Fri: 0900-1730; Sat: 0900-1630; Sun: 1000-1600"
      }
    },
    {
      "type": "Feature",
      "geometry": {
        "type": "Point",
        "coordinates": [
          144.889664,
          -37.773765
        ]
      },
      "properties": {
        "name": "Highpoint",
        "id": "084",
        "state": "VIC",
        "city": "Maribyrnong",
        "postal_code": "3032",
        "full_address": "City Beach, Highpoint Shopping Centre, Shop-2125/2126, Level 2, 120-200 Rosamond Rd., Maribyrnong, VIC, 3032",
        "phone": "03 9454 9759",
        "services": "Official City Beach store, Click & Collect",
        "hours": "Mon: 0900-1800; Tues: 0900-1800; Wed: 0900-1800; Thurs: 0900-2100; Fri: 0900-2100; Sat: 0830-1900; Sun: 1000-1800"
      }
    },
    {
      "type": "Feature",
      "geometry": {
        "type": "Point",
        "coordinates": [
          115.8331,
          -32.0336
        ]
      },
      "properties": {
        "name": "Booragoon",
        "id": "080",
        "state": "WA",
        "city": "Booragoon",
        "postal_code": "6154",
        "full_address": "City Beach, Garden City Booragoon, Shop-114, 125 Riseley St., Booragoon, WA, 6154",
        "phone": "08 9231 6450",
        "services": "Official City Beach store, Click & Collect",
        "hours": "Mon: 0900-1730; Tues: 0900-1730; Wed: 0900-1730; Thurs: 0900-2100; Fri: 0900-1730; Sat: 0900-1700; Sun: 1100-1700"
      }
    },
    {
      "type": "Feature",
      "geometry": {
        "type": "Point",
        "coordinates": [
          115.638,
          -33.326
        ]
      },
      "properties": {
        "name": "Bunbury",
        "id": "070",
        "state": "WA",
        "city": "Bunbury",
        "postal_code": "6230",
        "full_address": "City Beach, Bunbury Point Shopping Centre, Shop-7, 60 Blair St., Bunbury, WA, 6230",
        "phone": "08 9729 7170",
        "services": "Official City Beach store, Click & Collect",
        "hours": "Mon: 1000-1600; Tues: 0900-1730; Wed: 0900-1730; Thurs: 0900-1730; Fri: 0900-1730; Sat: 0900-1700; Sun: 1000-1600"
      }
    },
    {
      "type": "Feature",
      "geometry": {
        "type": "Point",
        "coordinates": [
          115.9391,
          -32.0211
        ]
      },
      "properties": {
        "name": "Carousel",
        "id": "055",
        "state": "WA",
        "city": "Cannington",
        "postal_code": "6107",
        "full_address": "City Beach, Westfield Carousel Shopping Center, Shop-MM109, 1382 Albany Hwy., Cannington, WA, 6107",
        "phone": "08 6154 9904",
        "services": "Official City Beach store, Click & Collect",
        "hours": "Mon: 0900-1730; Tues: 0900-1730; Wed: 0900-1730; Thurs: 0900-2100; Fri: 0900-2100; Sat: 0900-1700; Sun: 1100-1700"
      }
    },
    {
      "type": "Feature",
      "geometry": {
        "type": "Point",
        "coordinates": [
          115.747171,
          -31.797071
        ]
      },
      "properties": {
        "name": "Whitford",
        "id": "079",
        "state": "WA",
        "city": "Hillarys",
        "postal_code": "6025",
        "full_address": "City Beach, Westfield Whitford Shopping Centre, Shop-183/184, Cnr Marmion Ave & Whitfords Ave, Hillarys, WA, 6025",
        "phone": "08 9401 1950",
        "services": "Official City Beach store, Click & Collect",
        "hours": "Mon: 0900-1730; Tues: 0900-1730; Wed: 0900-1730; Thurs: 0900-2100; Fri: 0900-1730; Sat: 0900-1700; Sun: 1100-1700"
      }
    },
    {
      "type": "Feature",
      "geometry": {
        "type": "Point",
        "coordinates": [
          115.7652,
          -31.7435
        ]
      },
      "properties": {
        "name": "Joondalup",
        "id": "076",
        "state": "WA",
        "city": "Joondalup",
        "postal_code": "6027",
        "full_address": "City Beach, Lakeside Joondalup Shopping City, Shop-T114, 420 Joondalup Dr., Joondalup, WA, 6027",
        "phone": "08 9233 1650",
        "services": "Official City Beach store, Click & Collect",
        "hours": "Mon: 0900-1730; Tues: 0900-1730; Wed: 0900-1730; Thurs: 0900-2100; Fri: 0900-1730; Sat: 0900-1700; Sun: 1100-1700"
      }
    },
    {
      "type": "Feature",
      "geometry": {
        "type": "Point",
        "coordinates": [
          115.7789,
          -31.8769
        ]
      },
      "properties": {
        "name": "Karrinyup",
        "id": "078",
        "state": "WA",
        "city": "Karrinyup",
        "postal_code": "6018",
        "full_address": "City Beach, Karrinyup Shopping Center, Shop-MJO208, Ground Floor, 200 Karrinyup Rd., Karrinyup, WA, 6018",
        "phone": "08 6241 7300",
        "services": "Official City Beach store, Click & Collect",
        "hours": "Mon: 0900-1730; Tues: 0900-1730; Wed: 0900-1730; Thurs: 0900-2100; Fri: 0900-1730; Sat: 0900-1700; Sun: 1100-1700"
      }
    },
    {
      "type": "Feature",
      "geometry": {
        "type": "Point",
        "coordinates": [
          115.7406,
          -32.5361
        ]
      },
      "properties": {
        "name": "Mandurah",
        "id": "068",
        "state": "WA",
        "city": "Mandurah",
        "postal_code": "6210",
        "full_address": "City Beach Mandurah Forum, Shop-MM3 330 Pinjarra Rd., Mandurah, WA, 6210",
        "phone": "08 9555 9478",
        "services": "Official City Beach store, Click & Collect",
        "hours": "Mon: 0900-1730; Tues: 0900-1730; Wed: 0900-1730; Thurs: 0900-2100; Fri: 0900-1730; Sat: 0900-1700; Sun: 1000-1700"
      }
    },
    {
      "type": "Feature",
      "geometry": {
        "type": "Point",
        "coordinates": [
          116.0066,
          -31.8892
        ]
      },
      "properties": {
        "name": "Midland Gate",
        "id": "077",
        "state": "WA",
        "city": "Midland",
        "postal_code": "6056",
        "full_address": "City Beach, Midland Gate Shopping Centre, Shop-73, 247 Great Eastern Highway., Midland, WA, 6056",
        "phone": "08 9232 5100",
        "services": "Official City Beach store, Click & Collect",
        "hours": "Mon: 0900-1730; Tues: 0900-1730; Wed: 0900-1730; Thurs: 0900-2100; Fri: 0900-1730; Sat: 0900-1700; Sun: 1100-1700"
      }
    },
    {
      "type": "Feature",
      "geometry": {
        "type": "Point",
        "coordinates": [
          115.7178,
          -31.6911
        ]
      },
      "properties": {
        "name": "Ocean Keys",
        "id": "049",
        "state": "WA",
        "city": "Ocean Keys",
        "postal_code": "6030",
        "full_address": "City Beach, Ocean Keys Shopping Centre, Shop-141, 36 Ocean Keys Bvd., Ocean Keys, WA, 6030",
        "phone": "08 6202 0039",
        "services": "Official City Beach store, Click & Collect",
        "hours": "Mon: 0900-1730; Tues: 0900-1730; Wed: 0900-1730; Thurs: 0900-2100; Fri: 0900-1730; Sat: 0900-1700; Sun: 1100-1700"
      }
    },
    {
      "type": "Feature",
      "geometry": {
        "type": "Point",
        "coordinates": [
          115.8591,
          -31.9531
        ]
      },
      "properties": {
        "name": "Murray Street",
        "id": "034",
        "state": "WA",
        "city": "Perth",
        "postal_code": "6000",
        "full_address": "City Beach, Murray Street, 227 Murray St., Perth, WA, 6000",
        "phone": "08 9229 6380",
        "services": "Official City Beach store, Click & Collect",
        "hours": "Mon: 0900-1730; Tues: 0900-1730; Wed: 0900-1730; Thurs: 0900-1730; Fri: 0900-2100; Sat: 0900-1700; Sun: 1100-1700"
      }
    },
    {
      "type": "Feature",
      "geometry": {
        "type": "Point",
        "coordinates": [
          115.7444,
          -32.2889
        ]
      },
      "properties": {
        "name": "Rockingham",
        "id": "075",
        "state": "WA",
        "city": "Rockingham",
        "postal_code": "6168",
        "full_address": "City Beach, Rockingham Shopping Centre, Shop-173, 1 Council Ave., Rockingham, WA, 6168",
        "phone": "08 9527 7420",
        "services": "Official City Beach store, Click & Collect",
        "hours": "Mon: 0900-1730; Tues: 0900-1730; Wed: 0900-1730; Thurs: 0900-2100; Fri: 0900-1730; Sat: 0900-1700; Sun: 1100-1700"
      }
    },
    {
      "type": "Feature",
      "geometry": {
        "type": "Point",
        "coordinates": [
          115.8585,
          -32.128
        ]
      },
      "properties": {
        "name": "Cockburn",
        "id": "050",
        "state": "WA",
        "city": "Success",
        "postal_code": "6164",
        "full_address": "City Beach, Cockburn Gateway Shopping City, Shop-MM5, 816 Beeliar Dr., Success, WA, 6164",
        "phone": "08 6192 3003",
        "services": "Official City Beach store, Click & Collect",
        "hours": "Mon: 0900-1730; Tues: 0900-1730; Wed: 0900-1730; Thurs: 0900-2100; Fri: 0900-1730; Sat: 0900-1700; Sun: 1100-1700"
      }
    }
  ]
}