{
  "type": "FeatureCollection",
  "metadata": {
    "retailer": "Oscar Wylee",
    "countries": [
      "Australia"
    ],
    "source_url": "https://www.oscarwylee.com.au/locations/",
    "fetched_at": "2026-09-01T07:43:15+00:00",
    "store_count": 122
  },
  "features": [
    {
      "type": "Feature",
      "geometry": {
        "type": "Point",
        "coordinates": [
          149.06541696888,
          -35.238241715655
        ]
      },
      "properties": {
        "name": "Westfield Belconnen",
        "id": "124",
        "country": "Australia",
        "state": "ACT",
        "city": "Belconnen",
        "postal_code": "2617",
        "full_address": "Shop 9, Westfield Belconnen, Benjamin Way, Belconnen ACT 2617",
        "phone": "(02) 6193 2872",
        "official_url": "https://www.oscarwylee.com.au/locations/locations/optometrist-belconnen.html",
        "services": "Comprehensive eye tests, Prescription glasses, Sunglasses",
        "audiology": "false",
        "status": "Active"
      }
    },
    {
      "type": "Feature",
      "geometry": {
        "type": "Point",
        "coordinates": [
          149.1317605,
          -35.2799353
        ]
      },
      "properties": {
        "name": "Canberra Centre",
        "id": "12",
        "country": "Australia",
        "state": "ACT",
        "city": "Canberra",
        "postal_code": "2601",
        "full_address": "Canberra Centre Shop CG33, Ground Level 148 Bunda Street Canberra ACT 2601",
        "phone": "(02) 6101 6623",
        "official_url": "https://www.oscarwylee.com.au/locations/locations/optometrist-canberra-centre.html",
        "services": "Comprehensive eye tests, Prescription glasses, Sunglasses",
        "audiology": "false",
        "status": "Active"
      }
    },
    {
      "type": "Feature",
      "geometry": {
        "type": "Point",
        "coordinates": [
          149.068419,
          -35.416167
        ]
      },
      "properties": {
        "name": "South Point Tuggeranong",
        "id": "73",
        "country": "Australia",
        "state": "ACT",
        "city": "Greenway",
        "postal_code": "2900",
        "full_address": "South Point Tuggeranong, Anketell St. &, Reed St N, Greenway ACT 2900",
        "phone": "02 6193 9431",
        "official_url": "https://www.oscarwylee.com.au/locations/locations/optometrist-tuggeranong.html",
        "services": "Comprehensive eye tests, Prescription glasses, Sunglasses",
        "audiology": "false",
        "status": "Active"
      }
    },
    {
      "type": "Feature",
      "geometry": {
        "type": "Point",
        "coordinates": [
          149.08559973123,
          -35.345359868025
        ]
      },
      "properties": {
        "name": "Westfield Woden",
        "id": "135",
        "country": "Australia",
        "state": "ACT",
        "city": "Phillip",
        "postal_code": "2606",
        "full_address": "Shop GD53 Westfield Woden, Keltie St, Phillip ACT 2606",
        "phone": "(02) 5136 5218",
        "official_url": "https://www.oscarwylee.com.au/locations/locations/optometrist-woden.html",
        "services": "Comprehensive eye tests, Prescription glasses, Sunglasses",
        "audiology": "false",
        "status": "Active"
      }
    },
    {
      "type": "Feature",
      "geometry": {
        "type": "Point",
        "coordinates": [
          146.91637548095,
          -36.080534652675
        ]
      },
      "properties": {
        "name": "Albury",
        "id": "80",
        "country": "Australia",
        "state": "NSW",
        "city": "Albury",
        "postal_code": "2640",
        "full_address": "549 Dean St, Albury NSW 2640",
        "phone": "(02) 6066 9903",
        "official_url": "https://www.oscarwylee.com.au/locations/locations/optometrist-albury.html",
        "services": "Comprehensive eye tests, Prescription glasses, Sunglasses",
        "audiology": "false",
        "status": "Active"
      }
    },
    {
      "type": "Feature",
      "geometry": {
        "type": "Point",
        "coordinates": [
          151.039121,
          -33.914672152252
        ]
      },
      "properties": {
        "name": "Bankstown Central",
        "id": "145",
        "country": "Australia",
        "state": "NSW",
        "city": "Bankstown",
        "postal_code": "2200",
        "full_address": "Bankstown Central, Shop 188 North Terrace, Bankstown NSW 2200",
        "phone": "(02) 7208 7796",
        "official_url": "https://www.oscarwylee.com.au/locations/locations/optometrist-bankstown.html",
        "services": "Comprehensive eye tests, Prescription glasses, Sunglasses",
        "audiology": "false",
        "status": "Active"
      }
    },
    {
      "type": "Feature",
      "geometry": {
        "type": "Point",
        "coordinates": [
          150.9041113,
          -33.7709955
        ]
      },
      "properties": {
        "name": "Westpoint Blacktown",
        "id": "34",
        "country": "Australia",
        "state": "NSW",
        "city": "Blacktown",
        "postal_code": "2148",
        "full_address": "Shop 3054, Westpoint Shopping Centre, 17 Patrick St, Blacktown NSW 2148",
        "phone": "(02) 8809 5869",
        "official_url": "https://www.oscarwylee.com.au/locations/locations/optometrist-blacktown.html",
        "services": "Comprehensive eye tests, Prescription glasses, Sunglasses",
        "audiology": "false",
        "status": "Active"
      }
    },
    {
      "type": "Feature",
      "geometry": {
        "type": "Point",
        "coordinates": [
          151.2625944,
          -33.7679142
        ]
      },
      "properties": {
        "name": "Westfield Warringah Mall",
        "id": "7",
        "country": "Australia",
        "state": "NSW",
        "city": "Brookvale",
        "postal_code": "2100",
        "full_address": "Shop 1075A, Warringah Westfield, Condamine St & Old Pittwater Rd, Brookvale NSW 2100, Australia",
        "phone": "02 8057 5758",
        "official_url": "https://www.oscarwylee.com.au/locations/locations/optometrist-warringah-mall.html",
        "services": "Comprehensive eye tests, Prescription glasses, Sunglasses",
        "audiology": "false",
        "status": "Active"
      }
    },
    {
      "type": "Feature",
      "geometry": {
        "type": "Point",
        "coordinates": [
          151.105829,
          -33.874271
        ]
      },
      "properties": {
        "name": "Westfield Burwood",
        "id": "65",
        "country": "Australia",
        "state": "NSW",
        "city": "Burwood",
        "postal_code": "2134",
        "full_address": "Shop 118 Westfield Burwood 100 Burwood Road Burwood, NSW, 2134",
        "phone": "(02) 8540 4496",
        "official_url": "https://www.oscarwylee.com.au/locations/locations/optometrist-burwood.html",
        "services": "Comprehensive eye tests, Prescription glasses, Sunglasses",
        "audiology": "false",
        "status": "Active"
      }
    },
    {
      "type": "Feature",
      "geometry": {
        "type": "Point",
        "coordinates": [
          150.7959893,
          -34.0756645
        ]
      },
      "properties": {
        "name": "Macarthur Square",
        "id": "46",
        "country": "Australia",
        "state": "NSW",
        "city": "Campbelltown",
        "postal_code": "2560",
        "full_address": "Shop L02 L068, Macarthur Square 200 Gilchrist Dr Campbelltown NSW 2560, Australia",
        "phone": "(02) 4610 1887",
        "official_url": "https://www.oscarwylee.com.au/locations/locations/optometrist-macarthur-square.html",
        "services": "Comprehensive eye tests, Prescription glasses, Sunglasses",
        "audiology": "false",
        "status": "Active"
      }
    },
    {
      "type": "Feature",
      "geometry": {
        "type": "Point",
        "coordinates": [
          151.0043348,
          -33.7304168
        ]
      },
      "properties": {
        "name": "Castle Towers",
        "id": "25",
        "country": "Australia",
        "state": "NSW",
        "city": "Castle Hill",
        "postal_code": "2154",
        "full_address": "Level 2, Shop 325 Castle Towers Shopping Centre 6-14 Castle St Castle Hill, NSW, 2154",
        "phone": "02 8810 6981",
        "official_url": "https://www.oscarwylee.com.au/locations/locations/optometrist-castle-towers.html",
        "services": "Comprehensive eye tests, Prescription glasses, Sunglasses",
        "audiology": "false",
        "status": "Active"
      }
    },
    {
      "type": "Feature",
      "geometry": {
        "type": "Point",
        "coordinates": [
          151.69383787671,
          -32.963245043737
        ]
      },
      "properties": {
        "name": "Charlestown Square",
        "id": "75",
        "country": "Australia",
        "state": "NSW",
        "city": "Charlestown",
        "postal_code": "2290",
        "full_address": "Charlestown Square Shop G8008/30 Pearson St Charlestown NSW 2290",
        "phone": "02 4049 6371",
        "official_url": "https://www.oscarwylee.com.au/locations/locations/optometrist-charlestown.html",
        "services": "Comprehensive eye tests, Prescription glasses, Sunglasses",
        "audiology": "false",
        "status": "Active"
      }
    },
    {
      "type": "Feature",
      "geometry": {
        "type": "Point",
        "coordinates": [
          151.59133554233,
          -32.762615069392
        ]
      },
      "properties": {
        "name": "Green Hills",
        "id": "87",
        "country": "Australia",
        "state": "NSW",
        "city": "East Maitland",
        "postal_code": "2323",
        "full_address": "Stockland Green Hills Shopping Centre, 1 Molly Morgan Dr, East Maitland NSW 2323",
        "phone": "(02) 4905 2105",
        "official_url": "https://www.oscarwylee.com.au/locations/locations/optometrist-green-hills.html",
        "services": "Comprehensive eye tests, Prescription glasses, Sunglasses",
        "audiology": "false",
        "status": "Active"
      }
    },
    {
      "type": "Feature",
      "geometry": {
        "type": "Point",
        "coordinates": [
          151.2215238,
          -33.9452835
        ]
      },
      "properties": {
        "name": "Westfield Eastgardens",
        "id": "40",
        "country": "Australia",
        "state": "NSW",
        "city": "Eastgardens",
        "postal_code": "2036",
        "full_address": "Shop 263, Westfield Eastgardens 152 Bunnerong Rd, Eastgardens NSW 2036",
        "phone": "(02) 8386 9746",
        "official_url": "https://www.oscarwylee.com.au/locations/locations/optometrist-eastgardens.html",
        "services": "Comprehensive eye tests, Prescription glasses, Sunglasses",
        "audiology": "false",
        "status": "Active"
      }
    },
    {
      "type": "Feature",
      "geometry": {
        "type": "Point",
        "coordinates": [
          151.392085,
          -33.438016
        ]
      },
      "properties": {
        "name": "Erina Fair",
        "id": "16",
        "country": "Australia",
        "state": "NSW",
        "city": "Erina",
        "postal_code": "2250",
        "full_address": "Shop T314, Erina Fair, Terrigal Drive, Erina NSW 2250",
        "phone": "(02) 4300 8428",
        "official_url": "https://www.oscarwylee.com.au/locations/locations/optometrist-erina-fair.html",
        "services": "Comprehensive eye tests, Prescription glasses, Sunglasses",
        "audiology": "false",
        "status": "Active"
      }
    },
    {
      "type": "Feature",
      "geometry": {
        "type": "Point",
        "coordinates": [
          151.0988137,
          -33.7038591
        ]
      },
      "properties": {
        "name": "Westfield Hornsby",
        "id": "42",
        "country": "Australia",
        "state": "NSW",
        "city": "Hornsby",
        "postal_code": "2077",
        "full_address": "Shop 1069, Westfield Hornsby 236 Pacific Hwy, Hornsby NSW 2077",
        "phone": "(02) 8924 3944",
        "official_url": "https://www.oscarwylee.com.au/locations/locations/optometrist-hornsby.html",
        "services": "Comprehensive eye tests, Prescription glasses, Sunglasses",
        "audiology": "false",
        "status": "Active"
      }
    },
    {
      "type": "Feature",
      "geometry": {
        "type": "Point",
        "coordinates": [
          151.10604009727,
          -33.96590894373
        ]
      },
      "properties": {
        "name": "Westfield Hurstville",
        "id": "144",
        "country": "Australia",
        "state": "NSW",
        "city": "Hurstville",
        "postal_code": "2220",
        "full_address": "Westfield Hurstville Shop 412, 3 Cross Street Hurstville NSW 2220",
        "phone": "(02) 7208 8430",
        "official_url": "https://www.oscarwylee.com.au/locations/locations/optometrist-hurstville.html",
        "services": "Comprehensive eye tests, Prescription glasses, Sunglasses",
        "audiology": "false",
        "status": "Active"
      }
    },
    {
      "type": "Feature",
      "geometry": {
        "type": "Point",
        "coordinates": [
          151.15912604418,
          -33.729647889432
        ]
      },
      "properties": {
        "name": "St Ives",
        "id": "142",
        "country": "Australia",
        "state": "NSW",
        "city": "Ives",
        "postal_code": "2075",
        "full_address": "Shop 42, St Ives Shopping Centre, 166 Mona Vale Road, St Ives NSW 2075",
        "phone": "(02) 8959 7224",
        "official_url": "https://www.oscarwylee.com.au/locations/locations/optometrist-st-ives.html",
        "services": "Comprehensive eye tests, Prescription glasses, Sunglasses",
        "audiology": "false",
        "status": "Active"
      }
    },
    {
      "type": "Feature",
      "geometry": {
        "type": "Point",
        "coordinates": [
          150.9213375,
          -33.9193486
        ]
      },
      "properties": {
        "name": "Westfield Liverpool",
        "id": "41",
        "country": "Australia",
        "state": "NSW",
        "city": "Liverpool",
        "postal_code": "2170",
        "full_address": "Shop 2049, L2 25 George St, Liverpool NSW 2170",
        "phone": "(02) 8750 1524",
        "official_url": "https://www.oscarwylee.com.au/locations/locations/optometrist-liverpool.html",
        "services": "Comprehensive eye tests, Prescription glasses, Sunglasses",
        "audiology": "false",
        "status": "Active"
      }
    },
    {
      "type": "Feature",
      "geometry": {
        "type": "Point",
        "coordinates": [
          150.9876861233,
          -33.833470170755
        ]
      },
      "properties": {
        "name": "Stockland Merrylands",
        "id": "128",
        "country": "Australia",
        "state": "NSW",
        "city": "Merrylands",
        "postal_code": "2160",
        "full_address": "Stockland Merrylands, Shop 1083, 1 Pitt Street, Merrylands NSW 2160",
        "phone": "(02) 8073 2326",
        "official_url": "https://www.oscarwylee.com.au/locations/locations/optometrist-merrylands.html",
        "services": "Comprehensive eye tests, Prescription glasses, Sunglasses",
        "audiology": "false",
        "status": "Active"
      }
    },
    {
      "type": "Feature",
      "geometry": {
        "type": "Point",
        "coordinates": [
          151.101073,
          -34.034778
        ]
      },
      "properties": {
        "name": "Westfield Miranda",
        "id": "17",
        "country": "Australia",
        "state": "NSW",
        "city": "Miranda",
        "postal_code": "2228",
        "full_address": "Shop 2168, Westfield Miranda, 600 Kingsway, Miranda NSW 2228",
        "phone": "(02) 9538 2515",
        "official_url": "https://www.oscarwylee.com.au/locations/locations/optometrist-miranda.html",
        "services": "Comprehensive eye tests, Prescription glasses, Sunglasses",
        "audiology": "false",
        "status": "Active"
      }
    },
    {
      "type": "Feature",
      "geometry": {
        "type": "Point",
        "coordinates": [
          150.8197591,
          -33.765978231642
        ]
      },
      "properties": {
        "name": "Mt Druitt Westfield",
        "id": "90",
        "country": "Australia",
        "state": "NSW",
        "city": "Mt Druitt",
        "postal_code": "2770",
        "full_address": "Shop 149/50, Westfield Mt Druitt Cnr Carlisle Avenue & Luxford Road, Mt Druitt NSW 2770",
        "phone": "02 8809 5041",
        "official_url": "https://www.oscarwylee.com.au/locations/locations/optometrist-mt-druitt.html",
        "services": "Comprehensive eye tests, Prescription glasses, Sunglasses",
        "audiology": "false",
        "status": "Active"
      }
    },
    {
      "type": "Feature",
      "geometry": {
        "type": "Point",
        "coordinates": [
          150.73656422654,
          -34.040328273135
        ]
      },
      "properties": {
        "name": "Narellan Town Centre",
        "id": "84",
        "country": "Australia",
        "state": "NSW",
        "city": "Narellan",
        "postal_code": "2567",
        "full_address": "Shop 67 Narellan Town Centre, 326 Camden Valley Way, Narellan NSW 2567",
        "phone": "(02) 4610 1367",
        "official_url": "https://www.oscarwylee.com.au/locations/locations/optometrist-narellan.html",
        "services": "Comprehensive eye tests, Prescription glasses, Sunglasses",
        "audiology": "false",
        "status": "Active"
      }
    },
    {
      "type": "Feature",
      "geometry": {
        "type": "Point",
        "coordinates": [
          151.1771151,
          -33.8804298
        ]
      },
      "properties": {
        "name": "Newtown",
        "id": "47",
        "country": "Australia",
        "state": "NSW",
        "city": "Newtown",
        "postal_code": "2042",
        "full_address": "229 King Street Newtown NSW 2042",
        "phone": "(02) 8057 9583",
        "official_url": "https://www.oscarwylee.com.au/locations/locations/optometrist-newtown.html",
        "services": "Comprehensive eye tests, Prescription glasses, Sunglasses",
        "audiology": "false",
        "status": "Active"
      }
    },
    {
      "type": "Feature",
      "geometry": {
        "type": "Point",
        "coordinates": [
          151.12004509937,
          -33.77544342751
        ]
      },
      "properties": {
        "name": "Macquarie Centre",
        "id": "74",
        "country": "Australia",
        "state": "NSW",
        "city": "North Ryde",
        "postal_code": "2113",
        "full_address": "Macquarie Centre, Cnr Herring Rd &, Waterloo Rd, North Ryde NSW 2113",
        "phone": "(02) 8593 1033",
        "official_url": "https://www.oscarwylee.com.au/locations/locations/optometrist-macquarie-centre.html",
        "services": "Comprehensive eye tests, Prescription glasses, Sunglasses",
        "audiology": "false",
        "status": "Active"
      }
    },
    {
      "type": "Feature",
      "geometry": {
        "type": "Point",
        "coordinates": [
          149.10023344001,
          -33.282637593502
        ]
      },
      "properties": {
        "name": "Orange",
        "id": "99",
        "country": "Australia",
        "state": "NSW",
        "city": "Orange",
        "postal_code": "2800",
        "full_address": "Shop 35, Orange Central Square, 227-239 Summer St Orange NSW 2800",
        "phone": "(02) 6318 8061",
        "official_url": "https://www.oscarwylee.com.au/locations/locations/optometrist-orange.html",
        "services": "Comprehensive eye tests, Prescription glasses, Sunglasses",
        "audiology": "false",
        "status": "Active"
      }
    },
    {
      "type": "Feature",
      "geometry": {
        "type": "Point",
        "coordinates": [
          151.712596,
          -32.942741
        ]
      },
      "properties": {
        "name": "Westfield Kotara",
        "id": "70",
        "country": "Australia",
        "state": "NSW",
        "city": "Park Avenue KOTARA",
        "postal_code": "2289",
        "full_address": "Shop 2040 Westfield Kotara 75-89 Park Avenue KOTARA NSW 2289 Australia",
        "phone": "02 4041 2828",
        "official_url": "https://www.oscarwylee.com.au/locations/locations/optometrist-kotara.html",
        "services": "Comprehensive eye tests, Prescription glasses, Sunglasses",
        "audiology": "false",
        "status": "Active"
      }
    },
    {
      "type": "Feature",
      "geometry": {
        "type": "Point",
        "coordinates": [
          151.0021163,
          -33.8175815
        ]
      },
      "properties": {
        "name": "Westfield Parramatta",
        "id": "8",
        "country": "Australia",
        "state": "NSW",
        "city": "Parramatta Westfield Parramatta",
        "postal_code": "2150",
        "full_address": "Shop 3027A, Parramatta Westfield Parramatta NSW 2150, Australia",
        "phone": "(02) 8626 2340",
        "official_url": "https://www.oscarwylee.com.au/locations/locations/optometrist-parramatta.html",
        "services": "Comprehensive eye tests, Prescription glasses, Sunglasses",
        "audiology": "false",
        "status": "Active"
      }
    },
    {
      "type": "Feature",
      "geometry": {
        "type": "Point",
        "coordinates": [
          150.6911773,
          -33.7512561
        ]
      },
      "properties": {
        "name": "Westfield Penrith",
        "id": "43",
        "country": "Australia",
        "state": "NSW",
        "city": "Penrith",
        "postal_code": "2750",
        "full_address": "Shop 048, Westfield Penrith 585 High St, Penrith NSW 2750",
        "phone": "(02) 4708 2987",
        "official_url": "https://www.oscarwylee.com.au/locations/locations/optometrist-penrith.html",
        "services": "Comprehensive eye tests, Prescription glasses, Sunglasses",
        "audiology": "false",
        "status": "Active"
      }
    },
    {
      "type": "Feature",
      "geometry": {
        "type": "Point",
        "coordinates": [
          150.898872,
          -33.858797
        ]
      },
      "properties": {
        "name": "Stockland Wetherill Park",
        "id": "48",
        "country": "Australia",
        "state": "NSW",
        "city": "Prairiewood",
        "postal_code": "2176",
        "full_address": "Shop 96, Stockland Wetherill Park 561-583 Polding St Prairiewood NSW 2176",
        "phone": "(02) 8740 9025",
        "official_url": "https://www.oscarwylee.com.au/locations/locations/optometrist-wetherill-park.html",
        "services": "Comprehensive eye tests, Prescription glasses, Sunglasses",
        "audiology": "false",
        "status": "Active"
      }
    },
    {
      "type": "Feature",
      "geometry": {
        "type": "Point",
        "coordinates": [
          151.0848272847,
          -33.835371937773
        ]
      },
      "properties": {
        "name": "Rhodes",
        "id": "139",
        "country": "Australia",
        "state": "NSW",
        "city": "Rhodes",
        "postal_code": "2138",
        "full_address": "Rhodes Waterside, Shop 19, 1 Rider Boulevard, Rhodes NSW 2138",
        "phone": "(02) 8541 6931",
        "official_url": "https://www.oscarwylee.com.au/locations/locations/optometrist-rhodes.html",
        "services": "Comprehensive eye tests, Prescription glasses, Sunglasses",
        "audiology": "false",
        "status": "Active"
      }
    },
    {
      "type": "Feature",
      "geometry": {
        "type": "Point",
        "coordinates": [
          150.92690957671,
          -33.690026979584
        ]
      },
      "properties": {
        "name": "Rouse Hill Town Centre",
        "id": "127",
        "country": "Australia",
        "state": "NSW",
        "city": "Rouse Hill",
        "postal_code": "2155",
        "full_address": "Rouse Hill Town Centre, Shop A-GR 015, White Hart Dr, Rouse Hill NSW 2155",
        "phone": "(02) 8631 3900",
        "official_url": "https://www.oscarwylee.com.au/locations/locations/optometrist-rouse-hill.html",
        "services": "Comprehensive eye tests, Prescription glasses, Sunglasses",
        "audiology": "false",
        "status": "Active"
      }
    },
    {
      "type": "Feature",
      "geometry": {
        "type": "Point",
        "coordinates": [
          151.1060215,
          -33.812182
        ]
      },
      "properties": {
        "name": "Top Ryde City",
        "id": "52",
        "country": "Australia",
        "state": "NSW",
        "city": "Ryde",
        "postal_code": "2112",
        "full_address": "Shop 2023 Top Ryde City Shopping Centre 109-129 Blaxland Road Ryde NSW 2112",
        "phone": "(02) 8590 1822",
        "official_url": "https://www.oscarwylee.com.au/locations/locations/optometrist-top-ryde.html",
        "services": "Comprehensive eye tests, Prescription glasses, Sunglasses",
        "audiology": "false",
        "status": "Active"
      }
    },
    {
      "type": "Feature",
      "geometry": {
        "type": "Point",
        "coordinates": [
          150.8373272,
          -34.5639493
        ]
      },
      "properties": {
        "name": "Stockland Shellharbour",
        "id": "37",
        "country": "Australia",
        "state": "NSW",
        "city": "Shellharbour City Centre",
        "postal_code": "2529",
        "full_address": "Shop 1054, Stockland Shellharbour 211 Lake Entrance Rd, Shellharbour City Centre NSW 2529",
        "phone": "(02) 4296 8987",
        "official_url": "https://www.oscarwylee.com.au/locations/locations/optometrist-shellharbour.html",
        "services": "Comprehensive eye tests, Prescription glasses, Sunglasses",
        "audiology": "false",
        "status": "Active"
      }
    },
    {
      "type": "Feature",
      "geometry": {
        "type": "Point",
        "coordinates": [
          151.2057439,
          -33.8726141
        ]
      },
      "properties": {
        "name": "The Galeries, Pitt St",
        "id": "3",
        "country": "Australia",
        "state": "NSW",
        "city": "Sydney",
        "postal_code": "2000",
        "full_address": "Shop RG28 The Galeries, 275 Pitt St, Sydney NSW 2000, Australia",
        "phone": "(02) 8960 1250",
        "official_url": "https://www.oscarwylee.com.au/locations/locations/optometrist-sydney-galeries.html",
        "services": "Comprehensive eye tests, Prescription glasses, Sunglasses",
        "audiology": "false",
        "status": "Active"
      }
    },
    {
      "type": "Feature",
      "geometry": {
        "type": "Point",
        "coordinates": [
          151.411653,
          -33.307496
        ]
      },
      "properties": {
        "name": "Westfield Tuggerah",
        "id": "59",
        "country": "Australia",
        "state": "NSW",
        "city": "Tuggerah",
        "postal_code": "2259",
        "full_address": "Shop 1044 Westfield Tuggerah 50 Wyong Road Tuggerah NSW 2259",
        "phone": "(02) 4303 8502",
        "official_url": "https://www.oscarwylee.com.au/locations/locations/optometrist-tuggerah.html",
        "services": "Comprehensive eye tests, Prescription glasses, Sunglasses",
        "audiology": "false",
        "status": "Active"
      }
    },
    {
      "type": "Feature",
      "geometry": {
        "type": "Point",
        "coordinates": [
          153.5456346,
          -28.199999184454
        ]
      },
      "properties": {
        "name": "Tweed City",
        "id": "97",
        "country": "Australia",
        "state": "NSW",
        "city": "Tweed Heads South",
        "postal_code": "2486",
        "full_address": "Shop 047, Tweed City Shopping Centre, 54 Minjungbal Drive, Tweed Heads South NSW 2486",
        "phone": "(07) 5645 7565",
        "official_url": "https://www.oscarwylee.com.au/locations/locations/optometrist-tweed-city.html",
        "services": "Comprehensive eye tests, Prescription glasses, Sunglasses",
        "audiology": "false",
        "status": "Active"
      }
    },
    {
      "type": "Feature",
      "geometry": {
        "type": "Point",
        "coordinates": [
          151.19387859946,
          -33.882331768178
        ]
      },
      "properties": {
        "name": "Broadway Shopping Centre",
        "id": "79",
        "country": "Australia",
        "state": "NSW",
        "city": "Ultimo",
        "postal_code": "2000",
        "full_address": "G15 Broadway Shopping Centre, 1 Bay Street, Ultimo NSW 2000",
        "phone": "02 8385 5600",
        "official_url": "https://www.oscarwylee.com.au/locations/locations/optometrist-broadway.html",
        "services": "Comprehensive eye tests, Prescription glasses, Sunglasses",
        "audiology": "false",
        "status": "Active"
      }
    },
    {
      "type": "Feature",
      "geometry": {
        "type": "Point",
        "coordinates": [
          151.1835214,
          -33.7943684
        ]
      },
      "properties": {
        "name": "Chatswood Chase",
        "id": "24",
        "country": "Australia",
        "state": "NSW",
        "city": "VIC Ave Chatswood",
        "postal_code": "2067",
        "full_address": "Shop B014 Chatswood Chase Shopping Centre 345 Victoria Ave Chatswood, NSW, 2067",
        "phone": "(02) 8033 1831",
        "official_url": "https://www.oscarwylee.com.au/locations/locations/optometrist-chatswood-chase.html",
        "services": "Comprehensive eye tests, Prescription glasses, Sunglasses",
        "audiology": "false",
        "status": "Active"
      }
    },
    {
      "type": "Feature",
      "geometry": {
        "type": "Point",
        "coordinates": [
          147.37022211534,
          -35.114473413504
        ]
      },
      "properties": {
        "name": "Wagga Wagga",
        "id": "100",
        "country": "Australia",
        "state": "NSW",
        "city": "Wagga Wagga",
        "postal_code": "2650",
        "full_address": "Shop 49, Wagga Wagga Marketplace, 87 Baylis Street, Wagga Wagga NSW 2650",
        "phone": "(02) 6900 2314",
        "official_url": "https://www.oscarwylee.com.au/locations/locations/optometrist-wagga-wagga.html",
        "services": "Comprehensive eye tests, Prescription glasses, Sunglasses",
        "audiology": "false",
        "status": "Active"
      }
    },
    {
      "type": "Feature",
      "geometry": {
        "type": "Point",
        "coordinates": [
          150.9697412198,
          -33.772493276982
        ]
      },
      "properties": {
        "name": "Winston Hills",
        "id": "85",
        "country": "Australia",
        "state": "NSW",
        "city": "Winston Hills",
        "postal_code": "2153",
        "full_address": "Shop T21 Winston Hills Mall, 180/190 Caroline Chisholm Dr, Winston Hills NSW 2153",
        "phone": "(02) 8604 8837",
        "official_url": "https://www.oscarwylee.com.au/locations/locations/optometrist-winston-hills.html",
        "services": "Comprehensive eye tests, Prescription glasses, Sunglasses",
        "audiology": "false",
        "status": "Active"
      }
    },
    {
      "type": "Feature",
      "geometry": {
        "type": "Point",
        "coordinates": [
          150.89418706931,
          -34.423444301425
        ]
      },
      "properties": {
        "name": "Wollongong Central",
        "id": "133",
        "country": "Australia",
        "state": "NSW",
        "city": "Wollongong",
        "postal_code": "2500",
        "full_address": "Wollongong Central Shop W129, 200 Crown Street Wollongong NSW 2500",
        "phone": "(02) 7208 8415",
        "official_url": "https://www.oscarwylee.com.au/locations/locations/optometrist-wollongong-central.html",
        "services": "Comprehensive eye tests, Prescription glasses, Sunglasses",
        "audiology": "false",
        "status": "Active"
      }
    },
    {
      "type": "Feature",
      "geometry": {
        "type": "Point",
        "coordinates": [
          130.88095408466,
          -12.372933344429
        ]
      },
      "properties": {
        "name": "Casuarina Square",
        "id": "115",
        "country": "Australia",
        "state": "NT",
        "city": "Casuarina",
        "postal_code": "0810",
        "full_address": "Shop GD 220, Casuarina Square, 247 Tower Rd Casuarina NT 0810",
        "phone": "(08) 8900 5704",
        "official_url": "https://www.oscarwylee.com.au/locations/locations/optometrist-casuarina.html",
        "services": "Comprehensive eye tests, Prescription glasses, Sunglasses",
        "audiology": "false",
        "status": "Active"
      }
    },
    {
      "type": "Feature",
      "geometry": {
        "type": "Point",
        "coordinates": [
          146.76302105321,
          -19.298945434652
        ]
      },
      "properties": {
        "name": "Townsville",
        "id": "83",
        "country": "Australia",
        "state": "QLD",
        "city": "Aitkenvale",
        "postal_code": "4814",
        "full_address": "Shop 247 Ground Lvl, Stockland Townsville, 310-330 Ross River Rd, Aitkenvale QLD 4814",
        "phone": "(07) 4700 0229",
        "official_url": "https://www.oscarwylee.com.au/locations/locations/optometrist-townsville.html",
        "services": "Comprehensive eye tests, Prescription glasses, Sunglasses",
        "audiology": "false",
        "status": "Active"
      }
    },
    {
      "type": "Feature",
      "geometry": {
        "type": "Point",
        "coordinates": [
          153.025231,
          -27.469362
        ]
      },
      "properties": {
        "name": "Albert St",
        "id": "54",
        "country": "Australia",
        "state": "QLD",
        "city": "Brisbane City",
        "postal_code": "4000",
        "full_address": "136 Queen Street, Brisbane City, QLD 4000",
        "phone": "(07) 3076 2860",
        "official_url": "https://www.oscarwylee.com.au/locations/locations/optometrist-albert-st.html",
        "services": "Comprehensive eye tests, Prescription glasses, Sunglasses",
        "audiology": "false",
        "status": "Active"
      }
    },
    {
      "type": "Feature",
      "geometry": {
        "type": "Point",
        "coordinates": [
          153.42636,
          -28.035821
        ]
      },
      "properties": {
        "name": "Pacific Fair",
        "id": "58",
        "country": "Australia",
        "state": "QLD",
        "city": "Broadbeach",
        "postal_code": "4218",
        "full_address": "Shop 1566, Pacific Fair Shopping Centre Hooker Blvd, Broadbeach QLD 4218",
        "phone": "07 5570 1101",
        "official_url": "https://www.oscarwylee.com.au/locations/locations/optometrist-pacific-fair.html",
        "services": "Comprehensive eye tests, Prescription glasses, Sunglasses",
        "audiology": "false",
        "status": "Active"
      }
    },
    {
      "type": "Feature",
      "geometry": {
        "type": "Point",
        "coordinates": [
          153.13086903863,
          -26.702050014464
        ]
      },
      "properties": {
        "name": "Kawana Shoppingworld",
        "id": "143",
        "country": "Australia",
        "state": "QLD",
        "city": "Buddina",
        "postal_code": "4575",
        "full_address": "Shop 321A, Kawana Shoppingworld 119 Point Cartwright Dr Buddina QLD 4575",
        "phone": "(07) 5378 2155",
        "official_url": "https://www.oscarwylee.com.au/locations/locations/optometrist-kawana.html",
        "services": "Comprehensive eye tests, Prescription glasses, Sunglasses",
        "audiology": "false",
        "status": "Active"
      }
    },
    {
      "type": "Feature",
      "geometry": {
        "type": "Point",
        "coordinates": [
          145.77167379734,
          -16.924862209443
        ]
      },
      "properties": {
        "name": "Cairns Central",
        "id": "129",
        "country": "Australia",
        "state": "QLD",
        "city": "Cairns City",
        "postal_code": "4870",
        "full_address": "Shop L01 106, Cairns Central, 1-21 McLeod Street, Cairns City QLD 4870",
        "phone": "(07) 4000 8202",
        "official_url": "https://www.oscarwylee.com.au/locations/locations/optometrist-cairns.html",
        "services": "Comprehensive eye tests, Prescription glasses, Sunglasses",
        "audiology": "false",
        "status": "Active"
      }
    },
    {
      "type": "Feature",
      "geometry": {
        "type": "Point",
        "coordinates": [
          153.1000673,
          -27.5026393
        ]
      },
      "properties": {
        "name": "Westfield Carindale",
        "id": "18",
        "country": "Australia",
        "state": "QLD",
        "city": "Carindale",
        "postal_code": "4152",
        "full_address": "Shop 1223, Westfield Carindale, 1151 Creek Rd, Carindale QLD 4152",
        "phone": "07 3194 7686",
        "official_url": "https://www.oscarwylee.com.au/locations/locations/optometrist-carindale.html",
        "services": "Comprehensive eye tests, Prescription glasses, Sunglasses",
        "audiology": "false",
        "status": "Active"
      }
    },
    {
      "type": "Feature",
      "geometry": {
        "type": "Point",
        "coordinates": [
          153.0305963,
          -27.3843522
        ]
      },
      "properties": {
        "name": "Westfield Chermside",
        "id": "21",
        "country": "Australia",
        "state": "QLD",
        "city": "Chermside",
        "postal_code": "4032",
        "full_address": "Shop 182 Westfield Chermside Gympie Rd & Hamilton Rd, Chermside, QLD, 4032",
        "phone": "(07) 3195 5516",
        "official_url": "https://www.oscarwylee.com.au/locations/locations/optometrist-chermside.html",
        "services": "Comprehensive eye tests, Prescription glasses, Sunglasses",
        "audiology": "false",
        "status": "Active"
      }
    },
    {
      "type": "Feature",
      "geometry": {
        "type": "Point",
        "coordinates": [
          153.31465298643,
          -27.852661981305
        ]
      },
      "properties": {
        "name": "Westfield Coomera",
        "id": "154",
        "country": "Australia",
        "state": "QLD",
        "city": "Coomera",
        "postal_code": "4209",
        "full_address": "Westfield Coomera 1095A, 103-119 Foxwell Rd Coomera QLD 4209",
        "phone": "(07) 2111 2606",
        "official_url": "https://www.oscarwylee.com.au/locations/locations/optometrist-coomera.html",
        "services": "Comprehensive eye tests, Prescription glasses, Sunglasses",
        "audiology": "false",
        "status": "Active"
      }
    },
    {
      "type": "Feature",
      "geometry": {
        "type": "Point",
        "coordinates": [
          153.46874867116,
          -28.134910308445
        ]
      },
      "properties": {
        "name": "The Pines Elanora",
        "id": "151",
        "country": "Australia",
        "state": "QLD",
        "city": "Elanora",
        "postal_code": "4221",
        "full_address": "Shop 13, The Pines Elanora 13/31 Guineas Creek Road and, K P McGrath Dr Elanora QLD 4221",
        "phone": "(07) 2139 8076",
        "official_url": "https://www.oscarwylee.com.au/locations/locations/optometrist-elanora.html",
        "services": "Comprehensive eye tests, Prescription glasses, Sunglasses",
        "audiology": "false",
        "status": "Active"
      }
    },
    {
      "type": "Feature",
      "geometry": {
        "type": "Point",
        "coordinates": [
          153.3344777,
          -27.9259777
        ]
      },
      "properties": {
        "name": "Westfield Helensvale",
        "id": "44",
        "country": "Australia",
        "state": "QLD",
        "city": "Helensvale",
        "postal_code": "4212",
        "full_address": "Shop 1078, Westfield Helensvale, 1-29 Millaroo Drive Helensvale QLD 4212",
        "phone": "(07) 5664 2217",
        "official_url": "https://www.oscarwylee.com.au/locations/locations/optometrist-helensvale.html",
        "services": "Comprehensive eye tests, Prescription glasses, Sunglasses",
        "audiology": "false",
        "status": "Active"
      }
    },
    {
      "type": "Feature",
      "geometry": {
        "type": "Point",
        "coordinates": [
          152.9706425,
          -27.5005661
        ]
      },
      "properties": {
        "name": "Indooroopilly Centre",
        "id": "36",
        "country": "Australia",
        "state": "QLD",
        "city": "Indooroopilly",
        "postal_code": "4068",
        "full_address": "Indooroopilly Centre Level 1 Shop 1013/322 Moggill Rd Indooroopilly QLD 4068",
        "phone": "(07) 3195 0561",
        "official_url": "https://www.oscarwylee.com.au/locations/locations/optometrist-indooroopilly.html",
        "services": "Comprehensive eye tests, Prescription glasses, Sunglasses",
        "audiology": "false",
        "status": "Active"
      }
    },
    {
      "type": "Feature",
      "geometry": {
        "type": "Point",
        "coordinates": [
          153.1692705,
          -27.6576446
        ]
      },
      "properties": {
        "name": "Hyperdome Loganholme",
        "id": "27",
        "country": "Australia",
        "state": "QLD",
        "city": "Loganholme",
        "postal_code": "4129",
        "full_address": "Shop 088B Hyperdome Shopping Centre, 201 Bryants Road, Loganholme, QLD 4129",
        "phone": "(07) 3059 0701",
        "official_url": "https://www.oscarwylee.com.au/locations/locations/optometrist-loganholme.html",
        "services": "Comprehensive eye tests, Prescription glasses, Sunglasses",
        "audiology": "false",
        "status": "Active"
      }
    },
    {
      "type": "Feature",
      "geometry": {
        "type": "Point",
        "coordinates": [
          149.17752863947,
          -21.138207919874
        ]
      },
      "properties": {
        "name": "Caneland Central Mackay",
        "id": "105",
        "country": "Australia",
        "state": "QLD",
        "city": "Mackay",
        "postal_code": "4740",
        "full_address": "Shop GD 2062, Caneland Centre, Mackay Mangrove Rd, Mackay QLD 4740",
        "phone": "0748460223",
        "official_url": "https://www.oscarwylee.com.au/locations/locations/optometrist-mackay.html",
        "services": "Comprehensive eye tests, Prescription glasses, Sunglasses",
        "audiology": "false",
        "status": "Active"
      }
    },
    {
      "type": "Feature",
      "geometry": {
        "type": "Point",
        "coordinates": [
          153.087605,
          -26.655114
        ]
      },
      "properties": {
        "name": "Sunshine Plaza",
        "id": "51",
        "country": "Australia",
        "state": "QLD",
        "city": "Maroochydore",
        "postal_code": "4558",
        "full_address": "Shop GD 504, Sunshine Plaza 154-164 Horton Parade Maroochydore, QLD 4558",
        "phone": "(07) 5373 6830",
        "official_url": "https://www.oscarwylee.com.au/locations/locations/optometrist-sunshine-plaza.html",
        "services": "Comprehensive eye tests, Prescription glasses, Sunglasses",
        "audiology": "false",
        "status": "Active"
      }
    },
    {
      "type": "Feature",
      "geometry": {
        "type": "Point",
        "coordinates": [
          152.98003654233,
          -27.408548398836
        ]
      },
      "properties": {
        "name": "Brookside Shopping Centre",
        "id": "152",
        "country": "Australia",
        "state": "QLD",
        "city": "Mitchelton",
        "postal_code": "4053",
        "full_address": "Brookside Shopping Centre 110 B-C, 159 Osborne Rd Mitchelton, QLD 4053",
        "phone": "(07) 2103 4031",
        "official_url": "https://www.oscarwylee.com.au/locations/locations/optometrist-brookside.html",
        "services": "Comprehensive eye tests, Prescription glasses, Sunglasses",
        "audiology": "false",
        "status": "Active"
      }
    },
    {
      "type": "Feature",
      "geometry": {
        "type": "Point",
        "coordinates": [
          152.9472689,
          -27.1035603
        ]
      },
      "properties": {
        "name": "Morayfield Shopping Centre",
        "id": "49",
        "country": "Australia",
        "state": "QLD",
        "city": "Morayfield",
        "postal_code": "4506",
        "full_address": "Shop 10, Morayfield Shopping Centre 171 Morayfield Rd Morayfield QLD 4506",
        "phone": "(07) 5348 0227",
        "official_url": "https://www.oscarwylee.com.au/locations/locations/optometrist-morayfield.html",
        "services": "Comprehensive eye tests, Prescription glasses, Sunglasses",
        "audiology": "false",
        "status": "Active"
      }
    },
    {
      "type": "Feature",
      "geometry": {
        "type": "Point",
        "coordinates": [
          152.93811186095,
          -27.549175748856
        ]
      },
      "properties": {
        "name": "Mt Ommaney",
        "id": "153",
        "country": "Australia",
        "state": "QLD",
        "city": "Mount Ommaney",
        "postal_code": "4074",
        "full_address": "Mount Ommaney SP 103, Lot 3 171 Dandenong Road Mount Ommaney QLD 4074",
        "phone": "(07) 2111 2605",
        "official_url": "https://www.oscarwylee.com.au/locations/locations/optometrist-mt-ommaney.html",
        "services": "Comprehensive eye tests, Prescription glasses, Sunglasses",
        "audiology": "false",
        "status": "Active"
      }
    },
    {
      "type": "Feature",
      "geometry": {
        "type": "Point",
        "coordinates": [
          153.19051866878,
          -27.523841348864
        ]
      },
      "properties": {
        "name": "Capalaba Park",
        "id": "131",
        "country": "Australia",
        "state": "QLD",
        "city": "Mt Cotton Roads Capalaba",
        "postal_code": "4157",
        "full_address": "Shop No 45 Capalaba Park Shopping Centre Corner Redland Bay & Mt Cotton Roads Capalaba QLD 4157",
        "phone": "(07) 3705 4132",
        "official_url": "https://www.oscarwylee.com.au/locations/locations/optometrist-capalaba.html",
        "services": "Comprehensive eye tests, Prescription glasses, Sunglasses",
        "audiology": "false",
        "status": "Active"
      }
    },
    {
      "type": "Feature",
      "geometry": {
        "type": "Point",
        "coordinates": [
          153.04876,
          -26.416592
        ]
      },
      "properties": {
        "name": "Noosa Civic",
        "id": "78",
        "country": "Australia",
        "state": "QLD",
        "city": "Noosaville",
        "postal_code": "4566",
        "full_address": "Noosa Civic Shopping Centre TP 1050X-01C 28 Eenie Creek Rd Noosaville QLD 4566",
        "phone": "(07) 5372 9502",
        "official_url": "https://www.oscarwylee.com.au/locations/locations/optometrist-noosa.html",
        "services": "Comprehensive eye tests, Prescription glasses, Sunglasses",
        "audiology": "false",
        "status": "Active"
      }
    },
    {
      "type": "Feature",
      "geometry": {
        "type": "Point",
        "coordinates": [
          153.0145338,
          -27.2415659
        ]
      },
      "properties": {
        "name": "Westfield North Lakes",
        "id": "19",
        "country": "Australia",
        "state": "QLD",
        "city": "North Lakes",
        "postal_code": "4509",
        "full_address": "Shop 1276 Westfield North Lakes Anzac Ave & N Lakes Dr North Lakes QLD 4509",
        "phone": "07 3886 0666",
        "official_url": "https://www.oscarwylee.com.au/locations/locations/optometrist-north-lakes.html",
        "services": "Comprehensive eye tests, Prescription glasses, Sunglasses",
        "audiology": "false",
        "status": "Active"
      }
    },
    {
      "type": "Feature",
      "geometry": {
        "type": "Point",
        "coordinates": [
          150.52136656007,
          -23.354517164064
        ]
      },
      "properties": {
        "name": "Rockhampton",
        "id": "91",
        "country": "Australia",
        "state": "QLD",
        "city": "Park Avenue",
        "postal_code": "4701",
        "full_address": "Shop 246 Stockland Rockhampton Shopping Centre, 120-331 Yaamba Rd, Park Avenue QLD 4701",
        "phone": "(07) 4900 1720",
        "official_url": "https://www.oscarwylee.com.au/locations/locations/optometrist-rockhampton.html",
        "services": "Comprehensive eye tests, Prescription glasses, Sunglasses",
        "audiology": "false",
        "status": "Active"
      }
    },
    {
      "type": "Feature",
      "geometry": {
        "type": "Point",
        "coordinates": [
          153.3856080074,
          -28.076398241427
        ]
      },
      "properties": {
        "name": "Robina",
        "id": "81",
        "country": "Australia",
        "state": "QLD",
        "city": "Robina",
        "postal_code": "4226",
        "full_address": "Shop 4053, Robina Town Centre Dr, Robina QLD 4226",
        "phone": "(07) 3519 6124",
        "official_url": "https://www.oscarwylee.com.au/locations/locations/optometrist-robina.html",
        "services": "Comprehensive eye tests, Prescription glasses, Sunglasses",
        "audiology": "false",
        "status": "Active"
      }
    },
    {
      "type": "Feature",
      "geometry": {
        "type": "Point",
        "coordinates": [
          153.41555254233,
          -27.968465057496
        ]
      },
      "properties": {
        "name": "Australia Fair",
        "id": "94",
        "country": "Australia",
        "state": "QLD",
        "city": "Southport",
        "postal_code": "4215",
        "full_address": "Tenancy G077, Australia Fair Shopping Centre, 42 Marine Parade, Southport QLD 4215",
        "phone": "(07) 5661 1102",
        "official_url": "https://www.oscarwylee.com.au/locations/locations/optometrist-southport.html",
        "services": "Comprehensive eye tests, Prescription glasses, Sunglasses",
        "audiology": "false",
        "status": "Active"
      }
    },
    {
      "type": "Feature",
      "geometry": {
        "type": "Point",
        "coordinates": [
          152.90222645767,
          -27.676932972701
        ]
      },
      "properties": {
        "name": "Orion Springfield",
        "id": "93",
        "country": "Australia",
        "state": "QLD",
        "city": "Springfield Central",
        "postal_code": "4300",
        "full_address": "Ground Floor, Shop 66, 1 Main St, Springfield Central QLD 4300",
        "phone": "(07) 3418 3224",
        "official_url": "https://www.oscarwylee.com.au/locations/locations/optometrist-springfield.html",
        "services": "Comprehensive eye tests, Prescription glasses, Sunglasses",
        "audiology": "false",
        "status": "Active"
      }
    },
    {
      "type": "Feature",
      "geometry": {
        "type": "Point",
        "coordinates": [
          152.9890096,
          -27.3072648
        ]
      },
      "properties": {
        "name": "Strathpine Centre",
        "id": "35",
        "country": "Australia",
        "state": "QLD",
        "city": "Strathpine",
        "postal_code": "4500",
        "full_address": "Shop 89, Strathpine Centre, 295 Gympie Rd, Strathpine QLD 4500",
        "phone": "(07) 3419 4556",
        "official_url": "https://www.oscarwylee.com.au/locations/locations/optometrist-strathpine.html",
        "services": "Comprehensive eye tests, Prescription glasses, Sunglasses",
        "audiology": "false",
        "status": "Active"
      }
    },
    {
      "type": "Feature",
      "geometry": {
        "type": "Point",
        "coordinates": [
          151.949737,
          -27.561157
        ]
      },
      "properties": {
        "name": "Grand Central Toowoomba",
        "id": "63",
        "country": "Australia",
        "state": "QLD",
        "city": "Toowoomba City",
        "postal_code": "4350",
        "full_address": "Shop 088, Grand Central Shopping Centre Margaret St Toowoomba City QLD 4350",
        "phone": "07 4638 0036",
        "official_url": "https://www.oscarwylee.com.au/locations/locations/optometrist-toowoomba.html",
        "services": "Comprehensive eye tests, Prescription glasses, Sunglasses",
        "audiology": "false",
        "status": "Active"
      }
    },
    {
      "type": "Feature",
      "geometry": {
        "type": "Point",
        "coordinates": [
          153.0812571,
          -27.563978
        ]
      },
      "properties": {
        "name": "Westfield Mt Gravatt",
        "id": "9",
        "country": "Australia",
        "state": "QLD",
        "city": "Upper Mount Gravatt",
        "postal_code": "4122",
        "full_address": "Shop 2340B, Westfield Mt Gravatt, Upper Mount Gravatt QLD 4122, Australia",
        "phone": "(07) 3191 6185",
        "official_url": "https://www.oscarwylee.com.au/locations/locations/optometrist-mt-gravatt.html",
        "services": "Comprehensive eye tests, Prescription glasses, Sunglasses",
        "audiology": "false",
        "status": "Active"
      }
    },
    {
      "type": "Feature",
      "geometry": {
        "type": "Point",
        "coordinates": [
          138.66879444603,
          -34.717198049
        ]
      },
      "properties": {
        "name": "Elizabeth City Centre",
        "id": "113",
        "country": "Australia",
        "state": "SA",
        "city": "Elizabeth",
        "postal_code": "5112",
        "full_address": "Shop S090, Elizabeth City Centre, 50 Elizabeth Way, Elizabeth SA 5112",
        "phone": "(08) 7373 3549",
        "official_url": "https://www.oscarwylee.com.au/locations/locations/optometrist-elizabeth.html",
        "services": "Comprehensive eye tests, Prescription glasses, Sunglasses",
        "audiology": "false",
        "status": "Active"
      }
    },
    {
      "type": "Feature",
      "geometry": {
        "type": "Point",
        "coordinates": [
          138.6898561,
          -34.8318139
        ]
      },
      "properties": {
        "name": "Westfield Tea Tree Plaza",
        "id": "39",
        "country": "Australia",
        "state": "SA",
        "city": "Modbury",
        "postal_code": "5092",
        "full_address": "Shop 109, Westfield Tea Tree Plaza 976 North East Road, Modbury SA 5092",
        "phone": "(08) 7230 2170",
        "official_url": "https://www.oscarwylee.com.au/locations/locations/optometrist-tea-tree-plaza.html",
        "services": "Comprehensive eye tests, Prescription glasses, Sunglasses",
        "audiology": "false",
        "status": "Active"
      }
    },
    {
      "type": "Feature",
      "geometry": {
        "type": "Point",
        "coordinates": [
          138.49613037073,
          -35.140779258905
        ]
      },
      "properties": {
        "name": "Colonnades",
        "id": "125",
        "country": "Australia",
        "state": "SA",
        "city": "Noarlunga Centre",
        "postal_code": "5168",
        "full_address": "Shop SP154, Colonnades Shopping Centre, Cnr Beach Road and Goldsmith Drive, Noarlunga Centre, SA 5168",
        "phone": "(08) 7481 8658",
        "official_url": "https://www.oscarwylee.com.au/locations/locations/optometrist-colonnades.html",
        "services": "Comprehensive eye tests, Prescription glasses, Sunglasses",
        "audiology": "false",
        "status": "Active"
      }
    },
    {
      "type": "Feature",
      "geometry": {
        "type": "Point",
        "coordinates": [
          138.5422182,
          -35.0159323
        ]
      },
      "properties": {
        "name": "Westfield Marion",
        "id": "38",
        "country": "Australia",
        "state": "SA",
        "city": "Oaklands Park",
        "postal_code": "5046",
        "full_address": "Shop 1015, 297 Diagonal Rd, Oaklands Park, SA 5046",
        "phone": "(08) 8296 3098",
        "official_url": "https://www.oscarwylee.com.au/locations/locations/optometrist-marion.html",
        "services": "Comprehensive eye tests, Prescription glasses, Sunglasses",
        "audiology": "false",
        "status": "Active"
      }
    },
    {
      "type": "Feature",
      "geometry": {
        "type": "Point",
        "coordinates": [
          138.605298,
          -34.922562
        ]
      },
      "properties": {
        "name": "Rundle Mall",
        "id": "69",
        "country": "Australia",
        "state": "SA",
        "city": "Rundle Mall Adelaide",
        "postal_code": "5000",
        "full_address": "156 Rundle Mall Adelaide SA 5000",
        "phone": "(08) 8123 9047",
        "official_url": "https://www.oscarwylee.com.au/locations/locations/optometrist-rundle-mall.html",
        "services": "Comprehensive eye tests, Prescription glasses, Sunglasses",
        "audiology": "false",
        "status": "Active"
      }
    },
    {
      "type": "Feature",
      "geometry": {
        "type": "Point",
        "coordinates": [
          138.49079342447,
          -34.87913514404
        ]
      },
      "properties": {
        "name": "West Lakes",
        "id": "146",
        "country": "Australia",
        "state": "SA",
        "city": "West Lakes",
        "postal_code": "5021",
        "full_address": "Shop 335, Westfield West Lakes, 111 W Lakes Blvd, West Lakes SA 5021",
        "phone": "(08) 6186 2334",
        "official_url": "https://www.oscarwylee.com.au/locations/locations/optometrist-west-lakes.html",
        "services": "Comprehensive eye tests, Prescription glasses, Sunglasses",
        "audiology": "false",
        "status": "Active"
      }
    },
    {
      "type": "Feature",
      "geometry": {
        "type": "Point",
        "coordinates": [
          147.326805,
          -42.882923
        ]
      },
      "properties": {
        "name": "Cat & Fiddle Arcade Hobart",
        "id": "56",
        "country": "Australia",
        "state": "TAS",
        "city": "Hobart",
        "postal_code": "7000",
        "full_address": "T16, Cat & Fiddle Arcade, 51 Murray St, Hobart TAS 7000",
        "phone": "(03) 6200 1281",
        "official_url": "https://www.oscarwylee.com.au/locations/locations/optometrist-hobart.html",
        "services": "Comprehensive eye tests, Prescription glasses, Sunglasses",
        "audiology": "false",
        "status": "Active"
      }
    },
    {
      "type": "Feature",
      "geometry": {
        "type": "Point",
        "coordinates": [
          147.13946731132,
          -41.436586400268
        ]
      },
      "properties": {
        "name": "Launceston",
        "id": "110",
        "country": "Australia",
        "state": "TAS",
        "city": "Launceston",
        "postal_code": "7250",
        "full_address": "Shop 1, 82 Brisbane Street, Launceston, TAS 7250",
        "phone": "(03) 6778 5159",
        "official_url": "https://www.oscarwylee.com.au/locations/locations/optometrist-launceston.html",
        "services": "Comprehensive eye tests, Prescription glasses, Sunglasses",
        "audiology": "false",
        "status": "Active"
      }
    },
    {
      "type": "Feature",
      "geometry": {
        "type": "Point",
        "coordinates": [
          144.883751,
          -37.7140962
        ]
      },
      "properties": {
        "name": "Westfield Airport West",
        "id": "62",
        "country": "Australia",
        "state": "VIC",
        "city": "Airport West",
        "postal_code": "3042",
        "full_address": "Shop 57, Westfield Airport West, 29-35 Louis St Airport West VIC 3042",
        "phone": "03 8597 2303",
        "official_url": "https://www.oscarwylee.com.au/locations/locations/optometrist-airport-west.html",
        "services": "Comprehensive eye tests, Prescription glasses, Sunglasses",
        "audiology": "false",
        "status": "Active"
      }
    },
    {
      "type": "Feature",
      "geometry": {
        "type": "Point",
        "coordinates": [
          144.28001503863,
          -36.765042179254
        ]
      },
      "properties": {
        "name": "Bendigo Marketplace",
        "id": "109",
        "country": "Australia",
        "state": "VIC",
        "city": "Bendigo",
        "postal_code": "3550",
        "full_address": "Shop G008, Bendigo Marketplace, 116-120 Mitchell St, Bendigo VIC 3550",
        "phone": "(03) 5400 2170",
        "official_url": "https://www.oscarwylee.com.au/locations/locations/optometrist-bendigo.html",
        "services": "Comprehensive eye tests, Prescription glasses, Sunglasses",
        "audiology": "false",
        "status": "Active"
      }
    },
    {
      "type": "Feature",
      "geometry": {
        "type": "Point",
        "coordinates": [
          144.91951036442,
          -37.679981965912
        ]
      },
      "properties": {
        "name": "Broadmeadows Central",
        "id": "121",
        "country": "Australia",
        "state": "VIC",
        "city": "Broadmeadows",
        "postal_code": "3047",
        "full_address": "Shop G092, Broadmeadows Central, 1099-1169 Pascoe Vale Road, Broadmeadows VIC 3047",
        "phone": "(03) 9973 9162",
        "official_url": "https://www.oscarwylee.com.au/locations/locations/optometrist-broadmeadows.html",
        "services": "Comprehensive eye tests, Prescription glasses, Sunglasses",
        "audiology": "false",
        "status": "Active"
      }
    },
    {
      "type": "Feature",
      "geometry": {
        "type": "Point",
        "coordinates": [
          145.0792,
          -37.88615
        ]
      },
      "properties": {
        "name": "Chadstone Shopping Centre",
        "id": "14",
        "country": "Australia",
        "state": "VIC",
        "city": "Chadstone",
        "postal_code": "3148",
        "full_address": "Shop B-081, Chadstone Shopping Centre 1341 Dandenong Rd, Chadstone VIC 3148, Australia",
        "phone": "03 9972 6771",
        "official_url": "https://www.oscarwylee.com.au/locations/locations/optometrist-chadstone.html",
        "services": "Comprehensive eye tests, Prescription glasses, Sunglasses",
        "audiology": "false",
        "status": "Active"
      }
    },
    {
      "type": "Feature",
      "geometry": {
        "type": "Point",
        "coordinates": [
          145.05294,
          -37.958646
        ]
      },
      "properties": {
        "name": "Westfield Southland",
        "id": "57",
        "country": "Australia",
        "state": "VIC",
        "city": "Cheltenham",
        "postal_code": "3192",
        "full_address": "Shop 2040 Westfield Southland 1239 Nepean Highway Cheltenham, VIC, 3192",
        "phone": "(03) 8524 4617\ufeff",
        "official_url": "https://www.oscarwylee.com.au/locations/locations/optometrist-southland.html",
        "services": "Comprehensive eye tests, Prescription glasses, Sunglasses",
        "audiology": "false",
        "status": "Active"
      }
    },
    {
      "type": "Feature",
      "geometry": {
        "type": "Point",
        "coordinates": [
          145.3106358,
          -37.757475
        ]
      },
      "properties": {
        "name": "Chirnside Park",
        "id": "29",
        "country": "Australia",
        "state": "VIC",
        "city": "Chirnside Park",
        "postal_code": "3116",
        "full_address": "SHOP 626A, 239-241 Maroondah Hwy, Chirnside Park VIC 3116",
        "phone": "03 9727 5344",
        "official_url": "https://www.oscarwylee.com.au/locations/locations/optometrist-chirnside-park.html",
        "services": "Comprehensive eye tests, Prescription glasses, Sunglasses",
        "audiology": "false",
        "status": "Active"
      }
    },
    {
      "type": "Feature",
      "geometry": {
        "type": "Point",
        "coordinates": [
          144.91104128936,
          -37.592883219639
        ]
      },
      "properties": {
        "name": "Craigieburn Central",
        "id": "138",
        "country": "Australia",
        "state": "VIC",
        "city": "Craigieburn",
        "postal_code": "3064",
        "full_address": "Craigieburn Central, Shop D32, 340 Craigieburn Road, Craigieburn VIC 3064",
        "phone": "(03) 8313 5814",
        "official_url": "https://www.oscarwylee.com.au/locations/locations/optometrist-craigieburn.html",
        "services": "Comprehensive eye tests, Prescription glasses, Sunglasses",
        "audiology": "false",
        "status": "Active"
      }
    },
    {
      "type": "Feature",
      "geometry": {
        "type": "Point",
        "coordinates": [
          145.28226716898,
          -38.108774900378
        ]
      },
      "properties": {
        "name": "Cranbourne Park",
        "id": "86",
        "country": "Australia",
        "state": "VIC",
        "city": "Cranbourne",
        "postal_code": "3977",
        "full_address": "Cranbourne Park Shopping Centre SP107, 125 High St, Cranbourne VIC 3977",
        "phone": "(03) 5992 1712",
        "official_url": "https://www.oscarwylee.com.au/locations/locations/optometrist-cranbourne-park.html",
        "services": "Comprehensive eye tests, Prescription glasses, Sunglasses",
        "audiology": "false",
        "status": "Active"
      }
    },
    {
      "type": "Feature",
      "geometry": {
        "type": "Point",
        "coordinates": [
          145.1239378,
          -37.7845346
        ]
      },
      "properties": {
        "name": "Westfield Doncaster",
        "id": "33",
        "country": "Australia",
        "state": "VIC",
        "city": "Doncaster",
        "postal_code": "3108",
        "full_address": "Shop 1144, Westfield Doncaster 619 Doncaster Rd & Williamsons Rd, Doncaster VIC 3108",
        "phone": "(03) 9973 4267",
        "official_url": "https://www.oscarwylee.com.au/locations/locations/optometrist-doncaster.html",
        "services": "Comprehensive eye tests, Prescription glasses, Sunglasses",
        "audiology": "false",
        "status": "Active"
      }
    },
    {
      "type": "Feature",
      "geometry": {
        "type": "Point",
        "coordinates": [
          145.0150888,
          -37.6538474
        ]
      },
      "properties": {
        "name": "Pacific Epping",
        "id": "32",
        "country": "Australia",
        "state": "VIC",
        "city": "Epping",
        "postal_code": "3076",
        "full_address": "Shop 269, Pacific Epping 571-583 High St, Epping VIC 3076",
        "phone": "(03) 9424 1546",
        "official_url": "https://www.oscarwylee.com.au/locations/locations/optometrist-epping.html",
        "services": "Comprehensive eye tests, Prescription glasses, Sunglasses",
        "audiology": "false",
        "status": "Active"
      }
    },
    {
      "type": "Feature",
      "geometry": {
        "type": "Point",
        "coordinates": [
          145.16446754005,
          -37.835623752898
        ]
      },
      "properties": {
        "name": "Forest Hill Chase",
        "id": "102",
        "country": "Australia",
        "state": "VIC",
        "city": "Forest Hill",
        "postal_code": "3131",
        "full_address": "T110, Forest Hill Chase Shopping Centre, 270 Canterbury Road, Forest Hill VIC 3131",
        "phone": "(03) 8806 3988",
        "official_url": "https://www.oscarwylee.com.au/locations/locations/optometrist-forest-hill.html",
        "services": "Comprehensive eye tests, Prescription glasses, Sunglasses",
        "audiology": "false",
        "status": "Active"
      }
    },
    {
      "type": "Feature",
      "geometry": {
        "type": "Point",
        "coordinates": [
          145.12483174867,
          -38.139786812789
        ]
      },
      "properties": {
        "name": "Frankston Bayside Centre",
        "id": "150",
        "country": "Australia",
        "state": "VIC",
        "city": "Frankston",
        "postal_code": "3199",
        "full_address": "Bayside Centre Shop 190, 28 Beach Street Frankston VIC 3199",
        "phone": "(03) 7042 9005",
        "official_url": "https://www.oscarwylee.com.au/locations/locations/optometrist-frankston.html",
        "services": "Comprehensive eye tests, Prescription glasses, Sunglasses",
        "audiology": "false",
        "status": "Active"
      }
    },
    {
      "type": "Feature",
      "geometry": {
        "type": "Point",
        "coordinates": [
          144.36279,
          -38.146928
        ]
      },
      "properties": {
        "name": "Westfield Geelong",
        "id": "50",
        "country": "Australia",
        "state": "VIC",
        "city": "Geelong",
        "postal_code": "3220",
        "full_address": "Shop 109, Westfield Geelong 95-97 Malop St Geelong VIC 3220 Australia",
        "phone": "(03) 5200 7841",
        "official_url": "https://www.oscarwylee.com.au/locations/locations/optometrist-geelong.html",
        "services": "Comprehensive eye tests, Prescription glasses, Sunglasses",
        "audiology": "false",
        "status": "Active"
      }
    },
    {
      "type": "Feature",
      "geometry": {
        "type": "Point",
        "coordinates": [
          145.1649591,
          -37.875669840346
        ]
      },
      "properties": {
        "name": "The Glen",
        "id": "147",
        "country": "Australia",
        "state": "VIC",
        "city": "Glen Waverley",
        "postal_code": "3150",
        "full_address": "G-030 The Glen 235 Springvale Rd Glen Waverley, VIC 3150",
        "phone": "(03) 7035 3821",
        "official_url": "https://www.oscarwylee.com.au/locations/locations/optometrist-glen-waverley.html",
        "services": "Comprehensive eye tests, Prescription glasses, Sunglasses",
        "audiology": "false",
        "status": "Active"
      }
    },
    {
      "type": "Feature",
      "geometry": {
        "type": "Point",
        "coordinates": [
          145.10288460675,
          -37.702582949445
        ]
      },
      "properties": {
        "name": "Greensborough Plaza",
        "id": "140",
        "country": "Australia",
        "state": "VIC",
        "city": "Greensborough",
        "postal_code": "3088",
        "full_address": "Greensborough Plaza, Shop L02 205, 25 Main St Greensborough VIC 3088",
        "phone": "(03) 9424 5896",
        "official_url": "https://www.oscarwylee.com.au/locations/locations/optometrist-greensborough.html",
        "services": "Comprehensive eye tests, Prescription glasses, Sunglasses",
        "audiology": "false",
        "status": "Active"
      }
    },
    {
      "type": "Feature",
      "geometry": {
        "type": "Point",
        "coordinates": [
          144.8865198,
          -37.7731081
        ]
      },
      "properties": {
        "name": "Highpoint Shopping Centre",
        "id": "11",
        "country": "Australia",
        "state": "VIC",
        "city": "Highpoint Shopping Centre Maribyrnong",
        "postal_code": "3032",
        "full_address": "Shop 3126 Highpoint Shopping Centre Maribyrnong, VIC 3032, Australia",
        "phone": "(03) 9943 9776",
        "official_url": "https://www.oscarwylee.com.au/locations/locations/optometrist-highpoint.html",
        "services": "Comprehensive eye tests, Prescription glasses, Sunglasses",
        "audiology": "false",
        "status": "Active"
      }
    },
    {
      "type": "Feature",
      "geometry": {
        "type": "Point",
        "coordinates": [
          144.9609448,
          -37.811243
        ]
      },
      "properties": {
        "name": "Melbourne Central",
        "id": "6",
        "country": "Australia",
        "state": "VIC",
        "city": "Melbourne",
        "postal_code": "3000",
        "full_address": "Melbourne Central Shopping Centre Ground Level, Shop GD25, 211 La Trobe Street, Melbourne VIC 3000",
        "phone": "(03) 9913 6848",
        "official_url": "https://www.oscarwylee.com.au/locations/locations/optometrist-melbourne-central.html",
        "services": "Comprehensive eye tests, Prescription glasses, Sunglasses",
        "audiology": "false",
        "status": "Active"
      }
    },
    {
      "type": "Feature",
      "geometry": {
        "type": "Point",
        "coordinates": [
          144.56401561313,
          -37.685797609461
        ]
      },
      "properties": {
        "name": "Melton Woodgrove",
        "id": "119",
        "country": "Australia",
        "state": "VIC",
        "city": "Melton",
        "postal_code": "3337",
        "full_address": "Shop T088, Woodgrove Shopping Centre, 533-555 High Street, Melton Victoria 3337",
        "phone": "(03) 8716 6273",
        "official_url": "https://www.oscarwylee.com.au/locations/locations/optometrist-melton.html",
        "services": "Comprehensive eye tests, Prescription glasses, Sunglasses",
        "audiology": "false",
        "status": "Active"
      }
    },
    {
      "type": "Feature",
      "geometry": {
        "type": "Point",
        "coordinates": [
          142.13868016142,
          -34.20692932678
        ]
      },
      "properties": {
        "name": "Mildura Central",
        "id": "126",
        "country": "Australia",
        "state": "VIC",
        "city": "Mildura",
        "postal_code": "3500",
        "full_address": "Shop G039, Mildura Central, Cnr Deakin Ave and 15th Street, Mildura VIC 3500",
        "phone": "(03) 5008 4249",
        "official_url": "https://www.oscarwylee.com.au/locations/locations/optometrist-mildura.html",
        "services": "Comprehensive eye tests, Prescription glasses, Sunglasses",
        "audiology": "false",
        "status": "Active"
      }
    },
    {
      "type": "Feature",
      "geometry": {
        "type": "Point",
        "coordinates": [
          145.07207939782,
          -37.651391748891
        ]
      },
      "properties": {
        "name": "Plenty Valley",
        "id": "107",
        "country": "Australia",
        "state": "VIC",
        "city": "Mill Park",
        "postal_code": "3082",
        "full_address": "Level 1, Shop 36, 415 McDonalds Rd, Mill Park VIC 3082",
        "phone": "(03) 9424 9404",
        "official_url": "https://www.oscarwylee.com.au/locations/locations/optometrist-plenty-valley.html",
        "services": "Comprehensive eye tests, Prescription glasses, Sunglasses",
        "audiology": "false",
        "status": "Active"
      }
    },
    {
      "type": "Feature",
      "geometry": {
        "type": "Point",
        "coordinates": [
          144.921924,
          -37.76473
        ]
      },
      "properties": {
        "name": "Moonee Ponds",
        "id": "64",
        "country": "Australia",
        "state": "VIC",
        "city": "Moonee Ponds",
        "postal_code": "3039",
        "full_address": "Shop 79, Moonee Ponds Central 14-16 Hall Street Moonee Ponds, VIC, 3039",
        "phone": "(03) 8528 6288",
        "official_url": "https://www.oscarwylee.com.au/locations/locations/optometrist-moonee-ponds.html",
        "services": "Comprehensive eye tests, Prescription glasses, Sunglasses",
        "audiology": "false",
        "status": "Active"
      }
    },
    {
      "type": "Feature",
      "geometry": {
        "type": "Point",
        "coordinates": [
          145.03994658424,
          -38.218642396469
        ]
      },
      "properties": {
        "name": "Mornington Central",
        "id": "95",
        "country": "Australia",
        "state": "VIC",
        "city": "Mornington",
        "postal_code": "3931",
        "full_address": "Shop 024, Mornington Central, 78 Barkly Street, Mornington VIC 3931",
        "phone": "(03) 5902 2560",
        "official_url": "https://www.oscarwylee.com.au/locations/locations/optometrist-mornington.html",
        "services": "Comprehensive eye tests, Prescription glasses, Sunglasses",
        "audiology": "false",
        "status": "Active"
      }
    },
    {
      "type": "Feature",
      "geometry": {
        "type": "Point",
        "coordinates": [
          145.3000419,
          -38.0175981
        ]
      },
      "properties": {
        "name": "Westfield Fountain Gate",
        "id": "31",
        "country": "Australia",
        "state": "VIC",
        "city": "Narre Warren",
        "postal_code": "3805",
        "full_address": "Shop 1138, Westfield Fountain Gate 352 Princes Highway, Narre Warren VIC 3805",
        "phone": "03 8751 3773",
        "official_url": "https://www.oscarwylee.com.au/locations/locations/optometrist-fountain-gate.html",
        "services": "Comprehensive eye tests, Prescription glasses, Sunglasses",
        "audiology": "false",
        "status": "Active"
      }
    },
    {
      "type": "Feature",
      "geometry": {
        "type": "Point",
        "coordinates": [
          145.0276889,
          -37.7386508
        ]
      },
      "properties": {
        "name": "Northland Shopping Centre",
        "id": "26",
        "country": "Australia",
        "state": "VIC",
        "city": "Preston",
        "postal_code": "3072",
        "full_address": "Shop E001A Northland Shopping Centre 2-50 Murray Road Preston, VIC, 3072",
        "phone": "(03) 9943 2468",
        "official_url": "https://www.oscarwylee.com.au/locations/locations/optometrist-northland.html",
        "services": "Comprehensive eye tests, Prescription glasses, Sunglasses",
        "audiology": "false",
        "status": "Active"
      }
    },
    {
      "type": "Feature",
      "geometry": {
        "type": "Point",
        "coordinates": [
          145.01057581349,
          -37.813394768248
        ]
      },
      "properties": {
        "name": "Victoria Gardens",
        "id": "89",
        "country": "Australia",
        "state": "VIC",
        "city": "Richmond",
        "postal_code": "3121",
        "full_address": "SP 020, Victoria Gardens Shopping Centre, 620 Victoria St, Richmond VIC 3121",
        "phone": "(03) 7012 1807",
        "official_url": "https://www.oscarwylee.com.au/locations/locations/optometrist-victoria-gardens.html",
        "services": "Comprehensive eye tests, Prescription glasses, Sunglasses",
        "audiology": "false",
        "status": "Active"
      }
    },
    {
      "type": "Feature",
      "geometry": {
        "type": "Point",
        "coordinates": [
          145.2269951,
          -37.8121755
        ]
      },
      "properties": {
        "name": "Eastland Shopping Centre",
        "id": "45",
        "country": "Australia",
        "state": "VIC",
        "city": "Ringwood",
        "postal_code": "3134",
        "full_address": "Shop 1076, Eastland Shopping Centre, 175 Maroondah Hwy Ringwood VIC 3134, Australia",
        "phone": "(03) 8839 6192",
        "official_url": "https://www.oscarwylee.com.au/locations/locations/optometrist-eastland.html",
        "services": "Comprehensive eye tests, Prescription glasses, Sunglasses",
        "audiology": "false",
        "status": "Active"
      }
    },
    {
      "type": "Feature",
      "geometry": {
        "type": "Point",
        "coordinates": [
          145.42418022289,
          -36.386990336367
        ]
      },
      "properties": {
        "name": "Shepparton Marketplace",
        "id": "116",
        "country": "Australia",
        "state": "VIC",
        "city": "Shepparton",
        "postal_code": "3630",
        "full_address": "Shop 14, Shepparton Marketplace, 110 Benalla Rd, Shepparton VIC 3630",
        "phone": "(03) 4800 3134",
        "official_url": "https://www.oscarwylee.com.au/locations/locations/optometrist-shepparton.html",
        "services": "Comprehensive eye tests, Prescription glasses, Sunglasses",
        "audiology": "false",
        "status": "Active"
      }
    },
    {
      "type": "Feature",
      "geometry": {
        "type": "Point",
        "coordinates": [
          144.9919943,
          -37.8454847
        ]
      },
      "properties": {
        "name": "Chapel St",
        "id": "15",
        "country": "Australia",
        "state": "VIC",
        "city": "South Yarra",
        "postal_code": "3141",
        "full_address": "393 Chapel St, South Yarra VIC 3141",
        "phone": "03 8596 2541",
        "official_url": "https://www.oscarwylee.com.au/locations/locations/optometrist-chapel-st.html",
        "services": "Comprehensive eye tests, Prescription glasses, Sunglasses",
        "audiology": "false",
        "status": "Active"
      }
    },
    {
      "type": "Feature",
      "geometry": {
        "type": "Point",
        "coordinates": [
          144.77595054877,
          -37.697938852538
        ]
      },
      "properties": {
        "name": "Watergardens",
        "id": "92",
        "country": "Australia",
        "state": "VIC",
        "city": "Taylors Lakes",
        "postal_code": "3038",
        "full_address": "T20 Watergardens Shopping Centre, 399 Melton Hwy, Taylors Lakes VIC 3038",
        "phone": "(03) 8315 9284",
        "official_url": "https://www.oscarwylee.com.au/locations/locations/optometrist-watergardens.html",
        "services": "Comprehensive eye tests, Prescription glasses, Sunglasses",
        "audiology": "false",
        "status": "Active"
      }
    },
    {
      "type": "Feature",
      "geometry": {
        "type": "Point",
        "coordinates": [
          146.53765022657,
          -38.196708199226
        ]
      },
      "properties": {
        "name": "Traralgon",
        "id": "103",
        "country": "Australia",
        "state": "VIC",
        "city": "Traralgon",
        "postal_code": "3844",
        "full_address": "61 Franklin Street, Traralgon VIC 3844",
        "phone": "(03) 5114 2464",
        "official_url": "https://www.oscarwylee.com.au/locations/locations/optometrist-traralgon.html",
        "services": "Comprehensive eye tests, Prescription glasses, Sunglasses",
        "audiology": "false",
        "status": "Active"
      }
    },
    {
      "type": "Feature",
      "geometry": {
        "type": "Point",
        "coordinates": [
          145.2373681,
          -37.8686142
        ]
      },
      "properties": {
        "name": "Westfield Knox",
        "id": "30",
        "country": "Australia",
        "state": "VIC",
        "city": "Wantirna South",
        "postal_code": "3152",
        "full_address": "Shop 1030, Westfield Knox, 425 Burwood Hwy, Wantirna South VIC 3152",
        "phone": "(03) 8806 2601",
        "official_url": "https://www.oscarwylee.com.au/locations/locations/optometrist-knox.html",
        "services": "Comprehensive eye tests, Prescription glasses, Sunglasses",
        "audiology": "false",
        "status": "Active"
      }
    },
    {
      "type": "Feature",
      "geometry": {
        "type": "Point",
        "coordinates": [
          144.6781193,
          -37.8759487
        ]
      },
      "properties": {
        "name": "Pacific Werribee",
        "id": "22",
        "country": "Australia",
        "state": "VIC",
        "city": "Werribee",
        "postal_code": "3030",
        "full_address": "Shop 167, Pacific Werribee Derrimut Rd & Heaths Rd, Werribee VIC 3030",
        "phone": "03 8763 0234",
        "official_url": "https://www.oscarwylee.com.au/locations/locations/optometrist-werribee.html",
        "services": "Comprehensive eye tests, Prescription glasses, Sunglasses",
        "audiology": "false",
        "status": "Active"
      }
    },
    {
      "type": "Feature",
      "geometry": {
        "type": "Point",
        "coordinates": [
          115.8333253,
          -32.0339921
        ]
      },
      "properties": {
        "name": "Westfield Booragoon",
        "id": "71",
        "country": "Australia",
        "state": "WA",
        "city": "Booragoon",
        "postal_code": "6154",
        "full_address": "T17, Westfield Booragoon, 125 Riseley St, Booragoon WA 6154",
        "phone": "(08) 6249 7150",
        "official_url": "https://www.oscarwylee.com.au/locations/locations/optometrist-booragoon.html",
        "services": "Comprehensive eye tests, Prescription glasses, Sunglasses",
        "audiology": "false",
        "status": "Active"
      }
    },
    {
      "type": "Feature",
      "geometry": {
        "type": "Point",
        "coordinates": [
          115.938,
          -32.01862
        ]
      },
      "properties": {
        "name": "Westfield Carousel",
        "id": "61",
        "country": "Australia",
        "state": "WA",
        "city": "Cannington",
        "postal_code": "6107",
        "full_address": "Shop 1131, Westfield Carousel 1382 Albany Hwy Cannington WA 6107",
        "phone": "08 6249 4721",
        "official_url": "https://www.oscarwylee.com.au/locations/locations/optometrist-carousel.html",
        "services": "Comprehensive eye tests, Prescription glasses, Sunglasses",
        "audiology": "false",
        "status": "Active"
      }
    },
    {
      "type": "Feature",
      "geometry": {
        "type": "Point",
        "coordinates": [
          115.7795913,
          -31.981090151128
        ]
      },
      "properties": {
        "name": "Claremont Quarter",
        "id": "118",
        "country": "Australia",
        "state": "WA",
        "city": "Claremont",
        "postal_code": "6010",
        "full_address": "133B, Claremont Quarter, 9 Bay View Terrace, Claremont WA 6010",
        "phone": "(08) 6237 1814",
        "official_url": "https://www.oscarwylee.com.au/locations/locations/optometrist-claremont.html",
        "services": "Comprehensive eye tests, Prescription glasses, Sunglasses",
        "audiology": "false",
        "status": "Active"
      }
    },
    {
      "type": "Feature",
      "geometry": {
        "type": "Point",
        "coordinates": [
          115.79980644498,
          -31.900849402226
        ]
      },
      "properties": {
        "name": "Westfield Innaloo",
        "id": "149",
        "country": "Australia",
        "state": "WA",
        "city": "Ellen Stirling Blvd Innaloo",
        "postal_code": "6018",
        "full_address": "Westfield Innaloo, Shop 1-1067/8, Ellen Stirling Blvd Innaloo, WA 6018",
        "phone": "(08) 6186 2337",
        "official_url": "https://www.oscarwylee.com.au/locations/locations/optometrist-innaloo.html",
        "services": "Comprehensive eye tests, Prescription glasses, Sunglasses",
        "audiology": "false",
        "status": "Active"
      }
    },
    {
      "type": "Feature",
      "geometry": {
        "type": "Point",
        "coordinates": [
          115.96946024094,
          -31.782543914967
        ]
      },
      "properties": {
        "name": "Ellenbrook Central",
        "id": "148",
        "country": "Australia",
        "state": "WA",
        "city": "Ellenbrook",
        "postal_code": "6069",
        "full_address": "Ellenbrook Central Shop G-043, 11 Main Street Ellenbrook WA 6069",
        "phone": "08 6186 2335",
        "official_url": "https://www.oscarwylee.com.au/locations/locations/optometrist-ellenbrook.html",
        "services": "Comprehensive eye tests, Prescription glasses, Sunglasses",
        "audiology": "false",
        "status": "Active"
      }
    },
    {
      "type": "Feature",
      "geometry": {
        "type": "Point",
        "coordinates": [
          115.74956589756,
          -31.796689419765
        ]
      },
      "properties": {
        "name": "Westfield Whitford City",
        "id": "111",
        "country": "Australia",
        "state": "WA",
        "city": "Hillarys",
        "postal_code": "6025",
        "full_address": "Shop 169, Westfield Whitford City, Cnr Marmion Ave &, Whitfords Ave, Hillarys WA 6025",
        "phone": "(08) 6209 5899",
        "official_url": "https://www.oscarwylee.com.au/locations/locations/optometrist-whitford-city.html",
        "services": "Comprehensive eye tests, Prescription glasses, Sunglasses",
        "audiology": "false",
        "status": "Active"
      }
    },
    {
      "type": "Feature",
      "geometry": {
        "type": "Point",
        "coordinates": [
          115.767502,
          -31.743391
        ]
      },
      "properties": {
        "name": "Lakeside Joondalup",
        "id": "60",
        "country": "Australia",
        "state": "WA",
        "city": "Joondalup",
        "postal_code": "6027",
        "full_address": "Shop T007A, Lakeside Shopping City 420 Joondalup Dr Joondalup, WA 6027",
        "phone": "08 6209 7966",
        "official_url": "https://www.oscarwylee.com.au/locations/locations/optometrist-joondalup.html",
        "services": "Comprehensive eye tests, Prescription glasses, Sunglasses",
        "audiology": "false",
        "status": "Active"
      }
    },
    {
      "type": "Feature",
      "geometry": {
        "type": "Point",
        "coordinates": [
          115.77607600055,
          -31.876505088594
        ]
      },
      "properties": {
        "name": "Karrinyup",
        "id": "134",
        "country": "Australia",
        "state": "WA",
        "city": "Karrinyup",
        "postal_code": "6018",
        "full_address": "Karrinyup Shopping Centre, Shop SPO284, 200 Karrinyup Rd, Karrinyup WA 6018",
        "phone": "(08) 6249 4919",
        "official_url": "https://www.oscarwylee.com.au/locations/locations/optometrist-karrinyup.html",
        "services": "Comprehensive eye tests, Prescription glasses, Sunglasses",
        "audiology": "false",
        "status": "Active"
      }
    },
    {
      "type": "Feature",
      "geometry": {
        "type": "Point",
        "coordinates": [
          115.74235669768,
          -32.53521168717
        ]
      },
      "properties": {
        "name": "Mandurah Forum",
        "id": "114",
        "country": "Australia",
        "state": "WA",
        "city": "Mandurah",
        "postal_code": "6210",
        "full_address": "G-048-Mandurah Forum, 330 Pinjarra Rd, Mandurah WA 6210",
        "phone": "(08) 9567 5094",
        "official_url": "https://www.oscarwylee.com.au/locations/locations/optometrist-mandurah.html",
        "services": "Comprehensive eye tests, Prescription glasses, Sunglasses",
        "audiology": "false",
        "status": "Active"
      }
    },
    {
      "type": "Feature",
      "geometry": {
        "type": "Point",
        "coordinates": [
          116.010351,
          -31.888841
        ]
      },
      "properties": {
        "name": "Midland Gate",
        "id": "76",
        "country": "Australia",
        "state": "WA",
        "city": "Midland",
        "postal_code": "6056",
        "full_address": "T086B, Midland Gate Shopping Centre, 274 Great Eastern Hwy, Midland WA 6056",
        "phone": "08 6113 5316",
        "official_url": "https://www.oscarwylee.com.au/locations/locations/optometrist-midland-gate.html",
        "services": "Comprehensive eye tests, Prescription glasses, Sunglasses",
        "audiology": "false",
        "status": "Active"
      }
    },
    {
      "type": "Feature",
      "geometry": {
        "type": "Point",
        "coordinates": [
          115.899473,
          -31.895635
        ]
      },
      "properties": {
        "name": "Galleria Shopping Centre",
        "id": "77",
        "country": "Australia",
        "state": "WA",
        "city": "Morley",
        "postal_code": "6062",
        "full_address": "Shop 1032, Galleria Shopping Centre, Collier Rd & Walter Rd W, Morley, WA, 6062",
        "phone": "08 6507 7108",
        "official_url": "https://www.oscarwylee.com.au/locations/locations/optometrist-morley-galleria.html",
        "services": "Comprehensive eye tests, Prescription glasses, Sunglasses",
        "audiology": "false",
        "status": "Active"
      }
    },
    {
      "type": "Feature",
      "geometry": {
        "type": "Point",
        "coordinates": [
          115.74490308466,
          -32.288413068596
        ]
      },
      "properties": {
        "name": "Rockingham Centre",
        "id": "112",
        "country": "Australia",
        "state": "WA",
        "city": "Rockingham",
        "postal_code": "6168",
        "full_address": "Shop G057, Rockingham Centre, 1 Council Ave, Rockingham WA 6168",
        "phone": "(08) 9505 8599",
        "official_url": "https://www.oscarwylee.com.au/locations/locations/optometrist-rockingham.html",
        "services": "Comprehensive eye tests, Prescription glasses, Sunglasses",
        "audiology": "false",
        "status": "Active"
      }
    }
  ]
}
